$GPGGA,004658.00,3741.411958,N,12223.540849,W,7,,1.14,-30.37,M,0.0,M,0.0,0000*72
$GPRMC,004658.00,A,3741.411958,N,12223.540849,W,000.0,000.0,150520,,,A*45
$GPGGA,004659.00,3741.411958,N,12223.540849,W,7,,1.15,-30.38,M,0.0,M,0.0,0000*7D
$GPRMC,004659.00,A,3741.411958,N,12223.540849,W,000.0,000.0,150520,,,A*44
$GPGGA,004700.00,3741.411958,N,12223.540849,W,7,,1.16,-30.37,M,0.0,M,0.0,0000*7C
$GPRMC,004700.00,A,3741.411958,N,12223.540849,W,000.0,000.0,150520,,,A*49
$GPGGA,004701.00,3741.411958,N,12223.540849,W,7,,1.15,-30.37,M,0.0,M,0.0,0000*7E
$GPRMC,004701.00,A,3741.411958,N,12223.540849,W,000.0,000.0,150520,,,A*48
$GPGGA,004702.00,3741.411958,N,12223.540849,W,7,,1.14,-30.37,M,0.0,M,0.0,0000*7C
$GPRMC,004702.00,A,3741.411958,N,12223.540849,W,000.0,000.0,150520,,,A*4B
$GPGGA,004703.00,3741.411952,N,12223.540849,W,7,,1.15,-30.37,M,0.0,M,0.0,0000*76
$GPRMC,004703.00,A,3741.411952,N,12223.540849,W,000.0,000.0,150520,,,A*40
$GPGGA,004704.00,3741.411952,N,12223.540849,W,7,,1.17,-30.37,M,0.0,M,0.0,0000*73
$GPRMC,004704.00,A,3741.411952,N,12223.540849,W,000.0,000.0,150520,,,A*47
$GPGGA,004705.00,3741.411952,N,12223.540849,W,7,,1.18,-30.37,M,0.0,M,0.0,0000*7D
$GPRMC,004705.00,A,3741.411952,N,12223.540849,W,000.0,000.0,150520,,,A*46
$GPGGA,004706.00,3741.411952,N,12223.540849,W,7,,1.16,-30.37,M,0.0,M,0.0,0000*70
$GPRMC,004706.00,A,3741.411952,N,12223.540849,W,000.0,000.0,150520,,,A*45
$GPGGA,004707.00,3741.411952,N,12223.540849,W,7,,1.15,-30.37,M,0.0,M,0.0,0000*72
$GPRMC,004707.00,A,3741.411952,N,12223.540849,W,000.0,000.0,150520,,,A*44
$GPGGA,004708.00,3741.411946,N,12223.540844,W,7,,1.17,-30.37,M,0.0,M,0.0,0000*77
$GPRMC,004708.00,A,3741.411946,N,12223.540844,W,000.0,000.0,150520,,,A*43
$GPGGA,004709.00,3741.411946,N,12223.540844,W,7,,1.15,-30.37,M,0.0,M,0.0,0000*74
$GPRMC,004709.00,A,3741.411946,N,12223.540844,W,000.0,000.0,150520,,,A*42
$GPGGA,004710.00,3741.411946,N,12223.540837,W,7,,1.16,-30.36,M,0.0,M,0.0,0000*7A
$GPRMC,004710.00,A,3741.411946,N,12223.540837,W,000.0,000.0,150520,,,A*4E
$GPGGA,004711.00,3741.411946,N,12223.540837,W,7,,1.16,-30.36,M,0.0,M,0.0,0000*7B
$GPRMC,004711.00,A,3741.411946,N,12223.540837,W,000.0,000.0,150520,,,A*4F
$GPGGA,004712.00,3741.411946,N,12223.540837,W,7,,1.16,-30.36,M,0.0,M,0.0,0000*78
$GPRMC,004712.00,A,3741.411946,N,12223.540837,W,000.0,000.0,150520,,,A*4C
$GPGGA,004713.00,3741.411933,N,12223.540825,W,7,,1.14,-30.35,M,0.0,M,0.0,0000*79
$GPRMC,004713.00,A,3741.411933,N,12223.540825,W,000.0,000.0,150520,,,A*4C
$GPGGA,004714.00,3741.411933,N,12223.540825,W,7,,1.14,-30.35,M,0.0,M,0.0,0000*7E
$GPRMC,004714.00,A,3741.411933,N,12223.540825,W,000.0,000.0,150520,,,A*4B
$GPGGA,004715.00,3741.411933,N,12223.540820,W,7,,1.13,-30.34,M,0.0,M,0.0,0000*7C
$GPRMC,004715.00,A,3741.411933,N,12223.540820,W,000.0,000.0,150520,,,A*4F
$GPGGA,004716.00,3741.411927,N,12223.540820,W,7,,1.10,-30.32,M,0.0,M,0.0,0000*7F
$GPRMC,004716.00,A,3741.411927,N,12223.540820,W,000.0,000.0,150520,,,A*49
$GPGGA,004717.00,3741.411927,N,12223.540825,W,7,,1.13,-30.32,M,0.0,M,0.0,0000*78
$GPRMC,004717.00,A,3741.411927,N,12223.540825,W,000.0,000.0,150520,,,A*4D
$GPGGA,004718.00,3741.411922,N,12223.540825,W,7,,1.11,-30.33,M,0.0,M,0.0,0000*71
$GPRMC,004718.00,A,3741.411922,N,12223.540825,W,000.0,000.0,150520,,,A*47
$GPGGA,004719.00,3741.411922,N,12223.540825,W,7,,1.11,-30.32,M,0.0,M,0.0,0000*71
$GPRMC,004719.00,A,3741.411922,N,12223.540825,W,000.0,000.0,150520,,,A*46
$GPGGA,004720.00,3741.411922,N,12223.540825,W,7,,1.09,-30.32,M,0.0,M,0.0,0000*72
$GPRMC,004720.00,A,3741.411922,N,12223.540825,W,000.0,000.0,150520,,,A*4C
$GPGGA,004721.00,3741.411922,N,12223.540820,W,7,,1.12,-30.32,M,0.0,M,0.0,0000*7C
$GPRMC,004721.00,A,3741.411922,N,12223.540820,W,000.0,000.0,150520,,,A*48
$GPGGA,004722.00,3741.411922,N,12223.540820,W,7,,1.11,-30.32,M,0.0,M,0.0,0000*7C
$GPRMC,004722.00,A,3741.411922,N,12223.540820,W,000.0,000.0,150520,,,A*4B
$GPGGA,004723.00,3741.411916,N,12223.540820,W,7,,1.09,-30.32,M,0.0,M,0.0,0000*73
$GPRMC,004723.00,A,3741.411916,N,12223.540820,W,000.0,000.0,150520,,,A*4D
$GPGGA,004724.00,3741.411916,N,12223.540820,W,7,,1.07,-30.32,M,0.0,M,0.0,0000*7A
$GPRMC,004724.00,A,3741.411916,N,12223.540820,W,000.0,000.0,150520,,,A*4A
$GPGGA,004725.00,3741.411916,N,12223.540820,W,7,,1.05,-30.32,M,0.0,M,0.0,0000*79
$GPRMC,004725.00,A,3741.411916,N,12223.540820,W,000.0,000.0,150520,,,A*4B
$GPGGA,004726.00,3741.411916,N,12223.540814,W,7,,1.05,-30.31,M,0.0,M,0.0,0000*7E
$GPRMC,004726.00,A,3741.411916,N,12223.540814,W,000.0,000.0,150520,,,A*4F
$GPGGA,004727.00,3741.411916,N,12223.540820,W,7,,1.06,-30.31,M,0.0,M,0.0,0000*7B
$GPRMC,004727.00,A,3741.411916,N,12223.540820,W,000.0,000.0,150520,,,A*49
$GPGGA,004728.00,3741.411903,N,12223.540820,W,7,,1.07,-30.29,M,0.0,M,0.0,0000*78
$GPRMC,004728.00,A,3741.411903,N,12223.540820,W,000.0,000.0,150520,,,A*42
$GPGGA,004729.00,3741.411903,N,12223.540820,W,7,,1.07,-30.29,M,0.0,M,0.0,0000*79
$GPRMC,004729.00,A,3741.411903,N,12223.540820,W,000.0,000.0,150520,,,A*43
$GPGGA,004730.00,3741.411903,N,12223.540814,W,7,,1.09,-30.29,M,0.0,M,0.0,0000*78
$GPRMC,004730.00,A,3741.411903,N,12223.540814,W,000.0,000.0,150520,,,A*4C
$GPGGA,004731.00,3741.411903,N,12223.540814,W,7,,1.15,-30.28,M,0.0,M,0.0,0000*75
$GPRMC,004731.00,A,3741.411903,N,12223.540814,W,000.0,000.0,150520,,,A*4D
$GPGGA,004732.00,3741.411903,N,12223.540814,W,7,,1.17,-30.28,M,0.0,M,0.0,0000*74
$GPRMC,004732.00,A,3741.411903,N,12223.540814,W,000.0,000.0,150520,,,A*4E
$GPGGA,004733.00,3741.411897,N,12223.540807,W,7,,1.17,-30.28,M,0.0,M,0.0,0000*7B
$GPRMC,004733.00,A,3741.411897,N,12223.540807,W,000.0,000.0,150520,,,A*41
$GPGGA,004734.00,3741.411903,N,12223.540814,W,7,,1.15,-30.28,M,0.0,M,0.0,0000*70
$GPRMC,004734.00,A,3741.411903,N,12223.540814,W,000.0,000.0,150520,,,A*48
$GPGGA,004735.00,3741.411903,N,12223.540814,W,7,,1.16,-30.28,M,0.0,M,0.0,0000*72
$GPRMC,004735.00,A,3741.411903,N,12223.540814,W,000.0,000.0,150520,,,A*49
$GPGGA,004736.00,3741.411897,N,12223.540807,W,7,,1.17,-30.28,M,0.0,M,0.0,0000*7E
$GPRMC,004736.00,A,3741.411897,N,12223.540807,W,000.0,000.0,150520,,,A*44
$GPGGA,004737.00,3741.411897,N,12223.540807,W,7,,1.13,-30.27,M,0.0,M,0.0,0000*74
$GPRMC,004737.00,A,3741.411897,N,12223.540807,W,000.0,000.0,150520,,,A*45
$GPGGA,004738.00,3741.411916,N,12223.540777,W,7,,1.10,-30.32,M,0.0,M,0.0,0000*7C
$GPRMC,004738.00,A,3741.411916,N,12223.540777,W,000.0,000.0,150520,,,A*4A
$GPGGA,004739.00,3741.412282,N,12223.541137,W,7,,1.08,-31.02,M,0.0,M,0.0,0000*70
$GPRMC,004739.00,A,3741.412282,N,12223.541137,W,000.6,139.8,150520,,,A*48
$GPGGA,004740.00,3741.411412,N,12223.540286,W,7,,0.38,-31.17,M,0.0,M,0.0,0000*7C
$GPRMC,004740.00,A,3741.411412,N,12223.540286,W,000.0,000.0,150520,,,A*47
$GPGGA,004741.00,3741.411747,N,12223.539740,W,7,,0.38,-29.81,M,0.0,M,0.0,0000*79
$GPRMC,004741.00,A,3741.411747,N,12223.539740,W,000.0,000.0,150520,,,A*44
$GPGGA,004742.00,3741.411472,N,12223.539433,W,7,,0.38,-29.24,M,0.0,M,0.0,0000*77
$GPRMC,004742.00,A,3741.411472,N,12223.539433,W,000.9,170.4,150520,,,A*4E
$GPGGA,004743.00,3741.411465,N,12223.539343,W,7,,0.38,-30.23,M,0.0,M,0.0,0000*7F
$GPRMC,004743.00,A,3741.411465,N,12223.539343,W,000.0,000.0,150520,,,A*42
$GPGGA,004744.00,3741.411442,N,12223.539229,W,7,,0.38,-30.39,M,0.0,M,0.0,0000*7B
$GPRMC,004744.00,A,3741.411442,N,12223.539229,W,000.0,000.0,150520,,,A*4D
$GPGGA,004745.00,3741.411724,N,12223.539224,W,7,,0.38,-31.04,M,0.0,M,0.0,0000*7B
$GPRMC,004745.00,A,3741.411724,N,12223.539224,W,000.0,000.0,150520,,,A*42
$GPGGA,004746.00,3741.411609,N,12223.539361,W,7,,0.38,-30.86,M,0.0,M,0.0,0000*7D
$GPRMC,004746.00,A,3741.411609,N,12223.539361,W,000.0,000.0,150520,,,A*4F
$GPGGA,004747.00,3741.411406,N,12223.539224,W,7,,0.38,-30.11,M,0.0,M,0.0,0000*7F
$GPRMC,004747.00,A,3741.411406,N,12223.539224,W,000.0,000.0,150520,,,A*43
$GPGGA,004748.00,3741.411309,N,12223.539134,W,7,,0.38,-29.36,M,0.0,M,0.0,0000*77
$GPRMC,004748.00,A,3741.411309,N,12223.539134,W,000.0,000.0,150520,,,A*46
$GPGGA,004749.00,3741.411358,N,12223.539313,W,7,,0.38,-29.47,M,0.0,M,0.0,0000*73
$GPRMC,004749.00,A,3741.411358,N,12223.539313,W,000.0,000.0,150520,,,A*44
$GPGGA,004750.00,3741.411237,N,12223.539313,W,7,,0.38,-28.71,M,0.0,M,0.0,0000*77
$GPRMC,004750.00,A,3741.411237,N,12223.539313,W,000.0,000.0,150520,,,A*44
$GPGGA,004751.00,3741.411190,N,12223.539217,W,7,,0.38,-28.52,M,0.0,M,0.0,0000*7C
$GPRMC,004751.00,A,3741.411190,N,12223.539217,W,000.0,000.0,150520,,,A*4E
$GPGGA,004752.00,3741.411112,N,12223.539266,W,7,,0.38,-28.01,M,0.0,M,0.0,0000*75
$GPRMC,004752.00,A,3741.411112,N,12223.539266,W,000.0,000.0,150520,,,A*41
$GPGGA,004753.00,3741.411034,N,12223.539241,W,7,,0.38,-27.53,M,0.0,M,0.0,0000*7C
$GPRMC,004753.00,A,3741.411034,N,12223.539241,W,000.0,000.0,150520,,,A*40
$GPGGA,004754.00,3741.411082,N,12223.539361,W,7,,0.38,-27.42,M,0.0,M,0.0,0000*75
$GPRMC,004754.00,A,3741.411082,N,12223.539361,W,000.0,000.0,150520,,,A*49
$GPGGA,004755.00,3741.411093,N,12223.539385,W,7,,0.38,-27.45,M,0.0,M,0.0,0000*79
$GPRMC,004755.00,A,3741.411093,N,12223.539385,W,000.0,000.0,150520,,,A*42
$GPGGA,004756.00,3741.411099,N,12223.539392,W,7,,0.38,-27.37,M,0.0,M,0.0,0000*73
$GPRMC,004756.00,A,3741.411099,N,12223.539392,W,000.0,000.0,150520,,,A*4D
$GPGGA,004757.00,3741.411093,N,12223.539385,W,7,,0.38,-27.34,M,0.0,M,0.0,0000*7D
$GPRMC,004757.00,A,3741.411093,N,12223.539385,W,000.0,000.0,150520,,,A*40
$GPGGA,004758.00,3741.411093,N,12223.539385,W,7,,0.38,-27.34,M,0.0,M,0.0,0000*72
$GPRMC,004758.00,A,3741.411093,N,12223.539385,W,000.0,000.0,150520,,,A*4F
$GPGGA,004759.00,3741.411093,N,12223.539385,W,7,,0.38,-27.34,M,0.0,M,0.0,0000*73
$GPRMC,004759.00,A,3741.411093,N,12223.539385,W,000.0,000.0,150520,,,A*4E
$GPGGA,004800.00,3741.411093,N,12223.539385,W,7,,0.38,-27.34,M,0.0,M,0.0,0000*70
$GPRMC,004800.00,A,3741.411093,N,12223.539385,W,000.0,000.0,150520,,,A*4D
$GPGGA,004801.00,3741.411093,N,12223.539385,W,7,,0.38,-27.34,M,0.0,M,0.0,0000*71
$GPRMC,004801.00,A,3741.411093,N,12223.539385,W,000.0,000.0,150520,,,A*4C
$GPGGA,004802.00,3741.411093,N,12223.539380,W,7,,0.38,-27.34,M,0.0,M,0.0,0000*77
$GPRMC,004802.00,A,3741.411093,N,12223.539380,W,000.0,000.0,150520,,,A*4A
$GPGGA,004803.00,3741.411093,N,12223.539380,W,7,,0.38,-27.34,M,0.0,M,0.0,0000*76
$GPRMC,004803.00,A,3741.411093,N,12223.539380,W,000.0,000.0,150520,,,A*4B
$GPGGA,004804.00,3741.411093,N,12223.539380,W,7,,0.38,-27.34,M,0.0,M,0.0,0000*71
$GPRMC,004804.00,A,3741.411093,N,12223.539380,W,000.0,000.0,150520,,,A*4C
$GPGGA,004805.00,3741.411093,N,12223.539380,W,7,,0.38,-27.34,M,0.0,M,0.0,0000*70
$GPRMC,004805.00,A,3741.411093,N,12223.539380,W,000.0,000.0,150520,,,A*4D
$GPGGA,004806.00,3741.411093,N,12223.539380,W,7,,0.38,-27.34,M,0.0,M,0.0,0000*73
$GPRMC,004806.00,A,3741.411093,N,12223.539380,W,000.0,000.0,150520,,,A*4E
$GPGGA,004807.00,3741.411093,N,12223.539380,W,7,,0.38,-27.35,M,0.0,M,0.0,0000*73
$GPRMC,004807.00,A,3741.411093,N,12223.539380,W,000.0,000.0,150520,,,A*4F
$GPGGA,004808.00,3741.411093,N,12223.539380,W,7,,0.38,-27.34,M,0.0,M,0.0,0000*7D
$GPRMC,004808.00,A,3741.411093,N,12223.539380,W,000.0,000.0,150520,,,A*40
$GPGGA,004809.00,3741.411093,N,12223.539380,W,7,,0.38,-27.34,M,0.0,M,0.0,0000*7C
$GPRMC,004809.00,A,3741.411093,N,12223.539380,W,000.0,000.0,150520,,,A*41
$GPGGA,004810.00,3741.411093,N,12223.539380,W,7,,0.38,-27.34,M,0.0,M,0.0,0000*74
$GPRMC,004810.00,A,3741.411093,N,12223.539380,W,000.0,000.0,150520,,,A*49
$GPGGA,004811.00,3741.411087,N,12223.539380,W,7,,0.38,-27.34,M,0.0,M,0.0,0000*70
$GPRMC,004811.00,A,3741.411087,N,12223.539380,W,000.0,000.0,150520,,,A*4D
$GPGGA,004812.00,3741.411087,N,12223.539380,W,7,,0.38,-27.34,M,0.0,M,0.0,0000*73
$GPRMC,004812.00,A,3741.411087,N,12223.539380,W,000.0,000.0,150520,,,A*4E
$GPGGA,004813.00,3741.411087,N,12223.539380,W,7,,0.38,-27.33,M,0.0,M,0.0,0000*75
$GPRMC,004813.00,A,3741.411087,N,12223.539380,W,000.0,000.0,150520,,,A*4F
$GPGGA,004814.00,3741.411087,N,12223.539380,W,7,,0.38,-27.33,M,0.0,M,0.0,0000*72
$GPRMC,004814.00,A,3741.411087,N,12223.539380,W,000.0,000.0,150520,,,A*48
$GPGGA,004815.00,3741.411087,N,12223.539373,W,7,,0.38,-27.32,M,0.0,M,0.0,0000*7E
$GPRMC,004815.00,A,3741.411087,N,12223.539373,W,000.0,000.0,150520,,,A*45
$GPGGA,004816.00,3741.411087,N,12223.539373,W,7,,0.38,-27.32,M,0.0,M,0.0,0000*7D
$GPRMC,004816.00,A,3741.411087,N,12223.539373,W,000.0,000.0,150520,,,A*46
$GPGGA,004817.00,3741.411087,N,12223.539380,W,7,,0.38,-27.31,M,0.0,M,0.0,0000*73
$GPRMC,004817.00,A,3741.411087,N,12223.539380,W,000.0,000.0,150520,,,A*4B
$GPGGA,004818.00,3741.411087,N,12223.539380,W,7,,0.38,-27.32,M,0.0,M,0.0,0000*7F
$GPRMC,004818.00,A,3741.411087,N,12223.539380,W,000.0,000.0,150520,,,A*44
$GPGGA,004819.00,3741.411082,N,12223.539380,W,7,,0.38,-27.32,M,0.0,M,0.0,0000*7B
$GPRMC,004819.00,A,3741.411082,N,12223.539380,W,000.0,000.0,150520,,,A*40
$GPGGA,004820.00,3741.411082,N,12223.539380,W,7,,0.38,-27.32,M,0.0,M,0.0,0000*71
$GPRMC,004820.00,A,3741.411082,N,12223.539380,W,000.0,000.0,150520,,,A*4A
$GPGGA,004821.00,3741.411034,N,12223.539566,W,7,,0.38,-27.52,M,0.0,M,0.0,0000*75
$GPRMC,004821.00,A,3741.411034,N,12223.539566,W,000.9,139.8,150520,,,A*42
$GPGGA,004822.00,3741.410458,N,12223.538948,W,7,,0.38,-27.38,M,0.0,M,0.0,0000*74
$GPRMC,004822.00,A,3741.410458,N,12223.538948,W,003.2,149.4,150520,,,A*4C
$GPGGA,004823.00,3741.409612,N,12223.538005,W,7,,0.38,-27.89,M,0.0,M,0.0,0000*7B
$GPRMC,004823.00,A,3741.409612,N,12223.538005,W,004.4,163.7,150520,,,A*43
$GPGGA,004824.00,3741.409000,N,12223.537214,W,7,,0.38,-27.72,M,0.0,M,0.0,0000*70
$GPRMC,004824.00,A,3741.409000,N,12223.537214,W,004.6,181.1,150520,,,A*44
$GPGGA,004825.00,3741.408753,N,12223.536517,W,7,,0.38,-27.95,M,0.0,M,0.0,0000*7D
$GPRMC,004825.00,A,3741.408753,N,12223.536517,W,004.7,197.0,150520,,,A*47
$GPGGA,004826.00,3741.408789,N,12223.535918,W,7,,0.38,-28.15,M,0.0,M,0.0,0000*7E
$GPRMC,004826.00,A,3741.408789,N,12223.535918,W,006.0,215.4,150520,,,A*4B
$GPGGA,004827.00,3741.409426,N,12223.535690,W,7,,0.38,-27.95,M,0.0,M,0.0,0000*70
$GPRMC,004827.00,A,3741.409426,N,12223.535690,W,007.9,235.3,150520,,,A*4F
$GPGGA,004828.00,3741.416914,N,12223.529900,W,7,,0.38,-28.43,M,0.0,M,0.0,0000*72
$GPRMC,004828.00,A,3741.416914,N,12223.529900,W,010.6,249.1,150520,,,A*49
$GPGGA,004829.00,3741.420687,N,12223.529858,W,7,,0.38,-29.02,M,0.0,M,0.0,0000*7B
$GPRMC,004829.00,A,3741.420687,N,12223.529858,W,013.1,263.2,150520,,,A*4B
$GPGGA,004830.00,3741.424773,N,12223.530787,W,7,,0.38,-29.21,M,0.0,M,0.0,0000*79
$GPRMC,004830.00,A,3741.424773,N,12223.530787,W,012.8,268.7,150520,,,A*4E
$GPGGA,004831.00,3741.429244,N,12223.531454,W,7,,0.38,-29.34,M,0.0,M,0.0,0000*7C
$GPRMC,004831.00,A,3741.429244,N,12223.531454,W,013.3,268.4,150520,,,A*46
$GPGGA,004832.00,3741.434067,N,12223.531183,W,7,,0.38,-29.56,M,0.0,M,0.0,0000*7B
$GPRMC,004832.00,A,3741.434067,N,12223.531183,W,016.3,259.9,150520,,,A*4F
$GPGGA,004833.00,3741.438550,N,12223.529990,W,7,,0.38,-29.87,M,0.0,M,0.0,0000*78
$GPRMC,004833.00,A,3741.438550,N,12223.529990,W,016.0,249.8,150520,,,A*43
$GPGGA,004834.00,3741.442414,N,12223.527572,W,7,,0.38,-30.33,M,0.0,M,0.0,0000*7A
$GPRMC,004834.00,A,3741.442414,N,12223.527572,W,015.8,030.9,150520,,,A*40
$GPGGA,004835.00,3741.445258,N,12223.523786,W,7,,0.38,-30.35,M,0.0,M,0.0,0000*79
$GPRMC,004835.00,A,3741.445258,N,12223.523786,W,015.5,048.7,150520,,,A*49
$GPGGA,004836.00,3741.447304,N,12223.519195,W,7,,0.38,-30.35,M,0.0,M,0.0,0000*7D
$GPRMC,004836.00,A,3741.447304,N,12223.519195,W,015.2,065.4,150520,,,A*46
$GPGGA,004837.00,3741.448041,N,12223.513909,W,7,,0.38,-30.53,M,0.0,M,0.0,0000*76
$GPRMC,004837.00,A,3741.448041,N,12223.513909,W,015.0,080.9,150520,,,A*49
$GPGGA,004838.00,3741.447916,N,12223.508593,W,7,,0.38,-30.30,M,0.0,M,0.0,0000*7D
$GPRMC,004838.00,A,3741.447916,N,12223.508593,W,014.8,095.5,150520,,,A*46
$GPGGA,004839.00,3741.446997,N,12223.503116,W,7,,0.38,-30.52,M,0.0,M,0.0,0000*72
$GPRMC,004839.00,A,3741.446997,N,12223.503116,W,015.4,111.4,150520,,,A*4C
$GPGGA,004840.00,3741.444454,N,12223.497769,W,7,,0.38,-30.88,M,0.0,M,0.0,0000*79
$GPRMC,004840.00,A,3741.444454,N,12223.497769,W,016.7,126.1,150520,,,A*41
$GPGGA,004841.00,3741.440956,N,12223.492730,W,7,,0.38,-30.67,M,0.0,M,0.0,0000*7B
$GPRMC,004841.00,A,3741.440956,N,12223.492730,W,019.3,131.7,150520,,,A*49
$GPGGA,004842.00,3741.436401,N,12223.488254,W,7,,0.38,-30.45,M,0.0,M,0.0,0000*7A
$GPRMC,004842.00,A,3741.436401,N,12223.488254,W,020.6,132.5,150520,,,A*46
$GPGGA,004843.00,3741.430833,N,12223.484186,W,7,,0.38,-30.01,M,0.0,M,0.0,0000*70
$GPRMC,004843.00,A,3741.430833,N,12223.484186,W,021.6,129.4,150520,,,A*46
$GPGGA,004844.00,3741.425019,N,12223.481023,W,7,,0.38,-30.24,M,0.0,M,0.0,0000*7F
$GPRMC,004844.00,A,3741.425019,N,12223.481023,W,022.6,127.4,150520,,,A*43
$GPGGA,004845.00,3741.418924,N,12223.478647,W,7,,0.38,-31.03,M,0.0,M,0.0,0000*71
$GPRMC,004845.00,A,3741.418924,N,12223.478647,W,020.3,126.2,150520,,,A*49
$GPGGA,004846.00,3741.413992,N,12223.476709,W,7,,0.38,-31.43,M,0.0,M,0.0,0000*75
$GPRMC,004846.00,A,3741.413992,N,12223.476709,W,013.8,127.9,150520,,,A*48
$GPGGA,004847.00,3741.410115,N,12223.475084,W,7,,0.38,-31.31,M,0.0,M,0.0,0000*74
$GPRMC,004847.00,A,3741.410115,N,12223.475084,W,009.8,124.8,150520,,,A*45
$GPGGA,004848.00,3741.407811,N,12223.474160,W,7,,0.38,-31.17,M,0.0,M,0.0,0000*7E
$GPRMC,004848.00,A,3741.407811,N,12223.474160,W,006.3,123.7,150520,,,A*47
$GPGGA,004849.00,3741.406180,N,12223.474051,W,7,,0.38,-31.72,M,0.0,M,0.0,0000*7F
$GPRMC,004849.00,A,3741.406180,N,12223.474051,W,004.9,125.1,150520,,,A*4D
$GPGGA,004850.00,3741.404188,N,12223.473356,W,7,,0.38,-31.47,M,0.0,M,0.0,0000*78
$GPRMC,004850.00,A,3741.404188,N,12223.473356,W,006.4,127.2,150520,,,A*42
$GPGGA,004851.00,3741.401433,N,12223.472305,W,7,,0.38,-31.91,M,0.0,M,0.0,0000*75
$GPRMC,004851.00,A,3741.401433,N,12223.472305,W,009.2,127.7,150520,,,A*48
$GPGGA,004852.00,3741.397779,N,12223.470895,W,7,,0.38,-32.43,M,0.0,M,0.0,0000*7F
$GPRMC,004852.00,A,3741.397779,N,12223.470895,W,012.5,129.2,150520,,,A*48
$GPGGA,004853.00,3741.392794,N,12223.469389,W,7,,0.38,-32.06,M,0.0,M,0.0,0000*77
$GPRMC,004853.00,A,3741.392794,N,12223.469389,W,016.5,129.0,150520,,,A*47
$GPGGA,004854.00,3741.387292,N,12223.468153,W,7,,0.38,-32.41,M,0.0,M,0.0,0000*70
$GPRMC,004854.00,A,3741.387292,N,12223.468153,W,018.8,134.5,150520,,,A*49
$GPGGA,004855.00,3741.380500,N,12223.466425,W,7,,0.38,-32.32,M,0.0,M,0.0,0000*74
$GPRMC,004855.00,A,3741.380500,N,12223.466425,W,022.9,161.8,150520,,,A*4C
$GPGGA,004856.00,3741.373149,N,12223.464152,W,7,,0.38,-32.33,M,0.0,M,0.0,0000*74
$GPRMC,004856.00,A,3741.373149,N,12223.464152,W,024.9,161.2,150520,,,A*41
$GPGGA,004857.00,3741.364882,N,12223.462412,W,7,,0.38,-32.68,M,0.0,M,0.0,0000*74
$GPRMC,004857.00,A,3741.364882,N,12223.462412,W,030.0,167.6,150520,,,A*41
$GPGGA,004858.00,3741.356128,N,12223.460018,W,7,,0.38,-32.73,M,0.0,M,0.0,0000*75
$GPRMC,004858.00,A,3741.356128,N,12223.460018,W,032.0,168.0,150520,,,A*41
$GPGGA,004859.00,3741.346881,N,12223.457713,W,7,,0.38,-32.54,M,0.0,M,0.0,0000*72
$GPRMC,004859.00,A,3741.346881,N,12223.457713,W,034.6,168.2,150520,,,A*41
$GPGGA,004900.00,3741.336838,N,12223.454677,W,7,,0.38,-32.65,M,0.0,M,0.0,0000*78
$GPRMC,004900.00,A,3741.336838,N,12223.454677,W,037.0,168.1,150520,,,A*4F
$GPGGA,004901.00,3741.325966,N,12223.451816,W,7,,0.38,-32.66,M,0.0,M,0.0,0000*7E
$GPRMC,004901.00,A,3741.325966,N,12223.451816,W,039.7,168.7,150520,,,A*45
$GPGGA,004902.00,3741.314739,N,12223.448875,W,7,,0.38,-32.99,M,0.0,M,0.0,0000*76
$GPRMC,004902.00,A,3741.314739,N,12223.448875,W,040.9,167.1,150520,,,A*44
$GPGGA,004903.00,3741.302991,N,12223.445366,W,7,,0.38,-31.33,M,0.0,M,0.0,0000*7B
$GPRMC,004903.00,A,3741.302991,N,12223.445366,W,043.0,167.7,150520,,,A*46
$GPGGA,004904.00,3741.290866,N,12223.442048,W,7,,0.38,-31.47,M,0.0,M,0.0,0000*74
$GPRMC,004904.00,A,3741.290866,N,12223.442048,W,040.8,163.7,150520,,,A*45
$GPGGA,004905.00,3741.280641,N,12223.437224,W,7,,0.38,-31.76,M,0.0,M,0.0,0000*77
$GPRMC,004905.00,A,3741.280641,N,12223.437224,W,037.5,154.9,150520,,,A*43
$GPGGA,004906.00,3741.271377,N,12223.431998,W,7,,0.52,-31.85,M,0.0,M,0.0,0000*70
$GPRMC,004906.00,A,3741.271377,N,12223.431998,W,036.9,155.0,150520,,,A*41
$GPGGA,004907.00,3741.253840,N,12223.431908,W,7,,0.38,-32.53,M,0.0,M,0.0,0000*73
$GPRMC,004907.00,A,3741.253840,N,12223.431908,W,047.4,169.3,150520,,,A*41
$GPGGA,004908.00,3741.240399,N,12223.428739,W,7,,0.38,-31.64,M,0.0,M,0.0,0000*72
$GPRMC,004908.00,A,3741.240399,N,12223.428739,W,048.5,170.8,150520,,,A*4A
$GPGGA,004909.00,3741.226791,N,12223.425518,W,7,,0.38,-30.86,M,0.0,M,0.0,0000*7E
$GPRMC,004909.00,A,3741.226791,N,12223.425518,W,049.3,171.7,150520,,,A*42
$GPGGA,004910.00,3741.213016,N,12223.421768,W,7,,0.38,-30.23,M,0.0,M,0.0,0000*76
$GPRMC,004910.00,A,3741.213016,N,12223.421768,W,050.0,173.4,150520,,,A*4F
$GPGGA,004911.00,3741.198957,N,12223.418011,W,7,,0.38,-30.22,M,0.0,M,0.0,0000*79
$GPRMC,004911.00,A,3741.198957,N,12223.418011,W,050.9,174.0,150520,,,A*4B
$GPGGA,004912.00,3741.184689,N,12223.414003,W,7,,0.38,-30.37,M,0.0,M,0.0,0000*70
$GPRMC,004912.00,A,3741.184689,N,12223.414003,W,051.9,175.0,150520,,,A*46
$GPGGA,004913.00,3741.170080,N,12223.410175,W,7,,0.38,-30.49,M,0.0,M,0.0,0000*78
$GPRMC,004913.00,A,3741.170080,N,12223.410175,W,052.9,174.2,150520,,,A*47
$GPGGA,004914.00,3741.155374,N,12223.406407,W,7,,0.38,-31.17,M,0.0,M,0.0,0000*7D
$GPRMC,004914.00,A,3741.155374,N,12223.406407,W,053.9,173.6,150520,,,A*4A
$GPGGA,004915.00,3741.140092,N,12223.403119,W,7,,0.38,-31.08,M,0.0,M,0.0,0000*72
$GPRMC,004915.00,A,3741.140092,N,12223.403119,W,054.5,173.4,150520,,,A*42
$GPGGA,004916.00,3741.125121,N,12223.399585,W,7,,0.38,-30.80,M,0.0,M,0.0,0000*7F
$GPRMC,004916.00,A,3741.125121,N,12223.399585,W,054.2,173.0,150520,,,A*4D
$GPGGA,004917.00,3741.110242,N,12223.396369,W,7,,0.38,-31.09,M,0.0,M,0.0,0000*75
$GPRMC,004917.00,A,3741.110242,N,12223.396369,W,053.7,172.5,150520,,,A*41
$GPGGA,004918.00,3741.095392,N,12223.392949,W,7,,0.38,-30.91,M,0.0,M,0.0,0000*76
$GPRMC,004918.00,A,3741.095392,N,12223.392949,W,053.9,172.0,150520,,,A*49
$GPGGA,004919.00,3741.080421,N,12223.389524,W,7,,0.38,-30.64,M,0.0,M,0.0,0000*7B
$GPRMC,004919.00,A,3741.080421,N,12223.389524,W,054.4,171.3,150520,,,A*44
$GPGGA,004920.00,3741.065535,N,12223.386080,W,7,,0.38,-30.32,M,0.0,M,0.0,0000*79
$GPRMC,004920.00,A,3741.065535,N,12223.386080,W,054.8,171.4,150520,,,A*4E
$GPGGA,004921.00,3741.050464,N,12223.382750,W,7,,0.38,-30.08,M,0.0,M,0.0,0000*7C
$GPRMC,004921.00,A,3741.050464,N,12223.382750,W,055.1,171.0,150520,,,A*4E
$GPGGA,004922.00,3741.035121,N,12223.379270,W,7,,0.38,-30.09,M,0.0,M,0.0,0000*7A
$GPRMC,004922.00,A,3741.035121,N,12223.379270,W,055.5,170.8,150520,,,A*44
$GPGGA,004923.00,3741.019732,N,12223.375777,W,7,,0.38,-30.10,M,0.0,M,0.0,0000*77
$GPRMC,004923.00,A,3741.019732,N,12223.375777,W,055.7,171.1,150520,,,A*4B
$GPGGA,004924.00,3741.004179,N,12223.372334,W,7,,0.38,-29.84,M,0.0,M,0.0,0000*74
$GPRMC,004924.00,A,3741.004179,N,12223.372334,W,056.0,171.2,150520,,,A*4A
$GPGGA,004925.00,3740.988789,N,12223.369027,W,7,,0.38,-29.99,M,0.0,M,0.0,0000*77
$GPRMC,004925.00,A,3740.988789,N,12223.369027,W,056.4,171.0,150520,,,A*43
$GPGGA,004926.00,3740.973262,N,12223.365637,W,7,,0.38,-30.36,M,0.0,M,0.0,0000*76
$GPRMC,004926.00,A,3740.973262,N,12223.365637,W,056.7,170.8,150520,,,A*45
$GPGGA,004927.00,3740.957536,N,12223.361887,W,7,,0.38,-30.28,M,0.0,M,0.0,0000*79
$GPRMC,004927.00,A,3740.957536,N,12223.361887,W,057.5,170.6,150520,,,A*48
$GPGGA,004928.00,3740.941617,N,12223.358197,W,7,,0.38,-29.84,M,0.0,M,0.0,0000*7D
$GPRMC,004928.00,A,3740.941617,N,12223.358197,W,057.5,170.6,150520,,,A*42
$GPGGA,004929.00,3740.925813,N,12223.354424,W,7,,0.38,-29.36,M,0.0,M,0.0,0000*7C
$GPRMC,004929.00,A,3740.925813,N,12223.354424,W,057.7,170.4,150520,,,A*4A
$GPGGA,004930.00,3740.909901,N,12223.350752,W,7,,0.38,-29.04,M,0.0,M,0.0,0000*7F
$GPRMC,004930.00,A,3740.909901,N,12223.350752,W,057.8,170.7,150520,,,A*44
$GPGGA,004931.00,3740.893942,N,12223.346912,W,7,,0.38,-28.86,M,0.0,M,0.0,0000*7D
$GPRMC,004931.00,A,3740.893942,N,12223.346912,W,058.3,170.4,150520,,,A*4A
$GPGGA,004932.00,3740.877915,N,12223.342987,W,7,,0.38,-28.68,M,0.0,M,0.0,0000*7E
$GPRMC,004932.00,A,3740.877915,N,12223.342987,W,058.6,170.2,150520,,,A*4A
$GPGGA,004933.00,3740.861740,N,12223.338626,W,7,,0.38,-28.38,M,0.0,M,0.0,0000*7A
$GPRMC,004933.00,A,3740.861740,N,12223.338626,W,059.0,169.8,150520,,,A*4E
$GPGGA,004934.00,3740.845587,N,12223.334504,W,7,,0.38,-28.39,M,0.0,M,0.0,0000*7C
$GPRMC,004934.00,A,3740.845587,N,12223.334504,W,059.3,169.3,150520,,,A*41
$GPGGA,004935.00,3740.829454,N,12223.330561,W,7,,0.38,-28.41,M,0.0,M,0.0,0000*70
$GPRMC,004935.00,A,3740.829454,N,12223.330561,W,059.7,168.9,150520,,,A*4D
$GPGGA,004936.00,3740.813296,N,12223.326613,W,7,,0.38,-28.38,M,0.0,M,0.0,0000*7D
$GPRMC,004936.00,A,3740.813296,N,12223.326613,W,059.5,168.9,150520,,,A*4C
$GPGGA,004937.00,3740.797137,N,12223.322545,W,7,,0.38,-28.00,M,0.0,M,0.0,0000*78
$GPRMC,004937.00,A,3740.797137,N,12223.322545,W,058.7,168.6,150520,,,A*4E
$GPGGA,004938.00,3740.780974,N,12223.319198,W,7,,0.38,-28.05,M,0.0,M,0.0,0000*77
$GPRMC,004938.00,A,3740.780974,N,12223.319198,W,057.9,168.3,150520,,,A*40
$GPGGA,004939.00,3740.764984,N,12223.316234,W,7,,0.38,-28.12,M,0.0,M,0.0,0000*7F
$GPRMC,004939.00,A,3740.764984,N,12223.316234,W,057.6,167.7,150520,,,A*4A
$GPGGA,004940.00,3740.749126,N,12223.313738,W,7,,0.38,-28.29,M,0.0,M,0.0,0000*7A
$GPRMC,004940.00,A,3740.749126,N,12223.313738,W,057.6,166.7,150520,,,A*46
$GPGGA,004941.00,3740.733172,N,12223.311937,W,7,,0.38,-28.07,M,0.0,M,0.0,0000*78
$GPRMC,004941.00,A,3740.733172,N,12223.311937,W,057.4,165.2,150520,,,A*4C
$GPGGA,004942.00,3740.717463,N,12223.310762,W,7,,0.38,-28.78,M,0.0,M,0.0,0000*7F
$GPRMC,004942.00,A,3740.717463,N,12223.310762,W,057.1,163.5,150520,,,A*47
$GPGGA,004943.00,3740.701059,N,12223.310659,W,7,,0.38,-28.55,M,0.0,M,0.0,0000*72
$GPRMC,004943.00,A,3740.701059,N,12223.310659,W,057.8,162.0,150520,,,A*48
$GPGGA,004944.00,3740.684643,N,12223.310683,W,7,,0.38,-28.60,M,0.0,M,0.0,0000*75
$GPRMC,004944.00,A,3740.684643,N,12223.310683,W,058.3,159.5,150520,,,A*40
$GPGGA,004945.00,3740.668467,N,12223.311368,W,7,,0.38,-28.00,M,0.0,M,0.0,0000*75
$GPRMC,004945.00,A,3740.668467,N,12223.311368,W,058.2,158.4,150520,,,A*47
$GPGGA,004946.00,3740.652304,N,12223.312646,W,7,,0.38,-28.85,M,0.0,M,0.0,0000*7A
$GPRMC,004946.00,A,3740.652304,N,12223.312646,W,057.9,156.9,150520,,,A*42
$GPGGA,004947.00,3740.636619,N,12223.314907,W,7,,0.38,-28.15,M,0.0,M,0.0,0000*75
$GPRMC,004947.00,A,3740.636619,N,12223.314907,W,057.4,155.6,150520,,,A*45
$GPGGA,004948.00,3740.621104,N,12223.317739,W,7,,0.38,-27.57,M,0.0,M,0.0,0000*7E
$GPRMC,004948.00,A,3740.621104,N,12223.317739,W,057.0,154.2,150520,,,A*46
$GPGGA,004949.00,3740.605570,N,12223.321141,W,7,,0.38,-27.29,M,0.0,M,0.0,0000*7B
$GPRMC,004949.00,A,3740.605570,N,12223.321141,W,056.7,152.6,150520,,,A*4E
$GPGGA,004950.00,3740.590011,N,12223.325065,W,7,,0.38,-26.63,M,0.0,M,0.0,0000*72
$GPRMC,004950.00,A,3740.590011,N,12223.325065,W,056.3,151.9,150520,,,A*40
$GPGGA,004951.00,3740.574789,N,12223.329998,W,7,,0.38,-25.66,M,0.0,M,0.0,0000*7E
$GPRMC,004951.00,A,3740.574789,N,12223.329998,W,055.8,150.3,150520,,,A*49
$GPGGA,004952.00,3740.560083,N,12223.335385,W,7,,0.38,-24.12,M,0.0,M,0.0,0000*7C
$GPRMC,004952.00,A,3740.560083,N,12223.335385,W,055.1,149.4,150520,,,A*4F
$GPGGA,004953.00,3740.545486,N,12223.341056,W,7,,0.38,-22.73,M,0.0,M,0.0,0000*74
$GPRMC,004953.00,A,3740.545486,N,12223.341056,W,054.7,148.1,150520,,,A*45
$GPGGA,004954.00,3740.531356,N,12223.346840,W,7,,0.38,-22.22,M,0.0,M,0.0,0000*76
$GPRMC,004954.00,A,3740.531356,N,12223.346840,W,054.3,198.4,150520,,,A*4F
$GPGGA,004955.00,3740.517147,N,12223.352881,W,7,,0.38,-21.23,M,0.0,M,0.0,0000*7B
$GPRMC,004955.00,A,3740.517147,N,12223.352881,W,054.0,199.3,150520,,,A*45
$GPGGA,004956.00,3740.502879,N,12223.359229,W,7,,0.38,-20.86,M,0.0,M,0.0,0000*75
$GPRMC,004956.00,A,3740.502879,N,12223.359229,W,053.7,199.7,150520,,,A*41
$GPGGA,004957.00,3740.489019,N,12223.365535,W,7,,0.38,-20.21,M,0.0,M,0.0,0000*70
$GPRMC,004957.00,A,3740.489019,N,12223.365535,W,053.7,200.6,150520,,,A*4B
$GPGGA,004958.00,3740.475244,N,12223.372717,W,7,,0.38,-19.95,M,0.0,M,0.0,0000*77
$GPRMC,004958.00,A,3740.475244,N,12223.372717,W,053.8,201.3,150520,,,A*42
$GPGGA,004959.00,3740.461335,N,12223.379767,W,7,,0.38,-19.89,M,0.0,M,0.0,0000*75
$GPRMC,004959.00,A,3740.461335,N,12223.379767,W,053.9,202.1,150520,,,A*4D
$GPGGA,005000.00,3740.447247,N,12223.387135,W,7,,0.38,-20.04,M,0.0,M,0.0,0000*7E
$GPRMC,005000.00,A,3740.447247,N,12223.387135,W,054.0,202.8,150520,,,A*4E
$GPGGA,005001.00,3740.433213,N,12223.394845,W,7,,0.38,-19.96,M,0.0,M,0.0,0000*70
$GPRMC,005001.00,A,3740.433213,N,12223.394845,W,054.4,203.5,150520,,,A*49
$GPGGA,005002.00,3740.419383,N,12223.402921,W,7,,0.38,-20.07,M,0.0,M,0.0,0000*7A
$GPRMC,005002.00,A,3740.419383,N,12223.402921,W,054.7,204.4,150520,,,A*44
$GPGGA,005003.00,3740.405392,N,12223.410896,W,7,,0.38,-20.58,M,0.0,M,0.0,0000*72
$GPRMC,005003.00,A,3740.405392,N,12223.410896,W,055.3,204.6,150520,,,A*41
$GPGGA,005004.00,3740.391261,N,12223.418905,W,7,,0.38,-21.21,M,0.0,M,0.0,0000*7E
$GPRMC,005004.00,A,3740.391261,N,12223.418905,W,055.8,205.4,150520,,,A*4A
$GPGGA,005005.00,3740.377275,N,12223.427749,W,7,,0.38,-22.34,M,0.0,M,0.0,0000*7F
$GPRMC,005005.00,A,3740.377275,N,12223.427749,W,056.3,206.3,150520,,,A*40
$GPGGA,005006.00,3740.363248,N,12223.436336,W,7,,0.38,-23.19,M,0.0,M,0.0,0000*75
$GPRMC,005006.00,A,3740.363248,N,12223.436336,W,057.1,206.7,150520,,,A*43
$GPGGA,005007.00,3740.349034,N,12223.445773,W,7,,0.38,-24.51,M,0.0,M,0.0,0000*7F
$GPRMC,005007.00,A,3740.349034,N,12223.445773,W,057.8,207.3,150520,,,A*4E
$GPGGA,005008.00,3740.335024,N,12223.455397,W,7,,0.38,-25.86,M,0.0,M,0.0,0000*7E
$GPRMC,005008.00,A,3740.335024,N,12223.455397,W,058.2,208.5,150520,,,A*48
$GPGGA,005009.00,3740.321031,N,12223.465922,W,7,,0.38,-26.97,M,0.0,M,0.0,0000*7A
$GPRMC,005009.00,A,3740.321031,N,12223.465922,W,058.8,209.4,150520,,,A*45
$GPGGA,005010.00,3740.306494,N,12223.476037,W,7,,0.38,-28.24,M,0.0,M,0.0,0000*75
$GPRMC,005010.00,A,3740.306494,N,12223.476037,W,059.2,210.3,150520,,,A*48
$GPGGA,005011.00,3740.292556,N,12223.487192,W,7,,0.38,-28.90,M,0.0,M,0.0,0000*78
$GPRMC,005011.00,A,3740.292556,N,12223.487192,W,059.5,210.5,150520,,,A*4B
$GPGGA,005012.00,3740.278324,N,12223.498106,W,7,,0.38,-29.34,M,0.0,M,0.0,0000*70
$GPRMC,005012.00,A,3740.278324,N,12223.498106,W,059.7,211.7,150520,,,A*4D
$GPGGA,005013.00,3740.264265,N,12223.509181,W,7,,0.38,-29.97,M,0.0,M,0.0,0000*77
$GPRMC,005013.00,A,3740.264265,N,12223.509181,W,059.9,212.4,150520,,,A*4D
$GPGGA,005014.00,3740.250291,N,12223.520587,W,7,,0.38,-30.37,M,0.0,M,0.0,0000*77
$GPRMC,005014.00,A,3740.250291,N,12223.520587,W,060.0,213.3,150520,,,A*4A
$GPGGA,005015.00,3740.236581,N,12223.532342,W,7,,0.38,-30.32,M,0.0,M,0.0,0000*79
$GPRMC,005015.00,A,3740.236581,N,12223.532342,W,060.1,213.9,150520,,,A*4A
$GPGGA,005016.00,3740.222973,N,12223.544066,W,7,,0.38,-30.41,M,0.0,M,0.0,0000*7E
$GPRMC,005016.00,A,3740.222973,N,12223.544066,W,059.6,214.8,150520,,,A*42
$GPGGA,005017.00,3740.209636,N,12223.555747,W,7,,0.38,-30.77,M,0.0,M,0.0,0000*79
$GPRMC,005017.00,A,3740.209636,N,12223.555747,W,058.6,215.6,150520,,,A*4E
$GPGGA,005018.00,3740.196801,N,12223.567244,W,7,,0.38,-30.70,M,0.0,M,0.0,0000*79
$GPRMC,005018.00,A,3740.196801,N,12223.567244,W,058.2,216.5,150520,,,A*4D
$GPGGA,005019.00,3740.183739,N,12223.579640,W,7,,0.38,-31.34,M,0.0,M,0.0,0000*76
$GPRMC,005019.00,A,3740.183739,N,12223.579640,W,058.3,217.1,150520,,,A*47
$GPGGA,005020.00,3740.170869,N,12223.592011,W,7,,0.38,-30.91,M,0.0,M,0.0,0000*73
$GPRMC,005020.00,A,3740.170869,N,12223.592011,W,058.2,217.4,150520,,,A*48
$GPGGA,005021.00,3740.157898,N,12223.604719,W,7,,0.38,-30.66,M,0.0,M,0.0,0000*72
$GPRMC,005021.00,A,3740.157898,N,12223.604719,W,058.2,217.3,150520,,,A*46
$GPGGA,005022.00,3740.145039,N,12223.617026,W,7,,0.38,-30.06,M,0.0,M,0.0,0000*7E
$GPRMC,005022.00,A,3740.145039,N,12223.617026,W,058.4,217.2,150520,,,A*4B
$GPGGA,005023.00,3740.132535,N,12223.629518,W,7,,0.38,-29.88,M,0.0,M,0.0,0000*7D
$GPRMC,005023.00,A,3740.132535,N,12223.629518,W,058.5,217.4,150520,,,A*41
$GPGGA,005024.00,3740.119552,N,12223.641673,W,7,,0.38,-29.51,M,0.0,M,0.0,0000*76
$GPRMC,005024.00,A,3740.119552,N,12223.641673,W,058.3,217.4,150520,,,A*48
$GPGGA,005025.00,3740.106669,N,12223.653823,W,7,,0.38,-29.47,M,0.0,M,0.0,0000*7D
$GPRMC,005025.00,A,3740.106669,N,12223.653823,W,058.5,217.5,150520,,,A*43
$GPGGA,005026.00,3740.094310,N,12223.665110,W,7,,0.38,-28.83,M,0.0,M,0.0,0000*7A
$GPRMC,005026.00,A,3740.094310,N,12223.665110,W,058.5,217.5,150520,,,A*4D
$GPGGA,005027.00,3740.081679,N,12223.677776,W,7,,0.38,-29.19,M,0.0,M,0.0,0000*72
$GPRMC,005027.00,A,3740.081679,N,12223.677776,W,058.6,217.0,150520,,,A*41
$GPGGA,005028.00,3740.069091,N,12223.689968,W,7,,0.38,-28.76,M,0.0,M,0.0,0000*73
$GPRMC,005028.00,A,3740.069091,N,12223.689968,W,058.7,217.5,150520,,,A*4C
$GPGGA,005029.00,3740.055868,N,12223.702897,W,7,,0.38,-29.17,M,0.0,M,0.0,0000*76
$GPRMC,005029.00,A,3740.055868,N,12223.702897,W,058.9,217.5,150520,,,A*41
$GPGGA,005030.00,3740.042967,N,12223.715372,W,7,,0.38,-28.77,M,0.0,M,0.0,0000*77
$GPRMC,005030.00,A,3740.042967,N,12223.715372,W,058.9,217.8,150520,,,A*4A
$GPGGA,005031.00,3740.029791,N,12223.728056,W,7,,0.38,-29.00,M,0.0,M,0.0,0000*76
$GPRMC,005031.00,A,3740.029791,N,12223.728056,W,059.1,217.3,150520,,,A*48
$GPGGA,005032.00,3740.016856,N,12223.740926,W,7,,0.38,-28.51,M,0.0,M,0.0,0000*78
$GPRMC,005032.00,A,3740.016856,N,12223.740926,W,059.2,217.3,150520,,,A*40
$GPGGA,005033.00,3740.003446,N,12223.753622,W,7,,0.38,-28.51,M,0.0,M,0.0,0000*79
$GPRMC,005033.00,A,3740.003446,N,12223.753622,W,059.3,217.3,150520,,,A*40
$GPGGA,005034.00,3739.990137,N,12223.766372,W,7,,0.38,-28.50,M,0.0,M,0.0,0000*77
$GPRMC,005034.00,A,3739.990137,N,12223.766372,W,059.3,217.6,150520,,,A*4A
$GPGGA,005035.00,3739.976914,N,12223.779344,W,7,,0.38,-28.22,M,0.0,M,0.0,0000*79
$GPRMC,005035.00,A,3739.976914,N,12223.779344,W,059.4,217.6,150520,,,A*46
$GPGGA,005036.00,3739.963570,N,12223.792208,W,7,,0.38,-28.63,M,0.0,M,0.0,0000*79
$GPRMC,005036.00,A,3739.963570,N,12223.792208,W,059.2,217.7,150520,,,A*44
$GPGGA,005037.00,3739.950358,N,12223.804934,W,7,,0.38,-28.97,M,0.0,M,0.0,0000*7B
$GPRMC,005037.00,A,3739.950358,N,12223.804934,W,059.0,218.2,150520,,,A*45
$GPGGA,005038.00,3739.937296,N,12223.818176,W,7,,0.38,-28.87,M,0.0,M,0.0,0000*74
$GPRMC,005038.00,A,3739.937296,N,12223.818176,W,059.1,219.0,150520,,,A*49
$GPGGA,005039.00,3739.924606,N,12223.831508,W,7,,0.38,-28.87,M,0.0,M,0.0,0000*7C
$GPRMC,005039.00,A,3739.924606,N,12223.831508,W,059.2,220.1,150520,,,A*49
$GPGGA,005040.00,3739.912198,N,12223.844923,W,7,,0.38,-29.24,M,0.0,M,0.0,0000*78
$GPRMC,005040.00,A,3739.912198,N,12223.844923,W,059.5,221.4,150520,,,A*46
$GPGGA,005041.00,3739.899946,N,12223.859329,W,7,,0.38,-29.51,M,0.0,M,0.0,0000*7E
$GPRMC,005041.00,A,3739.899946,N,12223.859329,W,059.7,222.6,150520,,,A*41
$GPGGA,005042.00,3739.887729,N,12223.873477,W,7,,0.38,-29.63,M,0.0,M,0.0,0000*70
$GPRMC,005042.00,A,3739.887729,N,12223.873477,W,059.7,222.6,150520,,,A*4E
$GPGGA,005043.00,3739.875513,N,12223.887620,W,7,,0.56,-29.72,M,0.0,M,0.0,0000*74
$GPRMC,005043.00,A,3739.875513,N,12223.887620,W,059.7,222.6,150520,,,A*42
$GPGGA,005044.00,3739.864036,N,12223.904564,W,7,,0.38,-29.89,M,0.0,M,0.0,0000*74
$GPRMC,005044.00,A,3739.864036,N,12223.904564,W,060.7,226.0,150520,,,A*46
$GPGGA,005045.00,3739.852569,N,12223.920043,W,7,,0.38,-29.73,M,0.0,M,0.0,0000*7C
$GPRMC,005045.00,A,3739.852569,N,12223.920043,W,061.0,227.0,150520,,,A*4C
$GPGGA,005046.00,3739.840918,N,12223.936009,W,7,,0.38,-29.74,M,0.0,M,0.0,0000*78
$GPRMC,005046.00,A,3739.840918,N,12223.936009,W,061.2,228.2,150520,,,A*40
$GPGGA,005047.00,3739.829644,N,12223.952132,W,7,,0.38,-29.90,M,0.0,M,0.0,0000*71
$GPRMC,005047.00,A,3739.829644,N,12223.952132,W,061.4,228.3,150520,,,A*44
$GPGGA,005048.00,3739.818808,N,12223.969256,W,7,,0.38,-29.44,M,0.0,M,0.0,0000*7A
$GPRMC,005048.00,A,3739.818808,N,12223.969256,W,062.3,230.1,150520,,,A*49
$GPGGA,005049.00,3739.807900,N,12223.986409,W,7,,0.38,-29.50,M,0.0,M,0.0,0000*74
$GPRMC,005049.00,A,3739.807900,N,12223.986409,W,062.2,230.9,150520,,,A*4B
$GPGGA,005050.00,3739.797117,N,12224.003599,W,7,,0.38,-29.25,M,0.0,M,0.0,0000*7D
$GPRMC,005050.00,A,3739.797117,N,12224.003599,W,062.4,231.0,150520,,,A*4E
$GPGGA,005051.00,3739.786137,N,12224.020514,W,7,,0.38,-29.10,M,0.0,M,0.0,0000*7C
$GPRMC,005051.00,A,3739.786137,N,12224.020514,W,062.7,231.0,150520,,,A*4A
$GPGGA,005052.00,3739.774840,N,12224.037746,W,7,,0.38,-28.98,M,0.0,M,0.0,0000*79
$GPRMC,005052.00,A,3739.774840,N,12224.037746,W,062.7,230.8,150520,,,A*47
$GPGGA,005053.00,3739.764129,N,12224.055554,W,7,,0.38,-29.33,M,0.0,M,0.0,0000*7A
$GPRMC,005053.00,A,3739.764129,N,12224.055554,W,063.5,232.0,150520,,,A*4D
$GPGGA,005054.00,3739.753366,N,12224.072161,W,7,,0.38,-28.49,M,0.0,M,0.0,0000*7B
$GPRMC,005054.00,A,3739.753366,N,12224.072161,W,061.7,231.3,150520,,,A*40
$GPGGA,005055.00,3739.742968,N,12224.089046,W,7,,0.38,-28.32,M,0.0,M,0.0,0000*72
$GPRMC,005055.00,A,3739.742968,N,12224.089046,W,061.0,231.2,150520,,,A*43
$GPGGA,005056.00,3739.732678,N,12224.105329,W,7,,0.38,-27.16,M,0.0,M,0.0,0000*7E
$GPRMC,005056.00,A,3739.732678,N,12224.105329,W,060.4,231.2,150520,,,A*43
$GPGGA,005057.00,3739.722105,N,12224.121397,W,7,,0.38,-26.51,M,0.0,M,0.0,0000*72
$GPRMC,005057.00,A,3739.722105,N,12224.121397,W,059.8,231.0,150520,,,A*49
$GPGGA,005058.00,3739.711810,N,12224.137448,W,7,,0.38,-25.90,M,0.0,M,0.0,0000*7C
$GPRMC,005058.00,A,3739.711810,N,12224.137448,W,059.1,231.0,150520,,,A*40
$GPGGA,005059.00,3739.701772,N,12224.153167,W,7,,0.38,-25.69,M,0.0,M,0.0,0000*7B
$GPRMC,005059.00,A,3739.701772,N,12224.153167,W,058.3,231.1,150520,,,A*43
$GPGGA,005100.00,3739.691590,N,12224.168714,W,7,,0.38,-25.78,M,0.0,M,0.0,0000*7A
$GPRMC,005100.00,A,3739.691590,N,12224.168714,W,057.5,230.9,150520,,,A*42
$GPGGA,005101.00,3739.681312,N,12224.184092,W,7,,0.38,-25.65,M,0.0,M,0.0,0000*71
$GPRMC,005101.00,A,3739.681312,N,12224.184092,W,057.2,230.2,150520,,,A*49
$GPGGA,005102.00,3739.670559,N,12224.198828,W,7,,0.38,-25.83,M,0.0,M,0.0,0000*79
$GPRMC,005102.00,A,3739.670559,N,12224.198828,W,057.3,228.4,150520,,,A*47
$GPGGA,005103.00,3739.659285,N,12224.212981,W,7,,0.38,-25.48,M,0.0,M,0.0,0000*71
$GPRMC,005103.00,A,3739.659285,N,12224.212981,W,057.6,226.0,150520,,,A*47
$GPGGA,005104.00,3739.647537,N,12224.227022,W,7,,0.38,-26.04,M,0.0,M,0.0,0000*7A
$GPRMC,005104.00,A,3739.647537,N,12224.227022,W,057.9,223.9,150520,,,A*44
$GPGGA,005105.00,3739.635478,N,12224.240341,W,7,,0.38,-26.44,M,0.0,M,0.0,0000*77
$GPRMC,005105.00,A,3739.635478,N,12224.240341,W,058.2,221.7,150520,,,A*45
$GPGGA,005106.00,3739.622841,N,12224.253506,W,7,,0.38,-27.15,M,0.0,M,0.0,0000*76
$GPRMC,005106.00,A,3739.622841,N,12224.253506,W,058.5,218.0,150520,,,A*4B
$GPGGA,005107.00,3739.609918,N,12224.266081,W,7,,0.38,-27.92,M,0.0,M,0.0,0000*70
$GPRMC,005107.00,A,3739.609918,N,12224.266081,W,058.5,218.4,150520,,,A*46
$GPGGA,005108.00,3739.596886,N,12224.277824,W,7,,0.38,-27.73,M,0.0,M,0.0,0000*74
$GPRMC,005108.00,A,3739.596886,N,12224.277824,W,058.1,221.0,150520,,,A*47
$GPGGA,005109.00,3739.583295,N,12224.288773,W,7,,0.38,-27.81,M,0.0,M,0.0,0000*79
$GPRMC,005109.00,A,3739.583295,N,12224.288773,W,057.6,223.8,150520,,,A*45
$GPGGA,005110.00,3739.569429,N,12224.299099,W,7,,0.38,-28.01,M,0.0,M,0.0,0000*70
$GPRMC,005110.00,A,3739.569429,N,12224.299099,W,056.9,226.4,150520,,,A*4C
$GPGGA,005111.00,3739.557363,N,12224.310986,W,7,,0.38,-27.72,M,0.0,M,0.0,0000*79
$GPRMC,005111.00,A,3739.557363,N,12224.310986,W,055.1,228.6,150520,,,A*49
$GPGGA,005112.00,3739.545046,N,12224.323148,W,7,,0.38,-27.60,M,0.0,M,0.0,0000*74
$GPRMC,005112.00,A,3739.545046,N,12224.323148,W,055.7,231.3,150520,,,A*4C
$GPGGA,005113.00,3739.527310,N,12224.327354,W,7,,0.38,-28.18,M,0.0,M,0.0,0000*7A
$GPRMC,005113.00,A,3739.527310,N,12224.327354,W,058.2,233.8,150520,,,A*43
$GPGGA,005114.00,3739.511289,N,12224.334073,W,7,,0.38,-27.96,M,0.0,M,0.0,0000*74
$GPRMC,005114.00,A,3739.511289,N,12224.334073,W,058.8,234.7,150520,,,A*46
$GPGGA,005115.00,3739.495624,N,12224.341574,W,7,,0.38,-27.67,M,0.0,M,0.0,0000*75
$GPRMC,005115.00,A,3739.495624,N,12224.341574,W,059.2,234.7,150520,,,A*42
$GPGGA,005116.00,3739.480000,N,12224.349362,W,7,,0.38,-27.35,M,0.0,M,0.0,0000*7C
$GPRMC,005116.00,A,3739.480000,N,12224.349362,W,059.5,235.0,150520,,,A*4D
$GPGGA,005117.00,3739.464490,N,12224.357156,W,7,,0.38,-27.10,M,0.0,M,0.0,0000*77
$GPRMC,005117.00,A,3739.464490,N,12224.357156,W,059.7,236.1,150520,,,A*41
$GPGGA,005118.00,3739.448920,N,12224.365105,W,7,,0.38,-27.18,M,0.0,M,0.0,0000*7F
$GPRMC,005118.00,A,3739.448920,N,12224.365105,W,059.9,237.2,150520,,,A*4D
$GPGGA,005119.00,3739.433331,N,12224.373019,W,7,,0.38,-26.60,M,0.0,M,0.0,0000*7D
$GPRMC,005119.00,A,3739.433331,N,12224.373019,W,059.7,238.4,150520,,,A*46
$GPGGA,005120.00,3739.418259,N,12224.380807,W,7,,0.38,-25.47,M,0.0,M,0.0,0000*7C
$GPRMC,005120.00,A,3739.418259,N,12224.380807,W,059.1,202.1,150520,,,A*4B
$GPGGA,005121.00,3739.402929,N,12224.388080,W,7,,0.38,-25.12,M,0.0,M,0.0,0000*75
$GPRMC,005121.00,A,3739.402929,N,12224.388080,W,058.4,201.7,150520,,,A*43
$GPGGA,005122.00,3739.387750,N,12224.395202,W,7,,0.38,-24.69,M,0.0,M,0.0,0000*75
$GPRMC,005122.00,A,3739.387750,N,12224.395202,W,057.7,200.4,150520,,,A*40
$GPGGA,005123.00,3739.372293,N,12224.401501,W,7,,0.38,-23.70,M,0.0,M,0.0,0000*75
$GPRMC,005123.00,A,3739.372293,N,12224.401501,W,057.1,198.6,150520,,,A*49
$GPGGA,005124.00,3739.357293,N,12224.407417,W,7,,0.38,-22.42,M,0.0,M,0.0,0000*75
$GPRMC,005124.00,A,3739.357293,N,12224.407417,W,056.6,197.0,150520,,,A*46
$GPGGA,005125.00,3739.342443,N,12224.412608,W,7,,0.38,-21.62,M,0.0,M,0.0,0000*72
$GPRMC,005125.00,A,3739.342443,N,12224.412608,W,056.2,195.0,150520,,,A*46
$GPGGA,005126.00,3739.327305,N,12224.416927,W,7,,0.38,-21.08,M,0.0,M,0.0,0000*7D
$GPRMC,005126.00,A,3739.327305,N,12224.416927,W,056.0,193.0,150520,,,A*41
$GPGGA,005127.00,3739.311981,N,12224.420768,W,7,,0.38,-20.34,M,0.0,M,0.0,0000*71
$GPRMC,005127.00,A,3739.311981,N,12224.420768,W,055.5,191.6,150520,,,A*41
$GPGGA,005128.00,3739.296963,N,12224.424493,W,7,,0.38,-21.62,M,0.0,M,0.0,0000*7D
$GPRMC,005128.00,A,3739.296963,N,12224.424493,W,055.2,190.2,150520,,,A*4D
$GPGGA,005129.00,3739.281916,N,12224.426984,W,7,,0.38,-20.18,M,0.0,M,0.0,0000*7D
$GPRMC,005129.00,A,3739.281916,N,12224.426984,W,054.9,188.4,150520,,,A*44
$GPGGA,005130.00,3739.267227,N,12224.429647,W,7,,0.38,-19.27,M,0.0,M,0.0,0000*7D
$GPRMC,005130.00,A,3739.267227,N,12224.429647,W,054.7,186.4,150520,,,A*42
$GPGGA,005131.00,3739.252227,N,12224.430667,W,7,,0.38,-18.09,M,0.0,M,0.0,0000*7D
$GPRMC,005131.00,A,3739.252227,N,12224.430667,W,054.4,184.2,150520,,,A*48
$GPGGA,005132.00,3739.236994,N,12224.431591,W,7,,0.38,-17.85,M,0.0,M,0.0,0000*7F
$GPRMC,005132.00,A,3739.236994,N,12224.431591,W,054.4,182.6,150520,,,A*43
$GPGGA,005133.00,3739.221699,N,12224.431975,W,7,,0.38,-17.17,M,0.0,M,0.0,0000*77
$GPRMC,005133.00,A,3739.221699,N,12224.431975,W,054.4,181.2,150520,,,A*47
$GPGGA,005134.00,3739.206771,N,12224.431621,W,7,,0.38,-17.19,M,0.0,M,0.0,0000*72
$GPRMC,005134.00,A,3739.206771,N,12224.431621,W,054.8,179.6,150520,,,A*43
$GPGGA,005135.00,3739.191832,N,12224.430769,W,7,,0.38,-17.58,M,0.0,M,0.0,0000*7F
$GPRMC,005135.00,A,3739.191832,N,12224.430769,W,055.0,177.4,150520,,,A*4E
$GPGGA,005136.00,3739.176675,N,12224.429702,W,7,,0.38,-17.65,M,0.0,M,0.0,0000*73
$GPRMC,005136.00,A,3739.176675,N,12224.429702,W,055.2,175.8,150520,,,A*40
$GPGGA,005137.00,3739.161160,N,12224.428124,W,7,,0.38,-17.73,M,0.0,M,0.0,0000*73
$GPRMC,005137.00,A,3739.161160,N,12224.428124,W,055.8,176.3,150520,,,A*45
$GPGGA,005138.00,3739.145457,N,12224.427218,W,7,,0.38,-18.55,M,0.0,M,0.0,0000*73
$GPRMC,005138.00,A,3739.145457,N,12224.427218,W,056.2,176.1,150520,,,A*45
$GPGGA,005139.00,3739.129966,N,12224.425754,W,7,,0.38,-18.92,M,0.0,M,0.0,0000*73
$GPRMC,005139.00,A,3739.129966,N,12224.425754,W,057.0,175.8,150520,,,A*47
$GPGGA,005140.00,3739.114198,N,12224.424374,W,7,,0.38,-19.84,M,0.0,M,0.0,0000*7B
$GPRMC,005140.00,A,3739.114198,N,12224.424374,W,057.9,176.0,150520,,,A*4B
$GPGGA,005141.00,3739.098106,N,12224.422903,W,7,,0.38,-18.62,M,0.0,M,0.0,0000*7D
$GPRMC,005141.00,A,3739.098106,N,12224.422903,W,058.1,175.9,150520,,,A*49
$GPGGA,005142.00,3739.081810,N,12224.421242,W,7,,0.38,-20.37,M,0.0,M,0.0,0000*7E
$GPRMC,005142.00,A,3739.081810,N,12224.421242,W,058.5,176.3,150520,,,A*4C
$GPGGA,005143.00,3739.065441,N,12224.420083,W,7,,0.38,-22.00,M,0.0,M,0.0,0000*75
$GPRMC,005143.00,A,3739.065441,N,12224.420083,W,059.3,176.1,150520,,,A*44
$GPGGA,005144.00,3739.049050,N,12224.418259,W,7,,0.38,-23.17,M,0.0,M,0.0,0000*71
$GPRMC,005144.00,A,3739.049050,N,12224.418259,W,059.9,175.9,150520,,,A*46
$GPGGA,005145.00,3739.032190,N,12224.416730,W,7,,0.38,-24.19,M,0.0,M,0.0,0000*7C
$GPRMC,005145.00,A,3739.032190,N,12224.416730,W,060.8,176.2,150520,,,A*41
$GPGGA,005146.00,3739.015167,N,12224.415182,W,7,,0.38,-25.75,M,0.0,M,0.0,0000*75
$GPRMC,005146.00,A,3739.015167,N,12224.415182,W,061.4,176.0,150520,,,A*4C
$GPGGA,005147.00,3738.998583,N,12224.414107,W,7,,0.38,-26.83,M,0.0,M,0.0,0000*71
$GPRMC,005147.00,A,3738.998583,N,12224.414107,W,060.4,176.1,150520,,,A*42
$GPGGA,005148.00,3738.982024,N,12224.412733,W,7,,0.38,-27.76,M,0.0,M,0.0,0000*71
$GPRMC,005148.00,A,3738.982024,N,12224.412733,W,060.0,176.1,150520,,,A*4D
$GPGGA,005149.00,3738.965728,N,12224.411504,W,7,,0.38,-29.30,M,0.0,M,0.0,0000*7B
$GPRMC,005149.00,A,3738.965728,N,12224.411504,W,059.5,176.2,150520,,,A*47
$GPGGA,005150.00,3738.948957,N,12224.410117,W,7,,0.38,-30.45,M,0.0,M,0.0,0000*77
$GPRMC,005150.00,A,3738.948957,N,12224.410117,W,059.3,176.1,150520,,,A*44
$GPGGA,005151.00,3738.932374,N,12224.408918,W,7,,0.38,-31.64,M,0.0,M,0.0,0000*7C
$GPRMC,005151.00,A,3738.932374,N,12224.408918,W,059.6,175.9,150520,,,A*43
$GPGGA,005152.00,3738.915856,N,12224.407693,W,7,,0.38,-32.91,M,0.0,M,0.0,0000*7B
$GPRMC,005152.00,A,3738.915856,N,12224.407693,W,060.3,176.1,150520,,,A*49
$GPGGA,005153.00,3738.899188,N,12224.406037,W,7,,0.38,-33.35,M,0.0,M,0.0,0000*73
$GPRMC,005153.00,A,3738.899188,N,12224.406037,W,060.5,176.2,150520,,,A*4B
$GPGGA,005154.00,3738.882112,N,12224.404538,W,7,,0.38,-33.80,M,0.0,M,0.0,0000*7B
$GPRMC,005154.00,A,3738.882112,N,12224.404538,W,060.8,175.9,150520,,,A*48
$GPGGA,005155.00,3738.865150,N,12224.402798,W,7,,0.38,-32.72,M,0.0,M,0.0,0000*77
$GPRMC,005155.00,A,3738.865150,N,12224.402798,W,060.5,176.0,150520,,,A*4F
$GPGGA,005156.00,3738.848481,N,12224.401124,W,7,,0.38,-32.84,M,0.0,M,0.0,0000*79
$GPRMC,005156.00,A,3738.848481,N,12224.401124,W,059.6,176.4,150520,,,A*45
$GPGGA,005157.00,3738.831885,N,12224.399384,W,7,,0.38,-32.88,M,0.0,M,0.0,0000*7C
$GPRMC,005157.00,A,3738.831885,N,12224.399384,W,059.0,176.1,150520,,,A*4F
$GPGGA,005158.00,3738.815577,N,12224.398034,W,7,,0.38,-32.65,M,0.0,M,0.0,0000*7F
$GPRMC,005158.00,A,3738.815577,N,12224.398034,W,058.9,176.1,150520,,,A*47
$GPGGA,005159.00,3738.799360,N,12224.396491,W,7,,0.38,-32.91,M,0.0,M,0.0,0000*7B
$GPRMC,005159.00,A,3738.799360,N,12224.396491,W,058.8,176.2,150520,,,A*4A
$GPGGA,005200.00,3738.783142,N,12224.395220,W,7,,0.38,-33.38,M,0.0,M,0.0,0000*70
$GPRMC,005200.00,A,3738.783142,N,12224.395220,W,058.6,175.9,150520,,,A*45
$GPGGA,005201.00,3738.767044,N,12224.394098,W,7,,0.38,-33.48,M,0.0,M,0.0,0000*7B
$GPRMC,005201.00,A,3738.767044,N,12224.394098,W,058.5,175.6,150520,,,A*45
$GPGGA,005202.00,3738.750945,N,12224.392381,W,7,,0.38,-33.58,M,0.0,M,0.0,0000*78
$GPRMC,005202.00,A,3738.750945,N,12224.392381,W,057.4,176.1,150520,,,A*4D
$GPGGA,005203.00,3738.735160,N,12224.391247,W,7,,0.38,-32.43,M,0.0,M,0.0,0000*76
$GPRMC,005203.00,A,3738.735160,N,12224.391247,W,056.6,175.9,150520,,,A*40
$GPGGA,005204.00,3738.719427,N,12224.389370,W,7,,0.38,-33.10,M,0.0,M,0.0,0000*72
$GPRMC,005204.00,A,3738.719427,N,12224.389370,W,056.3,176.2,150520,,,A*4E
$GPGGA,005205.00,3738.704014,N,12224.387882,W,7,,0.38,-33.32,M,0.0,M,0.0,0000*73
$GPRMC,005205.00,A,3738.704014,N,12224.387882,W,056.4,176.3,150520,,,A*49
$GPGGA,005206.00,3738.688257,N,12224.386435,W,7,,0.38,-33.18,M,0.0,M,0.0,0000*79
$GPRMC,005206.00,A,3738.688257,N,12224.386435,W,056.6,176.0,150520,,,A*4A
$GPGGA,005207.00,3738.672736,N,12224.385224,W,7,,0.38,-33.02,M,0.0,M,0.0,0000*71
$GPRMC,005207.00,A,3738.672736,N,12224.385224,W,056.9,175.9,150520,,,A*4C
$GPGGA,005208.00,3738.656758,N,12224.383640,W,7,,0.38,-32.60,M,0.0,M,0.0,0000*75
$GPRMC,005208.00,A,3738.656758,N,12224.383640,W,056.8,176.0,150520,,,A*46
$GPGGA,005209.00,3738.641169,N,12224.382517,W,7,,0.38,-32.30,M,0.0,M,0.0,0000*73
$GPRMC,005209.00,A,3738.641169,N,12224.382517,W,056.5,175.7,150520,,,A*4C
$GPGGA,005210.00,3738.625923,N,12224.380591,W,7,,0.38,-32.42,M,0.0,M,0.0,0000*76
$GPRMC,005210.00,A,3738.625923,N,12224.380591,W,056.2,176.1,150520,,,A*4E
$GPGGA,005211.00,3738.610551,N,12224.379151,W,7,,0.38,-32.47,M,0.0,M,0.0,0000*73
$GPRMC,005211.00,A,3738.610551,N,12224.379151,W,055.9,175.9,150520,,,A*4D
$GPGGA,005212.00,3738.595281,N,12224.377496,W,7,,0.38,-32.06,M,0.0,M,0.0,0000*71
$GPRMC,005212.00,A,3738.595281,N,12224.377496,W,055.6,175.9,150520,,,A*45
$GPGGA,005213.00,3738.579687,N,12224.376163,W,7,,0.38,-32.19,M,0.0,M,0.0,0000*70
$GPRMC,005213.00,A,3738.579687,N,12224.376163,W,055.7,175.9,150520,,,A*4B
$GPGGA,005214.00,3738.564075,N,12224.375312,W,7,,0.38,-32.23,M,0.0,M,0.0,0000*7E
$GPRMC,005214.00,A,3738.564075,N,12224.375312,W,056.0,176.3,150520,,,A*41
$GPGGA,005215.00,3738.548499,N,12224.374015,W,7,,0.38,-32.39,M,0.0,M,0.0,0000*79
$GPRMC,005215.00,A,3738.548499,N,12224.374015,W,056.1,176.2,150520,,,A*4D
$GPGGA,005216.00,3738.533164,N,12224.372642,W,7,,0.38,-32.48,M,0.0,M,0.0,0000*75
$GPRMC,005216.00,A,3738.533164,N,12224.372642,W,056.2,175.8,150520,,,A*4D
$GPGGA,005217.00,3738.517870,N,12224.371292,W,7,,0.38,-32.24,M,0.0,M,0.0,0000*7E
$GPRMC,005217.00,A,3738.517870,N,12224.371292,W,056.2,175.4,150520,,,A*40
$GPGGA,005218.00,3738.502167,N,12224.369108,W,7,,0.38,-32.63,M,0.0,M,0.0,0000*70
$GPRMC,005218.00,A,3738.502167,N,12224.369108,W,056.4,174.3,150520,,,A*4D
$GPGGA,005219.00,3738.486424,N,12224.366552,W,7,,0.38,-32.83,M,0.0,M,0.0,0000*74
$GPRMC,005219.00,A,3738.486424,N,12224.366552,W,056.3,172.8,150520,,,A*4D
$GPGGA,005220.00,3738.470649,N,12224.364019,W,7,,0.38,-33.02,M,0.0,M,0.0,0000*7E
$GPRMC,005220.00,A,3738.470649,N,12224.364019,W,056.4,171.6,150520,,,A*45
$GPGGA,005221.00,3738.455115,N,12224.360852,W,7,,0.38,-33.27,M,0.0,M,0.0,0000*72
$GPRMC,005221.00,A,3738.455115,N,12224.360852,W,056.2,170.8,150520,,,A*47
$GPGGA,005222.00,3738.439821,N,12224.357774,W,7,,0.38,-33.37,M,0.0,M,0.0,0000*7B
$GPRMC,005222.00,A,3738.439821,N,12224.357774,W,056.1,169.5,150520,,,A*49
$GPGGA,005223.00,3738.424713,N,12224.353807,W,7,,0.38,-32.78,M,0.0,M,0.0,0000*7D
$GPRMC,005223.00,A,3738.424713,N,12224.353807,W,055.6,167.9,150520,,,A*43
$GPGGA,005224.00,3738.409786,N,12224.349853,W,7,,0.38,-32.67,M,0.0,M,0.0,0000*7D
$GPRMC,005224.00,A,3738.409786,N,12224.349853,W,055.5,167.0,150520,,,A*47
$GPGGA,005225.00,3738.394906,N,12224.344975,W,7,,0.38,-32.41,M,0.0,M,0.0,0000*75
$GPRMC,005225.00,A,3738.394906,N,12224.344975,W,055.4,165.6,150520,,,A*4E
$GPGGA,005226.00,3738.379815,N,12224.340217,W,7,,0.38,-32.04,M,0.0,M,0.0,0000*7C
$GPRMC,005226.00,A,3738.379815,N,12224.340217,W,055.5,164.7,150520,,,A*47
$GPGGA,005227.00,3738.364912,N,12224.333959,W,7,,0.38,-32.20,M,0.0,M,0.0,0000*74
$GPRMC,005227.00,A,3738.364912,N,12224.333959,W,055.1,163.3,150520,,,A*4E
$GPGGA,005228.00,3738.350265,N,12224.327911,W,7,,0.38,-31.77,M,0.0,M,0.0,0000*7F
$GPRMC,005228.00,A,3738.350265,N,12224.327911,W,055.2,162.0,150520,,,A*45
$GPGGA,005229.00,3738.335806,N,12224.321912,W,7,,0.38,-31.57,M,0.0,M,0.0,0000*75
$GPRMC,005229.00,A,3738.335806,N,12224.321912,W,055.2,161.3,150520,,,A*4D
$GPGGA,005230.00,3738.321255,N,12224.315336,W,7,,0.38,-31.98,M,0.0,M,0.0,0000*7C
$GPRMC,005230.00,A,3738.321255,N,12224.315336,W,055.2,160.4,150520,,,A*41
$GPGGA,005231.00,3738.306891,N,12224.308849,W,7,,0.38,-31.43,M,0.0,M,0.0,0000*73
$GPRMC,005231.00,A,3738.306891,N,12224.308849,W,055.2,159.4,150520,,,A*42
$GPGGA,005232.00,3738.292066,N,12224.301655,W,7,,0.38,-31.29,M,0.0,M,0.0,0000*7A
$GPRMC,005232.00,A,3738.292066,N,12224.301655,W,055.0,158.2,150520,,,A*42
$GPGGA,005233.00,3738.278044,N,12224.294143,W,7,,0.38,-31.00,M,0.0,M,0.0,0000*79
$GPRMC,005233.00,A,3738.278044,N,12224.294143,W,054.8,157.4,150520,,,A*4A
$GPGGA,005234.00,3738.263902,N,12224.286889,W,7,,0.38,-31.23,M,0.0,M,0.0,0000*72
$GPRMC,005234.00,A,3738.263902,N,12224.286889,W,054.3,157.3,150520,,,A*4C
$GPGGA,005235.00,3738.249634,N,12224.279300,W,7,,0.38,-31.31,M,0.0,M,0.0,0000*78
$GPRMC,005235.00,A,3738.249634,N,12224.279300,W,054.3,156.7,150520,,,A*40
$GPGGA,005236.00,3738.235743,N,12224.272111,W,7,,0.38,-31.59,M,0.0,M,0.0,0000*76
$GPRMC,005236.00,A,3738.235743,N,12224.272111,W,054.7,155.5,150520,,,A*45
$GPGGA,005237.00,3738.221151,N,12224.264594,W,7,,0.38,-31.21,M,0.0,M,0.0,0000*76
$GPRMC,005237.00,A,3738.221151,N,12224.264594,W,055.0,158.1,150520,,,A*45
$GPGGA,005238.00,3738.206739,N,12224.257460,W,7,,0.38,-30.74,M,0.0,M,0.0,0000*7F
$GPRMC,005238.00,A,3738.206739,N,12224.257460,W,055.2,160.7,150520,,,A*42
$GPGGA,005239.00,3738.192310,N,12224.250332,W,7,,0.38,-30.74,M,0.0,M,0.0,0000*78
$GPRMC,005239.00,A,3738.192310,N,12224.250332,W,055.1,163.1,150520,,,A*43
$GPGGA,005240.00,3738.177891,N,12224.242987,W,7,,0.38,-29.97,M,0.0,M,0.0,0000*7D
$GPRMC,005240.00,A,3738.177891,N,12224.242987,W,054.9,165.2,150520,,,A*4F
$GPGGA,005241.00,3738.163642,N,12224.237378,W,7,,0.38,-29.72,M,0.0,M,0.0,0000*7A
$GPRMC,005241.00,A,3738.163642,N,12224.237378,W,053.7,167.2,150520,,,A*48
$GPGGA,005242.00,3738.148324,N,12224.231978,W,7,,0.38,-29.42,M,0.0,M,0.0,0000*7A
$GPRMC,005242.00,A,3738.148324,N,12224.231978,W,055.3,168.3,150520,,,A*47
$GPGGA,005243.00,3738.133732,N,12224.227730,W,7,,0.38,-29.59,M,0.0,M,0.0,0000*7B
$GPRMC,005243.00,A,3738.133732,N,12224.227730,W,053.1,169.8,150520,,,A*42
$GPGGA,005244.00,3738.118905,N,12224.220997,W,7,,0.38,-29.68,M,0.0,M,0.0,0000*79
$GPRMC,005244.00,A,3738.118905,N,12224.220997,W,054.9,169.4,150520,,,A*41
$GPGGA,005245.00,3738.104925,N,12224.215622,W,7,,0.38,-30.41,M,0.0,M,0.0,0000*73
$GPRMC,005245.00,A,3738.104925,N,12224.215622,W,054.5,170.0,150520,,,A*48
$GPGGA,005246.00,3738.089626,N,12224.210636,W,7,,0.38,-29.87,M,0.0,M,0.0,0000*7A
$GPRMC,005246.00,A,3738.089626,N,12224.210636,W,054.9,170.4,150520,,,A*4B
$GPGGA,005247.00,3738.075064,N,12224.205859,W,7,,0.38,-30.43,M,0.0,M,0.0,0000*7B
$GPRMC,005247.00,A,3738.075064,N,12224.205859,W,055.2,170.8,150520,,,A*4C
$GPGGA,005248.00,3738.059962,N,12224.201581,W,7,,0.38,-30.60,M,0.0,M,0.0,0000*78
$GPRMC,005248.00,A,3738.059962,N,12224.201581,W,055.6,171.1,150520,,,A*42
$GPGGA,005249.00,3738.045453,N,12224.198228,W,7,,0.38,-31.36,M,0.0,M,0.0,0000*7E
$GPRMC,005249.00,A,3738.045453,N,12224.198228,W,055.9,171.3,150520,,,A*4B
$GPGGA,005250.00,3738.030183,N,12224.194861,W,7,,0.38,-31.91,M,0.0,M,0.0,0000*7A
$GPRMC,005250.00,A,3738.030183,N,12224.194861,W,056.4,171.7,150520,,,A*48
$GPGGA,005251.00,3738.014938,N,12224.191813,W,7,,0.38,-32.20,M,0.0,M,0.0,0000*7C
$GPRMC,005251.00,A,3738.014938,N,12224.191813,W,056.7,172.4,150520,,,A*44
$GPGGA,005252.00,3737.999044,N,12224.189168,W,7,,0.38,-32.02,M,0.0,M,0.0,0000*72
$GPRMC,005252.00,A,3737.999044,N,12224.189168,W,057.3,173.2,150520,,,A*48
$GPGGA,005253.00,3737.983090,N,12224.186408,W,7,,0.38,-32.24,M,0.0,M,0.0,0000*79
$GPRMC,005253.00,A,3737.983090,N,12224.186408,W,057.6,174.3,150520,,,A*44
$GPGGA,005254.00,3737.967429,N,12224.183894,W,7,,0.38,-32.54,M,0.0,M,0.0,0000*79
$GPRMC,005254.00,A,3737.967429,N,12224.183894,W,058.0,175.4,150520,,,A*4C
$GPGGA,005255.00,3737.951415,N,12224.181710,W,7,,0.38,-31.40,M,0.0,M,0.0,0000*75
$GPRMC,005255.00,A,3737.951415,N,12224.181710,W,058.3,176.6,150520,,,A*44
$GPGGA,005256.00,3737.935497,N,12224.179688,W,7,,0.38,-31.86,M,0.0,M,0.0,0000*73
$GPRMC,005256.00,A,3737.935497,N,12224.179688,W,058.7,177.6,150520,,,A*4D
$GPGGA,005257.00,3737.919040,N,12224.177906,W,7,,0.38,-31.92,M,0.0,M,0.0,0000*70
$GPRMC,005257.00,A,3737.919040,N,12224.177906,W,058.4,179.0,150520,,,A*40
$GPGGA,005258.00,3737.902461,N,12224.176010,W,7,,0.38,-32.16,M,0.0,M,0.0,0000*72
$GPRMC,005258.00,A,3737.902461,N,12224.176010,W,058.8,180.2,150520,,,A*45
$GPGGA,005259.00,3737.886016,N,12224.174131,W,7,,0.38,-31.91,M,0.0,M,0.0,0000*76
$GPRMC,005259.00,A,3737.886016,N,12224.174131,W,059.5,181.3,150520,,,A*41
$GPGGA,005300.00,3737.869534,N,12224.172337,W,7,,0.38,-32.35,M,0.0,M,0.0,0000*70
$GPRMC,005300.00,A,3737.869534,N,12224.172337,W,059.5,181.8,150520,,,A*41
$GPGGA,005301.00,3737.853057,N,12224.170501,W,7,,0.38,-31.49,M,0.0,M,0.0,0000*71
$GPRMC,005301.00,A,3737.853057,N,12224.170501,W,059.1,183.2,150520,,,A*44
$GPGGA,005302.00,3737.836569,N,12224.168605,W,7,,0.38,-31.37,M,0.0,M,0.0,0000*7E
$GPRMC,005302.00,A,3737.836569,N,12224.168605,W,058.9,184.2,150520,,,A*4C
$GPGGA,005303.00,3737.820238,N,12224.166769,W,7,,0.38,-31.27,M,0.0,M,0.0,0000*7F
$GPRMC,005303.00,A,3737.820238,N,12224.166769,W,058.8,186.6,150520,,,A*4B
$GPGGA,005304.00,3737.804163,N,12224.165305,W,7,,0.38,-31.98,M,0.0,M,0.0,0000*7A
$GPRMC,005304.00,A,3737.804163,N,12224.165305,W,058.8,188.3,150520,,,A*41
$GPGGA,005305.00,3737.787801,N,12224.163488,W,7,,0.38,-32.02,M,0.0,M,0.0,0000*76
$GPRMC,005305.00,A,3737.787801,N,12224.163488,W,058.0,189.1,150520,,,A*46
$GPGGA,005306.00,3737.771356,N,12224.161244,W,7,,0.38,-31.09,M,0.0,M,0.0,0000*79
$GPRMC,005306.00,A,3737.771356,N,12224.161244,W,057.8,191.6,150520,,,A*48
$GPGGA,005307.00,3737.755198,N,12224.159078,W,7,,0.38,-31.80,M,0.0,M,0.0,0000*79
$GPRMC,005307.00,A,3737.755198,N,12224.159078,W,058.4,195.0,150520,,,A*48
$GPGGA,005308.00,3737.738968,N,12224.156581,W,7,,0.38,-31.94,M,0.0,M,0.0,0000*73
$GPRMC,005308.00,A,3737.738968,N,12224.156581,W,058.2,197.1,150520,,,A*42
$GPGGA,005309.00,3737.722984,N,12224.155003,W,7,,0.38,-32.42,M,0.0,M,0.0,0000*7F
$GPRMC,005309.00,A,3737.722984,N,12224.155003,W,058.0,199.7,150520,,,A*4C
$GPGGA,005310.00,3737.707378,N,12224.152333,W,7,,0.38,-32.75,M,0.0,M,0.0,0000*7A
$GPRMC,005310.00,A,3737.707378,N,12224.152333,W,058.1,202.2,150520,,,A*48
$GPGGA,005311.00,3737.691346,N,12224.149357,W,7,,0.38,-32.46,M,0.0,M,0.0,0000*70
$GPRMC,005311.00,A,3737.691346,N,12224.149357,W,058.2,171.1,150520,,,A*45
$GPGGA,005312.00,3737.675152,N,12224.145871,W,7,,0.38,-32.57,M,0.0,M,0.0,0000*7D
$GPRMC,005312.00,A,3737.675152,N,12224.145871,W,057.9,169.9,150520,,,A*4D
$GPGGA,005313.00,3737.659294,N,12224.142188,W,7,,0.38,-32.77,M,0.0,M,0.0,0000*71
$GPRMC,005313.00,A,3737.659294,N,12224.142188,W,057.6,168.6,150520,,,A*42
$GPGGA,005314.00,3737.643670,N,12224.137513,W,7,,0.38,-32.72,M,0.0,M,0.0,0000*72
$GPRMC,005314.00,A,3737.643670,N,12224.137513,W,057.6,167.3,150520,,,A*4E
$GPGGA,005315.00,3737.628105,N,12224.132227,W,7,,0.38,-32.36,M,0.0,M,0.0,0000*7E
$GPRMC,005315.00,A,3737.628105,N,12224.132227,W,057.6,165.6,150520,,,A*45
$GPGGA,005316.00,3737.612782,N,12224.126492,W,7,,0.38,-32.38,M,0.0,M,0.0,0000*7E
$GPRMC,005316.00,A,3737.612782,N,12224.126492,W,057.9,165.0,150520,,,A*42
$GPGGA,005317.00,3737.596929,N,12224.121169,W,7,,0.38,-32.44,M,0.0,M,0.0,0000*72
$GPRMC,005317.00,A,3737.596929,N,12224.121169,W,058.3,164.8,150520,,,A*49
$GPGGA,005318.00,3737.581258,N,12224.115530,W,7,,0.38,-32.02,M,0.0,M,0.0,0000*7B
$GPRMC,005318.00,A,3737.581258,N,12224.115530,W,058.7,164.8,150520,,,A*46
$GPGGA,005319.00,3737.565088,N,12224.110100,W,7,,0.38,-32.18,M,0.0,M,0.0,0000*76
$GPRMC,005319.00,A,3737.565088,N,12224.110100,W,058.9,164.8,150520,,,A*4E
$GPGGA,005320.00,3737.549158,N,12224.104976,W,7,,0.38,-32.05,M,0.0,M,0.0,0000*7E
$GPRMC,005320.00,A,3737.549158,N,12224.104976,W,059.3,165.4,150520,,,A*4C
$GPGGA,005321.00,3737.533341,N,12224.099425,W,7,,0.38,-31.76,M,0.0,M,0.0,0000*71
$GPRMC,005321.00,A,3737.533341,N,12224.099425,W,059.4,165.0,150520,,,A*47
$GPGGA,005322.00,3737.517700,N,12224.094121,W,7,,0.38,-31.99,M,0.0,M,0.0,0000*78
$GPRMC,005322.00,A,3737.517700,N,12224.094121,W,058.8,164.9,150520,,,A*4A
$GPGGA,005323.00,3737.502232,N,12224.088830,W,7,,0.38,-32.99,M,0.0,M,0.0,0000*7E
$GPRMC,005323.00,A,3737.502232,N,12224.088830,W,058.6,165.2,150520,,,A*4B
$GPGGA,005324.00,3737.486631,N,12224.083760,W,7,,0.38,-32.70,M,0.0,M,0.0,0000*75
$GPRMC,005324.00,A,3737.486631,N,12224.083760,W,058.7,165.3,150520,,,A*47
$GPGGA,005325.00,3737.471319,N,12224.078785,W,7,,0.38,-33.15,M,0.0,M,0.0,0000*7E
$GPRMC,005325.00,A,3737.471319,N,12224.078785,W,058.4,165.3,150520,,,A*4D
$GPGGA,005326.00,3737.455155,N,12224.073313,W,7,,0.38,-33.61,M,0.0,M,0.0,0000*72
$GPRMC,005326.00,A,3737.455155,N,12224.073313,W,058.7,165.1,150520,,,A*43
$GPGGA,005327.00,3737.439387,N,12224.068441,W,7,,0.38,-33.47,M,0.0,M,0.0,0000*7A
$GPRMC,005327.00,A,3737.439387,N,12224.068441,W,058.4,165.0,150520,,,A*4D
$GPGGA,005328.00,3737.423445,N,12224.062850,W,7,,0.38,-33.12,M,0.0,M,0.0,0000*71
$GPRMC,005328.00,A,3737.423445,N,12224.062850,W,058.4,164.9,150520,,,A*4E
$GPGGA,005329.00,3737.407587,N,12224.057252,W,7,,0.38,-32.95,M,0.0,M,0.0,0000*79
$GPRMC,005329.00,A,3737.407587,N,12224.057252,W,058.5,164.7,150520,,,A*47
$GPGGA,005330.00,3737.391681,N,12224.051887,W,7,,0.38,-32.68,M,0.0,M,0.0,0000*7A
$GPRMC,005330.00,A,3737.391681,N,12224.051887,W,058.6,164.9,150520,,,A*4B
$GPGGA,005331.00,3737.376021,N,12224.046308,W,7,,0.38,-32.60,M,0.0,M,0.0,0000*7C
$GPRMC,005331.00,A,3737.376021,N,12224.046308,W,058.3,165.0,150520,,,A*48
$GPGGA,005332.00,3737.360637,N,12224.041382,W,7,,0.38,-32.89,M,0.0,M,0.0,0000*7B
$GPRMC,005332.00,A,3737.360637,N,12224.041382,W,058.4,165.1,150520,,,A*4E
$GPGGA,005333.00,3737.345254,N,12224.035982,W,7,,0.38,-33.09,M,0.0,M,0.0,0000*7C
$GPRMC,005333.00,A,3737.345254,N,12224.035982,W,058.4,164.9,150520,,,A*49
$GPGGA,005334.00,3737.329557,N,12224.031128,W,7,,0.38,-32.98,M,0.0,M,0.0,0000*70
$GPRMC,005334.00,A,3737.329557,N,12224.031128,W,058.2,164.9,150520,,,A*4A
$GPGGA,005335.00,3737.314077,N,12224.025800,W,7,,0.38,-32.54,M,0.0,M,0.0,0000*7E
$GPRMC,005335.00,A,3737.314077,N,12224.025800,W,058.2,164.9,150520,,,A*44
$GPGGA,005336.00,3737.298880,N,12224.019896,W,7,,0.38,-33.57,M,0.0,M,0.0,0000*7A
$GPRMC,005336.00,A,3737.298880,N,12224.019896,W,058.6,165.0,150520,,,A*4E
$GPGGA,005337.00,3737.282817,N,12224.014568,W,7,,0.38,-33.04,M,0.0,M,0.0,0000*79
$GPRMC,005337.00,A,3737.282817,N,12224.014568,W,058.8,165.1,150520,,,A*44
$GPGGA,005338.00,3737.267188,N,12224.009324,W,7,,0.38,-33.38,M,0.0,M,0.0,0000*7F
$GPRMC,005338.00,A,3737.267188,N,12224.009324,W,059.1,164.8,150520,,,A*4D
$GPGGA,005339.00,3737.251102,N,12224.004038,W,7,,0.38,-33.20,M,0.0,M,0.0,0000*73
$GPRMC,005339.00,A,3737.251102,N,12224.004038,W,059.4,164.9,150520,,,A*4C
$GPGGA,005340.00,3737.234841,N,12223.998817,W,7,,0.38,-33.14,M,0.0,M,0.0,0000*79
$GPRMC,005340.00,A,3737.234841,N,12223.998817,W,059.6,164.9,150520,,,A*43
$GPGGA,005341.00,3737.218653,N,12223.993705,W,7,,0.38,-32.75,M,0.0,M,0.0,0000*7A
$GPRMC,005341.00,A,3737.218653,N,12223.993705,W,060.1,165.0,150520,,,A*43
$GPGGA,005342.00,3737.202256,N,12223.987843,W,7,,0.38,-32.38,M,0.0,M,0.0,0000*72
$GPRMC,005342.00,A,3737.202256,N,12223.987843,W,060.3,165.0,150520,,,A*40
$GPGGA,005343.00,3737.185948,N,12223.982299,W,7,,0.38,-32.62,M,0.0,M,0.0,0000*7C
$GPRMC,005343.00,A,3737.185948,N,12223.982299,W,060.8,165.1,150520,,,A*4B
$GPGGA,005344.00,3737.169268,N,12223.976845,W,7,,0.38,-32.24,M,0.0,M,0.0,0000*72
$GPRMC,005344.00,A,3737.169268,N,12223.976845,W,060.9,164.9,150520,,,A*4F
$GPGGA,005345.00,3737.152774,N,12223.971397,W,7,,0.38,-32.41,M,0.0,M,0.0,0000*73
$GPRMC,005345.00,A,3737.152774,N,12223.971397,W,061.3,165.1,150520,,,A*4F
$GPGGA,005346.00,3737.136195,N,12223.965973,W,7,,0.38,-32.15,M,0.0,M,0.0,0000*7F
$GPRMC,005346.00,A,3737.136195,N,12223.965973,W,061.7,165.1,150520,,,A*46
$GPGGA,005347.00,3737.119701,N,12223.960520,W,7,,0.38,-32.22,M,0.0,M,0.0,0000*73
$GPRMC,005347.00,A,3737.119701,N,12223.960520,W,062.0,165.0,150520,,,A*4B
$GPGGA,005348.00,3737.102830,N,12223.954897,W,7,,0.38,-32.58,M,0.0,M,0.0,0000*70
$GPRMC,005348.00,A,3737.102830,N,12223.954897,W,062.5,164.8,150520,,,A*49
$GPGGA,005349.00,3737.086318,N,12223.949341,W,7,,0.38,-33.18,M,0.0,M,0.0,0000*74
$GPRMC,005349.00,A,3737.086318,N,12223.949341,W,062.8,165.0,150520,,,A*4C
$GPGGA,005350.00,3737.068864,N,12223.943635,W,7,,0.38,-33.86,M,0.0,M,0.0,0000*77
$GPRMC,005350.00,A,3737.068864,N,12223.943635,W,062.9,165.1,150520,,,A*48
$GPGGA,005351.00,3737.051817,N,12223.938511,W,7,,0.38,-34.29,M,0.0,M,0.0,0000*73
$GPRMC,005351.00,A,3737.051817,N,12223.938511,W,062.5,165.2,150520,,,A*41
$GPGGA,005352.00,3737.035096,N,12223.933160,W,7,,0.38,-33.83,M,0.0,M,0.0,0000*7D
$GPRMC,005352.00,A,3737.035096,N,12223.933160,W,062.0,165.3,150520,,,A*4C
$GPGGA,005353.00,3737.018733,N,12223.927693,W,7,,0.38,-33.66,M,0.0,M,0.0,0000*7E
$GPRMC,005353.00,A,3737.018733,N,12223.927693,W,061.1,164.9,150520,,,A*4D
$GPGGA,005354.00,3737.002036,N,12223.921784,W,7,,0.38,-33.95,M,0.0,M,0.0,0000*7D
$GPRMC,005354.00,A,3737.002036,N,12223.921784,W,060.5,164.7,150520,,,A*49
$GPGGA,005355.00,3736.985728,N,12223.915327,W,7,,0.38,-33.75,M,0.0,M,0.0,0000*77
$GPRMC,005355.00,A,3736.985728,N,12223.915327,W,059.8,163.5,150520,,,A*4F
$GPGGA,005356.00,3736.970080,N,12223.909165,W,7,,0.38,-33.36,M,0.0,M,0.0,0000*75
$GPRMC,005356.00,A,3736.970080,N,12223.909165,W,059.1,162.1,150520,,,A*46
$GPGGA,005357.00,3736.954726,N,12223.902584,W,7,,0.38,-33.80,M,0.0,M,0.0,0000*74
$GPRMC,005357.00,A,3736.954726,N,12223.902584,W,058.5,160.1,150520,,,A*4D
$GPGGA,005358.00,3736.939504,N,12223.895414,W,7,,0.38,-33.80,M,0.0,M,0.0,0000*75
$GPRMC,005358.00,A,3736.939504,N,12223.895414,W,058.4,159.0,150520,,,A*46
$GPGGA,005359.00,3736.924630,N,12223.887565,W,7,,0.38,-33.61,M,0.0,M,0.0,0000*77
$GPRMC,005359.00,A,3736.924630,N,12223.887565,W,058.6,157.3,150520,,,A*44
$GPGGA,005400.00,3736.909372,N,12223.878356,W,7,,0.38,-33.98,M,0.0,M,0.0,0000*70
$GPRMC,005400.00,A,3736.909372,N,12223.878356,W,059.3,154.9,150520,,,A*48
$GPGGA,005401.00,3736.894528,N,12223.868888,W,7,,0.38,-33.63,M,0.0,M,0.0,0000*70
$GPRMC,005401.00,A,3736.894528,N,12223.868888,W,059.6,153.4,150520,,,A*43
$GPGGA,005402.00,3736.879701,N,12223.859198,W,7,,0.38,-34.28,M,0.0,M,0.0,0000*7B
$GPRMC,005402.00,A,3736.879701,N,12223.859198,W,060.1,152.0,150520,,,A*48
$GPGGA,005403.00,3736.865416,N,12223.848517,W,7,,0.38,-34.36,M,0.0,M,0.0,0000*7E
$GPRMC,005403.00,A,3736.865416,N,12223.848517,W,060.3,150.4,150520,,,A*46
$GPGGA,005404.00,3736.850913,N,12223.837327,W,7,,0.38,-33.80,M,0.0,M,0.0,0000*70
$GPRMC,005404.00,A,3736.850913,N,12223.837327,W,060.7,149.5,150520,,,A*4F
$GPGGA,005405.00,3736.836609,N,12223.826192,W,7,,0.38,-33.61,M,0.0,M,0.0,0000*76
$GPRMC,005405.00,A,3736.836609,N,12223.826192,W,060.5,147.9,150520,,,A*46
$GPGGA,005406.00,3736.822798,N,12223.814906,W,7,,0.38,-33.45,M,0.0,M,0.0,0000*7B
$GPRMC,005406.00,A,3736.822798,N,12223.814906,W,060.5,146.2,150520,,,A*47
$GPGGA,005407.00,3736.809435,N,12223.802780,W,7,,0.38,-33.24,M,0.0,M,0.0,0000*77
$GPRMC,005407.00,A,3736.809435,N,12223.802780,W,060.8,144.8,150520,,,A*49
$GPGGA,005408.00,3736.796403,N,12223.790204,W,7,,0.38,-32.43,M,0.0,M,0.0,0000*79
$GPRMC,005408.00,A,3736.796403,N,12223.790204,W,060.9,143.3,150520,,,A*4A
$GPGGA,005409.00,3736.782837,N,12223.777190,W,7,,0.38,-32.50,M,0.0,M,0.0,0000*73
$GPRMC,005409.00,A,3736.782837,N,12223.777190,W,060.6,141.8,150520,,,A*44
$GPGGA,005410.00,3736.769667,N,12223.763521,W,7,,0.38,-32.09,M,0.0,M,0.0,0000*72
$GPRMC,005410.00,A,3736.769667,N,12223.763521,W,060.7,140.3,150520,,,A*42
$GPGGA,005411.00,3736.756857,N,12223.749289,W,7,,0.38,-31.65,M,0.0,M,0.0,0000*76
$GPRMC,005411.00,A,3736.756857,N,12223.749289,W,061.0,139.0,150520,,,A*44
$GPGGA,005412.00,3736.744114,N,12223.735022,W,7,,0.38,-31.06,M,0.0,M,0.0,0000*75
$GPRMC,005412.00,A,3736.744114,N,12223.735022,W,061.2,137.5,150520,,,A*4B
$GPGGA,005413.00,3736.731958,N,12223.720189,W,7,,0.38,-31.99,M,0.0,M,0.0,0000*74
$GPRMC,005413.00,A,3736.731958,N,12223.720189,W,061.6,135.9,150520,,,A*46
$GPGGA,005414.00,3736.719615,N,12223.704697,W,7,,0.38,-31.85,M,0.0,M,0.0,0000*7C
$GPRMC,005414.00,A,3736.719615,N,12223.704697,W,061.9,134.6,150520,,,A*42
$GPGGA,005415.00,3736.707681,N,12223.688455,W,7,,0.38,-31.68,M,0.0,M,0.0,0000*75
$GPRMC,005415.00,A,3736.707681,N,12223.688455,W,062.3,133.1,150520,,,A*41
$GPGGA,005416.00,3736.695759,N,12223.672634,W,7,,0.38,-32.17,M,0.0,M,0.0,0000*73
$GPRMC,005416.00,A,3736.695759,N,12223.672634,W,062.7,131.7,150520,,,A*4C
$GPGGA,005417.00,3736.684371,N,12223.655684,W,7,,0.38,-31.98,M,0.0,M,0.0,0000*76
$GPRMC,005417.00,A,3736.684371,N,12223.655684,W,062.9,130.4,150520,,,A*41
$GPGGA,005418.00,3736.673277,N,12223.638968,W,7,,0.38,-32.80,M,0.0,M,0.0,0000*7A
$GPRMC,005418.00,A,3736.673277,N,12223.638968,W,063.3,129.1,150520,,,A*41
$GPGGA,005419.00,3736.662699,N,12223.622018,W,7,,0.38,-33.03,M,0.0,M,0.0,0000*70
$GPRMC,005419.00,A,3736.662699,N,12223.622018,W,063.8,129.0,150520,,,A*4B
$GPGGA,005420.00,3736.651221,N,12223.604143,W,7,,0.38,-32.99,M,0.0,M,0.0,0000*74
$GPRMC,005420.00,A,3736.651221,N,12223.604143,W,064.5,129.4,150520,,,A*43
$GPGGA,005421.00,3736.639899,N,12223.586414,W,7,,0.38,-33.63,M,0.0,M,0.0,0000*78
$GPRMC,005421.00,A,3736.639899,N,12223.586414,W,064.3,129.0,150520,,,A*49
$GPGGA,005422.00,3736.628769,N,12223.568659,W,7,,0.38,-33.52,M,0.0,M,0.0,0000*72
$GPRMC,005422.00,A,3736.628769,N,12223.568659,W,064.5,128.5,150520,,,A*43
$GPGGA,005423.00,3736.617952,N,12223.550768,W,7,,0.38,-33.79,M,0.0,M,0.0,0000*78
$GPRMC,005423.00,A,3736.617952,N,12223.550768,W,064.6,128.1,150520,,,A*47
$GPGGA,005424.00,3736.606978,N,12223.532893,W,7,,0.38,-33.23,M,0.0,M,0.0,0000*77
$GPRMC,005424.00,A,3736.606978,N,12223.532893,W,064.7,126.5,150520,,,A*4C
$GPGGA,005425.00,3736.595422,N,12223.515422,W,7,,0.38,-33.01,M,0.0,M,0.0,0000*7E
$GPRMC,005425.00,A,3736.595422,N,12223.515422,W,064.8,130.5,150520,,,A*4D
$GPGGA,005426.00,3736.584189,N,12223.497632,W,7,,0.38,-33.07,M,0.0,M,0.0,0000*77
$GPRMC,005426.00,A,3736.584189,N,12223.497632,W,064.7,133.2,150520,,,A*49
$GPGGA,005427.00,3736.572472,N,12223.480219,W,7,,0.38,-33.28,M,0.0,M,0.0,0000*78
$GPRMC,005427.00,A,3736.572472,N,12223.480219,W,064.5,136.0,150520,,,A*4E
$GPGGA,005428.00,3736.561149,N,12223.462946,W,7,,0.38,-33.26,M,0.0,M,0.0,0000*7B
$GPRMC,005428.00,A,3736.561149,N,12223.462946,W,064.1,139.8,150520,,,A*40
$GPGGA,005429.00,3736.549797,N,12223.445252,W,7,,0.38,-33.36,M,0.0,M,0.0,0000*7F
$GPRMC,005429.00,A,3736.549797,N,12223.445252,W,064.0,143.6,150520,,,A*47
$GPGGA,005430.00,3736.538584,N,12223.427456,W,7,,0.38,-32.94,M,0.0,M,0.0,0000*7E
$GPRMC,005430.00,A,3736.538584,N,12223.427456,W,064.8,147.9,150520,,,A*4C
$GPGGA,005431.00,3736.527226,N,12223.409815,W,7,,0.38,-32.60,M,0.0,M,0.0,0000*72
$GPRMC,005431.00,A,3736.527226,N,12223.409815,W,064.6,151.2,150520,,,A*49
$GPGGA,005432.00,3736.515748,N,12223.392302,W,7,,0.38,-32.00,M,0.0,M,0.0,0000*73
$GPRMC,005432.00,A,3736.515748,N,12223.392302,W,064.8,154.3,150520,,,A*44
$GPGGA,005433.00,3736.504210,N,12223.375052,W,7,,0.38,-31.76,M,0.0,M,0.0,0000*77
$GPRMC,005433.00,A,3736.504210,N,12223.375052,W,064.8,157.7,150520,,,A*45
$GPGGA,005434.00,3736.492750,N,12223.357556,W,7,,0.38,-32.18,M,0.0,M,0.0,0000*75
$GPRMC,005434.00,A,3736.492750,N,12223.357556,W,064.7,161.4,150520,,,A*45
$GPGGA,005435.00,3736.481283,N,12223.340234,W,7,,0.38,-31.59,M,0.0,M,0.0,0000*7E
$GPRMC,005435.00,A,3736.481283,N,12223.340234,W,064.5,165.4,150520,,,A*4E
$GPGGA,005436.00,3736.470015,N,12223.322930,W,7,,0.38,-31.78,M,0.0,M,0.0,0000*76
$GPRMC,005436.00,A,3736.470015,N,12223.322930,W,064.2,169.1,150520,,,A*4B
$GPGGA,005437.00,3736.458640,N,12223.305308,W,7,,0.38,-31.43,M,0.0,M,0.0,0000*77
$GPRMC,005437.00,A,3736.458640,N,12223.305308,W,064.1,172.8,150520,,,A*42
$GPGGA,005438.00,3736.447294,N,12223.288028,W,7,,0.38,-31.06,M,0.0,M,0.0,0000*7F
$GPRMC,005438.00,A,3736.447294,N,12223.288028,W,064.0,129.4,150520,,,A*48
$GPGGA,005439.00,3736.435941,N,12223.270808,W,7,,0.38,-31.00,M,0.0,M,0.0,0000*73
$GPRMC,005439.00,A,3736.435941,N,12223.270808,W,063.9,129.6,150520,,,A*4E
$GPGGA,005440.00,3736.424506,N,12223.253414,W,7,,0.38,-30.97,M,0.0,M,0.0,0000*7D
$GPRMC,005440.00,A,3736.424506,N,12223.253414,W,064.0,129.6,150520,,,A*41
$GPGGA,005441.00,3736.413021,N,12223.236170,W,7,,0.38,-30.55,M,0.0,M,0.0,0000*72
$GPRMC,005441.00,A,3736.413021,N,12223.236170,W,064.0,129.5,150520,,,A*43
$GPGGA,005442.00,3736.401645,N,12223.218902,W,7,,0.38,-30.50,M,0.0,M,0.0,0000*72
$GPRMC,005442.00,A,3736.401645,N,12223.218902,W,064.0,129.2,150520,,,A*41
$GPGGA,005443.00,3736.390390,N,12223.201765,W,7,,0.38,-30.43,M,0.0,M,0.0,0000*74
$GPRMC,005443.00,A,3736.390390,N,12223.201765,W,064.1,129.4,150520,,,A*42
$GPGGA,005444.00,3736.378978,N,12223.184443,W,7,,0.38,-30.97,M,0.0,M,0.0,0000*79
$GPRMC,005444.00,A,3736.378978,N,12223.184443,W,064.3,129.6,150520,,,A*46
$GPGGA,005445.00,3736.367577,N,12223.167037,W,7,,0.38,-30.66,M,0.0,M,0.0,0000*71
$GPRMC,005445.00,A,3736.367577,N,12223.167037,W,064.4,129.7,150520,,,A*46
$GPGGA,005446.00,3736.356267,N,12223.149415,W,7,,0.38,-30.85,M,0.0,M,0.0,0000*73
$GPRMC,005446.00,A,3736.356267,N,12223.149415,W,064.5,129.3,150520,,,A*4C
$GPGGA,005447.00,3736.344771,N,12223.131974,W,7,,0.38,-31.03,M,0.0,M,0.0,0000*79
$GPRMC,005447.00,A,3736.344771,N,12223.131974,W,064.7,129.4,150520,,,A*4C
$GPGGA,005448.00,3736.333366,N,12223.114531,W,7,,0.38,-31.04,M,0.0,M,0.0,0000*79
$GPRMC,005448.00,A,3736.333366,N,12223.114531,W,064.9,129.2,150520,,,A*43
$GPGGA,005449.00,3736.321743,N,12223.096772,W,7,,0.38,-30.54,M,0.0,M,0.0,0000*72
$GPRMC,005449.00,A,3736.321743,N,12223.096772,W,065.1,129.1,150520,,,A*46
$GPGGA,005450.00,3736.310092,N,12223.079329,W,7,,0.38,-30.86,M,0.0,M,0.0,0000*77
$GPRMC,005450.00,A,3736.310092,N,12223.079329,W,065.1,129.4,150520,,,A*49
$GPGGA,005451.00,3736.298511,N,12223.061791,W,7,,0.38,-30.96,M,0.0,M,0.0,0000*76
$GPRMC,005451.00,A,3736.298511,N,12223.061791,W,065.2,129.6,150520,,,A*48
$GPGGA,005452.00,3736.286782,N,12223.044037,W,7,,0.38,-31.00,M,0.0,M,0.0,0000*70
$GPRMC,005452.00,A,3736.286782,N,12223.044037,W,065.3,129.5,150520,,,A*42
$GPGGA,005453.00,3736.275364,N,12223.026619,W,7,,0.38,-30.83,M,0.0,M,0.0,0000*75
$GPRMC,005453.00,A,3736.275364,N,12223.026619,W,065.2,129.4,150520,,,A*4D
$GPGGA,005454.00,3736.263825,N,12223.009004,W,7,,0.38,-30.87,M,0.0,M,0.0,0000*78
$GPRMC,005454.00,A,3736.263825,N,12223.009004,W,065.0,129.3,150520,,,A*41
$GPGGA,005455.00,3736.252389,N,12222.991747,W,7,,0.38,-30.57,M,0.0,M,0.0,0000*72
$GPRMC,005455.00,A,3736.252389,N,12222.991747,W,064.9,129.1,150520,,,A*4C
$GPGGA,005456.00,3736.241097,N,12222.974083,W,7,,0.38,-30.61,M,0.0,M,0.0,0000*7E
$GPRMC,005456.00,A,3736.241097,N,12222.974083,W,065.0,128.9,150520,,,A*44
$GPGGA,005457.00,3736.229781,N,12222.956359,W,7,,0.38,-30.19,M,0.0,M,0.0,0000*7A
$GPRMC,005457.00,A,3736.229781,N,12222.956359,W,064.6,128.9,150520,,,A*48
$GPGGA,005458.00,3736.218826,N,12222.938828,W,7,,0.38,-30.03,M,0.0,M,0.0,0000*7B
$GPRMC,005458.00,A,3736.218826,N,12222.938828,W,063.7,129.1,150520,,,A*4D
$GPGGA,005459.00,3736.207732,N,12222.921805,W,7,,0.38,-29.68,M,0.0,M,0.0,0000*7C
$GPRMC,005459.00,A,3736.207732,N,12222.921805,W,063.2,129.4,150520,,,A*4F
$GPGGA,005500.00,3736.197118,N,12222.905017,W,7,,0.38,-31.14,M,0.0,M,0.0,0000*7A
$GPRMC,005500.00,A,3736.197118,N,12222.905017,W,063.1,129.4,150520,,,A*48
$GPGGA,005501.00,3736.185988,N,12222.888055,W,7,,0.38,-31.58,M,0.0,M,0.0,0000*73
$GPRMC,005501.00,A,3736.185988,N,12222.888055,W,062.9,129.5,150520,,,A*41
$GPGGA,005502.00,3736.174917,N,12222.871189,W,7,,0.38,-31.89,M,0.0,M,0.0,0000*72
$GPRMC,005502.00,A,3736.174917,N,12222.871189,W,062.6,129.4,150520,,,A*42
$GPGGA,005503.00,3736.163722,N,12222.853994,W,7,,0.38,-31.56,M,0.0,M,0.0,0000*7B
$GPRMC,005503.00,A,3736.163722,N,12222.853994,W,062.5,129.7,150520,,,A*49
$GPGGA,005504.00,3736.152921,N,12222.836858,W,7,,0.38,-31.77,M,0.0,M,0.0,0000*72
$GPRMC,005504.00,A,3736.152921,N,12222.836858,W,062.6,129.2,150520,,,A*45
$GPGGA,005505.00,3736.141863,N,12222.820028,W,7,,0.38,-31.75,M,0.0,M,0.0,0000*7C
$GPRMC,005505.00,A,3736.141863,N,12222.820028,W,062.6,129.4,150520,,,A*4F
$GPGGA,005506.00,3736.130818,N,12222.802922,W,7,,0.38,-31.38,M,0.0,M,0.0,0000*7F
$GPRMC,005506.00,A,3736.130818,N,12222.802922,W,062.7,129.4,150520,,,A*44
$GPGGA,005507.00,3736.119772,N,12222.785744,W,7,,0.38,-31.46,M,0.0,M,0.0,0000*71
$GPRMC,005507.00,A,3736.119772,N,12222.785744,W,062.7,129.3,150520,,,A*44
$GPGGA,005508.00,3736.108762,N,12222.768944,W,7,,0.38,-31.30,M,0.0,M,0.0,0000*73
$GPRMC,005508.00,A,3736.108762,N,12222.768944,W,062.7,128.7,150520,,,A*42
$GPGGA,005509.00,3736.097751,N,12222.751687,W,7,,0.38,-31.05,M,0.0,M,0.0,0000*79
$GPRMC,005509.00,A,3736.097751,N,12222.751687,W,062.6,128.9,150520,,,A*41
$GPGGA,005510.00,3736.086921,N,12222.734618,W,7,,0.38,-31.16,M,0.0,M,0.0,0000*7F
$GPRMC,005510.00,A,3736.086921,N,12222.734618,W,062.8,129.1,150520,,,A*42
$GPGGA,005511.00,3736.075785,N,12222.718010,W,7,,0.38,-31.09,M,0.0,M,0.0,0000*7C
$GPRMC,005511.00,A,3736.075785,N,12222.718010,W,062.8,129.7,150520,,,A*49
$GPGGA,005512.00,3736.064794,N,12222.700525,W,7,,0.38,-30.98,M,0.0,M,0.0,0000*7C
$GPRMC,005512.00,A,3736.064794,N,12222.700525,W,062.8,129.4,150520,,,A*43
$GPGGA,005513.00,3736.053687,N,12222.683749,W,7,,0.38,-31.05,M,0.0,M,0.0,0000*7D
$GPRMC,005513.00,A,3736.053687,N,12222.683749,W,062.8,129.5,150520,,,A*46
$GPGGA,005514.00,3736.042593,N,12222.666656,W,7,,0.38,-30.25,M,0.0,M,0.0,0000*7B
$GPRMC,005514.00,A,3736.042593,N,12222.666656,W,062.9,129.5,150520,,,A*42
$GPGGA,005515.00,3736.031349,N,12222.650101,W,7,,0.38,-30.61,M,0.0,M,0.0,0000*7F
$GPRMC,005515.00,A,3736.031349,N,12222.650101,W,063.0,129.3,150520,,,A*48
$GPGGA,005516.00,3736.019998,N,12222.633236,W,7,,0.38,-30.24,M,0.0,M,0.0,0000*73
$GPRMC,005516.00,A,3736.019998,N,12222.633236,W,063.0,129.4,150520,,,A*42
$GPGGA,005517.00,3736.009323,N,12222.616298,W,7,,0.38,-30.73,M,0.0,M,0.0,0000*78
$GPRMC,005517.00,A,3736.009323,N,12222.616298,W,062.8,129.4,150520,,,A*42
$GPGGA,005518.00,3735.998409,N,12222.599377,W,7,,0.38,-30.71,M,0.0,M,0.0,0000*7C
$GPRMC,005518.00,A,3735.998409,N,12222.599377,W,062.7,129.4,150520,,,A*4B
$GPGGA,005519.00,3735.987249,N,12222.582404,W,7,,0.38,-30.61,M,0.0,M,0.0,0000*79
$GPRMC,005519.00,A,3735.987249,N,12222.582404,W,062.9,129.5,150520,,,A*40
$GPGGA,005520.00,3735.976618,N,12222.564793,W,7,,0.38,-30.28,M,0.0,M,0.0,0000*75
$GPRMC,005520.00,A,3735.976618,N,12222.564793,W,063.0,129.1,150520,,,A*4D
$GPGGA,005521.00,3735.965386,N,12222.547783,W,7,,0.38,-29.90,M,0.0,M,0.0,0000*7F
$GPRMC,005521.00,A,3735.965386,N,12222.547783,W,063.1,129.0,150520,,,A*4C
$GPGGA,005522.00,3735.954430,N,12222.530558,W,7,,0.38,-29.58,M,0.0,M,0.0,0000*74
$GPRMC,005522.00,A,3735.954430,N,12222.530558,W,063.2,128.9,150520,,,A*48
$GPGGA,005523.00,3735.943240,N,12222.513373,W,7,,0.38,-29.51,M,0.0,M,0.0,0000*75
$GPRMC,005523.00,A,3735.943240,N,12222.513373,W,063.5,128.9,150520,,,A*47
$GPGGA,005524.00,3735.931875,N,12222.496208,W,7,,0.38,-29.55,M,0.0,M,0.0,0000*7E
$GPRMC,005524.00,A,3735.931875,N,12222.496208,W,063.6,129.1,150520,,,A*42
$GPGGA,005525.00,3735.920878,N,12222.478250,W,7,,0.38,-29.17,M,0.0,M,0.0,0000*79
$GPRMC,005525.00,A,3735.920878,N,12222.478250,W,063.7,129.1,150520,,,A*42
$GPGGA,005526.00,3735.909543,N,12222.461078,W,7,,0.38,-29.19,M,0.0,M,0.0,0000*7A
$GPRMC,005526.00,A,3735.909543,N,12222.461078,W,063.8,129.2,150520,,,A*43
$GPGGA,005527.00,3735.898396,N,12222.444019,W,7,,0.38,-29.46,M,0.0,M,0.0,0000*76
$GPRMC,005527.00,A,3735.898396,N,12222.444019,W,063.8,129.2,150520,,,A*45
$GPGGA,005528.00,3735.887481,N,12222.426925,W,7,,0.38,-30.46,M,0.0,M,0.0,0000*7C
$GPRMC,005528.00,A,3735.887481,N,12222.426925,W,064.0,128.9,150520,,,A*42
$GPGGA,005529.00,3735.875998,N,12222.409526,W,7,,0.38,-29.70,M,0.0,M,0.0,0000*7A
$GPRMC,005529.00,A,3735.875998,N,12222.409526,W,064.2,128.9,150520,,,A*4B
$GPGGA,005530.00,3735.865102,N,12222.391525,W,7,,0.38,-28.79,M,0.0,M,0.0,0000*75
$GPRMC,005530.00,A,3735.865102,N,12222.391525,W,064.6,129.2,150520,,,A*42
$GPGGA,005531.00,3735.853515,N,12222.374156,W,7,,0.38,-28.96,M,0.0,M,0.0,0000*79
$GPRMC,005531.00,A,3735.853515,N,12222.374156,W,064.6,129.0,150520,,,A*4D
$GPGGA,005532.00,3735.841924,N,12222.356594,W,7,,0.38,-28.50,M,0.0,M,0.0,0000*77
$GPRMC,005532.00,A,3735.841924,N,12222.356594,W,064.8,129.2,150520,,,A*45
$GPGGA,005533.00,3735.830734,N,12222.339272,W,7,,0.38,-28.20,M,0.0,M,0.0,0000*7E
$GPRMC,005533.00,A,3735.830734,N,12222.339272,W,064.8,129.1,150520,,,A*48
$GPGGA,005534.00,3735.819657,N,12222.321709,W,7,,0.38,-28.41,M,0.0,M,0.0,0000*71
$GPRMC,005534.00,A,3735.819657,N,12222.321709,W,065.0,129.4,150520,,,A*4C
$GPGGA,005535.00,3735.808353,N,12222.303859,W,7,,0.38,-28.19,M,0.0,M,0.0,0000*76
$GPRMC,005535.00,A,3735.808353,N,12222.303859,W,065.0,129.3,150520,,,A*41
$GPGGA,005536.00,3735.796984,N,12222.286736,W,7,,0.38,-28.69,M,0.0,M,0.0,0000*70
$GPRMC,005536.00,A,3735.796984,N,12222.286736,W,064.9,129.5,150520,,,A*4E
$GPGGA,005537.00,3735.785427,N,12222.269545,W,7,,0.38,-28.11,M,0.0,M,0.0,0000*7F
$GPRMC,005537.00,A,3735.785427,N,12222.269545,W,064.9,129.6,150520,,,A*4D
$GPGGA,005538.00,3735.774207,N,12222.252001,W,7,,0.38,-28.87,M,0.0,M,0.0,0000*78
$GPRMC,005538.00,A,3735.774207,N,12222.252001,W,065.0,129.5,150520,,,A*4E
$GPGGA,005539.00,3735.762610,N,12222.234284,W,7,,0.38,-28.97,M,0.0,M,0.0,0000*72
$GPRMC,005539.00,A,3735.762610,N,12222.234284,W,064.8,129.3,150520,,,A*4A
$GPGGA,005540.00,3735.750940,N,12222.216865,W,7,,0.38,-29.16,M,0.0,M,0.0,0000*7A
$GPRMC,005540.00,A,3735.750940,N,12222.216865,W,064.7,129.3,150520,,,A*45
$GPGGA,005541.00,3735.739317,N,12222.199363,W,7,,0.38,-28.79,M,0.0,M,0.0,0000*7D
$GPRMC,005541.00,A,3735.739317,N,12222.199363,W,064.5,129.4,150520,,,A*4F
$GPGGA,005542.00,3735.728176,N,12222.182041,W,7,,0.38,-29.21,M,0.0,M,0.0,0000*7E
$GPRMC,005542.00,A,3735.728176,N,12222.182041,W,064.1,129.0,150520,,,A*40
$GPGGA,005543.00,3735.716938,N,12222.164821,W,7,,0.38,-29.28,M,0.0,M,0.0,0000*7F
$GPRMC,005543.00,A,3735.716938,N,12222.164821,W,063.2,131.1,150520,,,A*44
$GPGGA,005544.00,3735.705615,N,12222.147931,W,7,,0.38,-29.39,M,0.0,M,0.0,0000*7B
$GPRMC,005544.00,A,3735.705615,N,12222.147931,W,061.9,135.9,150520,,,A*45
$GPGGA,005545.00,3735.694455,N,12222.131060,W,7,,0.38,-29.36,M,0.0,M,0.0,0000*76
$GPRMC,005545.00,A,3735.694455,N,12222.131060,W,061.6,140.4,150520,,,A*47
$GPGGA,005546.00,3735.683721,N,12222.114392,W,7,,0.38,-29.96,M,0.0,M,0.0,0000*70
$GPRMC,005546.00,A,3735.683721,N,12222.114392,W,062.3,145.5,150520,,,A*49
$GPGGA,005547.00,3735.672718,N,12222.096799,W,7,,0.38,-29.24,M,0.0,M,0.0,0000*78
$GPRMC,005547.00,A,3735.672718,N,12222.096799,W,062.4,150.3,150520,,,A*4D
$GPGGA,005548.00,3735.661630,N,12222.079376,W,7,,0.38,-29.28,M,0.0,M,0.0,0000*76
$GPRMC,005548.00,A,3735.661630,N,12222.079376,W,062.5,155.3,150520,,,A*4B
$GPGGA,005549.00,3735.650554,N,12222.062696,W,7,,0.38,-28.63,M,0.0,M,0.0,0000*7B
$GPRMC,005549.00,A,3735.650554,N,12222.062696,W,062.8,160.2,150520,,,A*42
$GPGGA,005550.00,3735.639393,N,12222.045620,W,7,,0.38,-28.35,M,0.0,M,0.0,0000*7A
$GPRMC,005550.00,A,3735.639393,N,12222.045620,W,063.3,165.0,150520,,,A*4D
$GPGGA,005551.00,3735.628030,N,12222.028730,W,7,,0.38,-29.42,M,0.0,M,0.0,0000*7B
$GPRMC,005551.00,A,3735.628030,N,12222.028730,W,063.5,169.8,150520,,,A*4F
$GPGGA,005552.00,3735.616821,N,12222.011828,W,7,,0.38,-29.73,M,0.0,M,0.0,0000*73
$GPRMC,005552.00,A,3735.616821,N,12222.011828,W,063.7,174.5,150520,,,A*46
$GPGGA,005553.00,3735.605416,N,12221.994668,W,7,,0.38,-29.87,M,0.0,M,0.0,0000*7E
$GPRMC,005553.00,A,3735.605416,N,12221.994668,W,064.0,179.4,150520,,,A*4C
$GPGGA,005554.00,3735.594118,N,12221.976619,W,7,,0.38,-28.92,M,0.0,M,0.0,0000*76
$GPRMC,005554.00,A,3735.594118,N,12221.976619,W,064.1,129.6,150520,,,A*47
$GPGGA,005555.00,3735.582603,N,12221.959238,W,7,,0.38,-28.58,M,0.0,M,0.0,0000*71
$GPRMC,005555.00,A,3735.582603,N,12221.959238,W,064.0,129.4,150520,,,A*45
$GPGGA,005556.00,3735.571137,N,12221.941849,W,7,,0.38,-28.28,M,0.0,M,0.0,0000*7C
$GPRMC,005556.00,A,3735.571137,N,12221.941849,W,064.0,129.3,150520,,,A*48
$GPGGA,005557.00,3735.560205,N,12221.924467,W,7,,0.38,-28.01,M,0.0,M,0.0,0000*77
$GPRMC,005557.00,A,3735.560205,N,12221.924467,W,063.8,129.0,150520,,,A*44
$GPGGA,005558.00,3735.548775,N,12221.907446,W,7,,0.38,-27.89,M,0.0,M,0.0,0000*7D
$GPRMC,005558.00,A,3735.548775,N,12221.907446,W,063.5,129.4,150520,,,A*48
$GPGGA,005559.00,3735.537429,N,12221.890387,W,7,,0.38,-28.02,M,0.0,M,0.0,0000*77
$GPRMC,005559.00,A,3735.537429,N,12221.890387,W,063.5,130.1,150520,,,A*43
$GPGGA,005600.00,3735.526263,N,12221.873371,W,7,,0.38,-28.51,M,0.0,M,0.0,0000*72
$GPRMC,005600.00,A,3735.526263,N,12221.873371,W,063.5,130.1,150520,,,A*40
$GPGGA,005601.00,3735.515536,N,12221.855473,W,7,,0.38,-28.61,M,0.0,M,0.0,0000*76
$GPRMC,005601.00,A,3735.515536,N,12221.855473,W,063.5,129.8,150520,,,A*46
$GPGGA,005602.00,3735.503932,N,12221.838703,W,7,,0.38,-28.97,M,0.0,M,0.0,0000*7C
$GPRMC,005602.00,A,3735.503932,N,12221.838703,W,063.7,130.0,150520,,,A*47
$GPGGA,005603.00,3735.492466,N,12221.822060,W,7,,0.38,-29.14,M,0.0,M,0.0,0000*7B
$GPRMC,005603.00,A,3735.492466,N,12221.822060,W,063.8,129.9,150520,,,A*44
$GPGGA,005604.00,3735.481041,N,12221.805176,W,7,,0.38,-29.45,M,0.0,M,0.0,0000*78
$GPRMC,005604.00,A,3735.481041,N,12221.805176,W,064.0,129.7,150520,,,A*42
$GPGGA,005605.00,3735.469954,N,12221.787524,W,7,,0.38,-29.68,M,0.0,M,0.0,0000*7B
$GPRMC,005605.00,A,3735.469954,N,12221.787524,W,064.4,129.6,150520,,,A*4B
$GPGGA,005606.00,3735.458254,N,12221.769703,W,7,,0.38,-29.43,M,0.0,M,0.0,0000*7F
$GPRMC,005606.00,A,3735.458254,N,12221.769703,W,064.8,129.6,150520,,,A*4A
$GPGGA,005607.00,3735.446781,N,12221.752550,W,7,,0.38,-29.36,M,0.0,M,0.0,0000*72
$GPRMC,005607.00,A,3735.446781,N,12221.752550,W,064.9,129.5,150520,,,A*47
$GPGGA,005608.00,3735.435027,N,12221.735462,W,7,,0.38,-28.99,M,0.0,M,0.0,0000*77
$GPRMC,005608.00,A,3735.435027,N,12221.735462,W,065.3,129.6,150520,,,A*4E
$GPGGA,005609.00,3735.423382,N,12221.717947,W,7,,0.38,-28.90,M,0.0,M,0.0,0000*7E
$GPRMC,005609.00,A,3735.423382,N,12221.717947,W,065.5,129.7,150520,,,A*49
$GPGGA,005610.00,3735.411651,N,12221.700337,W,7,,0.38,-29.37,M,0.0,M,0.0,0000*7B
$GPRMC,005610.00,A,3735.411651,N,12221.700337,W,066.1,129.9,150520,,,A*49
$GPGGA,005611.00,3735.399886,N,12221.682710,W,7,,0.38,-29.26,M,0.0,M,0.0,0000*73
$GPRMC,005611.00,A,3735.399886,N,12221.682710,W,066.2,129.1,150520,,,A*4A
$GPGGA,005612.00,3735.388269,N,12221.665123,W,7,,0.38,-29.28,M,0.0,M,0.0,0000*7A
$GPRMC,005612.00,A,3735.388269,N,12221.665123,W,065.8,128.8,150520,,,A*4C
$GPGGA,005613.00,3735.376900,N,12221.648113,W,7,,0.38,-29.80,M,0.0,M,0.0,0000*70
$GPRMC,005613.00,A,3735.376900,N,12221.648113,W,064.8,128.6,150520,,,A*4B
$GPGGA,005614.00,3735.365836,N,12221.630911,W,7,,0.38,-30.12,M,0.0,M,0.0,0000*77
$GPRMC,005614.00,A,3735.365836,N,12221.630911,W,064.0,127.9,150520,,,A*47
$GPGGA,005615.00,3735.355167,N,12221.613326,W,7,,0.38,-29.98,M,0.0,M,0.0,0000*7D
$GPRMC,005615.00,A,3735.355167,N,12221.613326,W,062.9,127.4,150520,,,A*45
$GPGGA,005616.00,3735.345022,N,12221.595565,W,7,,0.38,-29.66,M,0.0,M,0.0,0000*72
$GPRMC,005616.00,A,3735.345022,N,12221.595565,W,061.9,126.2,150520,,,A*4F
$GPGGA,005617.00,3735.334971,N,12221.577769,W,7,,0.38,-30.02,M,0.0,M,0.0,0000*72
$GPRMC,005617.00,A,3735.334971,N,12221.577769,W,061.6,124.4,150520,,,A*4E
$GPGGA,005618.00,3735.326050,N,12221.560382,W,7,,0.38,-28.28,M,0.0,M,0.0,0000*72
$GPRMC,005618.00,A,3735.326050,N,12221.560382,W,061.5,122.0,150520,,,A*4E
$GPGGA,005619.00,3735.317428,N,12221.541835,W,7,,0.38,-27.37,M,0.0,M,0.0,0000*7F
$GPRMC,005619.00,A,3735.317428,N,12221.541835,W,061.3,120.1,150520,,,A*47
$GPGGA,005620.00,3735.309154,N,12221.523932,W,7,,0.38,-27.58,M,0.0,M,0.0,0000*7F
$GPRMC,005620.00,A,3735.309154,N,12221.523932,W,061.2,119.1,150520,,,A*45
$GPGGA,005621.00,3735.300718,N,12221.505404,W,7,,0.38,-27.32,M,0.0,M,0.0,0000*79
$GPRMC,005621.00,A,3735.300718,N,12221.505404,W,061.2,118.3,150520,,,A*4C
$GPGGA,005622.00,3735.292768,N,12221.486269,W,7,,0.38,-27.58,M,0.0,M,0.0,0000*7C
$GPRMC,005622.00,A,3735.292768,N,12221.486269,W,061.1,117.4,150520,,,A*4E
$GPGGA,005623.00,3735.285315,N,12221.467394,W,7,,0.38,-26.66,M,0.0,M,0.0,0000*75
$GPRMC,005623.00,A,3735.285315,N,12221.467394,W,060.9,115.8,150520,,,A*4C
$GPGGA,005624.00,3735.278062,N,12221.447905,W,7,,0.38,-25.69,M,0.0,M,0.0,0000*7F
$GPRMC,005624.00,A,3735.278062,N,12221.447905,W,060.6,114.0,150520,,,A*4C
$GPGGA,005625.00,3735.271557,N,12221.428459,W,7,,0.38,-25.94,M,0.0,M,0.0,0000*7B
$GPRMC,005625.00,A,3735.271557,N,12221.428459,W,060.2,112.2,150520,,,A*4A
$GPGGA,005626.00,3735.265264,N,12221.408299,W,7,,0.38,-25.33,M,0.0,M,0.0,0000*7F
$GPRMC,005626.00,A,3735.265264,N,12221.408299,W,060.4,110.8,150520,,,A*4D
$GPGGA,005627.00,3735.260247,N,12221.388709,W,7,,0.38,-26.85,M,0.0,M,0.0,0000*77
$GPRMC,005627.00,A,3735.260247,N,12221.388709,W,060.4,109.1,150520,,,A*4A
$GPGGA,005628.00,3735.255363,N,12221.368387,W,7,,0.38,-26.84,M,0.0,M,0.0,0000*74
$GPRMC,005628.00,A,3735.255363,N,12221.368387,W,060.3,107.6,150520,,,A*46
$GPGGA,005629.00,3735.250606,N,12221.347898,W,7,,0.38,-26.99,M,0.0,M,0.0,0000*72
$GPRMC,005629.00,A,3735.250606,N,12221.347898,W,060.4,106.2,150520,,,A*4E
$GPGGA,005630.00,3735.245919,N,12221.327618,W,7,,0.38,-27.09,M,0.0,M,0.0,0000*77
$GPRMC,005630.00,A,3735.245919,N,12221.327618,W,060.3,105.1,150520,,,A*44
$GPGGA,005631.00,3735.242032,N,12221.307638,W,7,,0.38,-26.78,M,0.0,M,0.0,0000*76
$GPRMC,005631.00,A,3735.242032,N,12221.307638,W,060.2,103.6,150520,,,A*42
$GPGGA,005632.00,3735.238791,N,12221.286907,W,7,,0.38,-27.13,M,0.0,M,0.0,0000*71
$GPRMC,005632.00,A,3735.238791,N,12221.286907,W,060.3,101.5,150520,,,A*49
$GPGGA,005633.00,3735.235761,N,12221.265848,W,7,,0.38,-27.03,M,0.0,M,0.0,0000*74
$GPRMC,005633.00,A,3735.235761,N,12221.265848,W,060.3,100.2,150520,,,A*4B
$GPGGA,005634.00,3735.233308,N,12221.245136,W,7,,0.38,-27.17,M,0.0,M,0.0,0000*79
$GPRMC,005634.00,A,3735.233308,N,12221.245136,W,057.1,097.1,150520,,,A*49
$GPGGA,005635.00,3735.230877,N,12221.224489,W,7,,0.38,-26.90,M,0.0,M,0.0,0000*70
$GPRMC,005635.00,A,3735.230877,N,12221.224489,W,058.9,098.6,150520,,,A*41
$GPGGA,005636.00,3735.229042,N,12221.203874,W,7,,0.38,-27.16,M,0.0,M,0.0,0000*71
$GPRMC,005636.00,A,3735.229042,N,12221.203874,W,058.7,098.2,150520,,,A*45
$GPGGA,005637.00,3735.227872,N,12221.182946,W,7,,0.38,-27.52,M,0.0,M,0.0,0000*7F
$GPRMC,005637.00,A,3735.227872,N,12221.182946,W,058.7,103.9,150520,,,A*43
$GPGGA,005638.00,3735.227002,N,12221.162354,W,7,,0.38,-27.31,M,0.0,M,0.0,0000*7D
$GPRMC,005638.00,A,3735.227002,N,12221.162354,W,058.9,110.3,150520,,,A*42
$GPGGA,005639.00,3735.226287,N,12221.141570,W,7,,0.38,-27.26,M,0.0,M,0.0,0000*75
$GPRMC,005639.00,A,3735.226287,N,12221.141570,W,059.7,117.4,150520,,,A*43
$GPGGA,005640.00,3735.225447,N,12221.120246,W,7,,0.38,-26.86,M,0.0,M,0.0,0000*7C
$GPRMC,005640.00,A,3735.225447,N,12221.120246,W,060.2,123.2,150520,,,A*4F
$GPGGA,005641.00,3735.225166,N,12221.099023,W,7,,0.38,-26.20,M,0.0,M,0.0,0000*75
$GPRMC,005641.00,A,3735.225166,N,12221.099023,W,060.7,129.0,150520,,,A*47
$GPGGA,005642.00,3735.224734,N,12221.077346,W,7,,0.38,-25.80,M,0.0,M,0.0,0000*7F
$GPRMC,005642.00,A,3735.224734,N,12221.077346,W,061.2,134.4,150520,,,A*48
$GPGGA,005643.00,3735.224182,N,12221.056111,W,7,,0.38,-25.84,M,0.0,M,0.0,0000*72
$GPRMC,005643.00,A,3735.224182,N,12221.056111,W,061.8,091.9,150520,,,A*48
$GPGGA,005644.00,3735.223515,N,12221.034242,W,7,,0.38,-25.83,M,0.0,M,0.0,0000*7E
$GPRMC,005644.00,A,3735.223515,N,12221.034242,W,062.2,091.9,150520,,,A*4A
$GPGGA,005645.00,3735.223065,N,12221.012077,W,7,,0.38,-24.97,M,0.0,M,0.0,0000*79
$GPRMC,005645.00,A,3735.223065,N,12221.012077,W,062.6,091.8,150520,,,A*4C
$GPGGA,005646.00,3735.222574,N,12220.989889,W,7,,0.38,-24.97,M,0.0,M,0.0,0000*7D
$GPRMC,005646.00,A,3735.222574,N,12220.989889,W,063.1,092.0,150520,,,A*45
$GPGGA,005647.00,3735.222345,N,12220.967636,W,7,,0.38,-24.45,M,0.0,M,0.0,0000*7D
$GPRMC,005647.00,A,3735.222345,N,12220.967636,W,063.6,091.7,150520,,,A*49
$GPGGA,005648.00,3735.221685,N,12220.945256,W,7,,0.38,-24.96,M,0.0,M,0.0,0000*74
$GPRMC,005648.00,A,3735.221685,N,12220.945256,W,063.6,091.6,150520,,,A*4F
$GPGGA,005649.00,3735.220948,N,12220.923242,W,7,,0.38,-24.62,M,0.0,M,0.0,0000*74
$GPRMC,005649.00,A,3735.220948,N,12220.923242,W,063.3,091.8,150520,,,A*4F
$GPGGA,005650.00,3735.220113,N,12220.901048,W,7,,0.38,-25.33,M,0.0,M,0.0,0000*77
$GPRMC,005650.00,A,3735.220113,N,12220.901048,W,062.5,092.1,150520,,,A*44
$GPGGA,005651.00,3735.219249,N,12220.879352,W,7,,0.38,-25.16,M,0.0,M,0.0,0000*71
$GPRMC,005651.00,A,3735.219249,N,12220.879352,W,061.7,092.1,150520,,,A*44
$GPGGA,005652.00,3735.218602,N,12220.858273,W,7,,0.38,-24.55,M,0.0,M,0.0,0000*7F
$GPRMC,005652.00,A,3735.218602,N,12220.858273,W,060.6,091.8,150520,,,A*46
$GPGGA,005653.00,3735.218043,N,12220.836985,W,7,,0.38,-25.17,M,0.0,M,0.0,0000*70
$GPRMC,005653.00,A,3735.218043,N,12220.836985,W,060.1,091.8,150520,,,A*49
$GPGGA,005654.00,3735.217425,N,12220.815698,W,7,,0.38,-24.50,M,0.0,M,0.0,0000*7C
$GPRMC,005654.00,A,3735.217425,N,12220.815698,W,060.4,092.0,150520,,,A*49
$GPGGA,005655.00,3735.217228,N,12220.794584,W,7,,0.38,-24.91,M,0.0,M,0.0,0000*73
$GPRMC,005655.00,A,3735.217228,N,12220.794584,W,060.8,092.2,150520,,,A*45
$GPGGA,005656.00,3735.216681,N,12220.773560,W,7,,0.38,-24.53,M,0.0,M,0.0,0000*7B
$GPRMC,005656.00,A,3735.216681,N,12220.773560,W,061.2,092.4,150520,,,A*4E
$GPGGA,005657.00,3735.215817,N,12220.752476,W,7,,0.38,-24.61,M,0.0,M,0.0,0000*7C
$GPRMC,005657.00,A,3735.215817,N,12220.752476,W,061.7,092.5,150520,,,A*4C
$GPGGA,005658.00,3735.215385,N,12220.730828,W,7,,0.38,-24.85,M,0.0,M,0.0,0000*7A
$GPRMC,005658.00,A,3735.215385,N,12220.730828,W,062.0,092.2,150520,,,A*43
$GPGGA,005659.00,3735.214785,N,12220.708814,W,7,,0.38,-24.55,M,0.0,M,0.0,0000*77
$GPRMC,005659.00,A,3735.214785,N,12220.708814,W,062.4,092.1,150520,,,A*44
