<?xml version="1.0" encoding="utf-8"?>
<kml xmlns="http://www.opengis.net/kml/2.2">
   <Document>
      <name>Mi8_chipset.kml</name>
      <Placemark>
         <Snippet maxLines="0"> </Snippet>
         <description> </description>
         <name>Line 1</name>
         <Style>
            <LineStyle>
               <color>80ffffff</color>
            </LineStyle>
         </Style>
         <LineString>
            <coordinates> -122.4256495,37.6265344833333,0 -122.4256493,37.6265347,0 -122.425649183333,37.6265347,0 -122.425649,37.6265349,0 -122.4256491,37.6265349,0 -122.425649,37.6265349833333,0 -122.425648883333,37.6265349833333,0 -122.425648683333,37.6265349,0 -122.4256483,37.6265349,0 -122.4256481,37.6265349,0 -122.425647783333,37.6265349833333,0 -122.4256476,37.6265347,0 -122.425647783333,37.6265345833333,0 -122.425647783333,37.6265344833333,0 -122.4256476,37.6265343,0 -122.4256474,37.6265343,0 -122.425647283333,37.6265342,0 -122.4256471,37.6265339833333,0 -122.4256469,37.6265339833333,0 -122.425646583333,37.6265341,0 -122.425646283333,37.6265342,0 -122.425646283333,37.6265343,0 -122.425646,37.6265342,0 -122.4256459,37.6265342,0 -122.425645783333,37.6265339833333,0 -122.425645783333,37.6265339833333,0 -122.4256455,37.6265337833333,0 -122.4256455,37.6265337833333,0 -122.4256455,37.6265338833333,0 -122.4256455,37.6265337833333,0 -122.425645383333,37.6265338833333,0 -122.425645383333,37.6265338833333,0 -122.4256452,37.6265339833333,0 -122.425645083333,37.6265339833333,0 -122.425645,37.6265341,0 -122.425644883333,37.6265341,0 -122.425644883333,37.6265343,0 -122.425645,37.6265343,0 -122.425645083333,37.6265344833333,0 -122.425645283333,37.6265347,0 -122.425645283333,37.6265347,0 -122.425645283333,37.6265348,0 -122.425645283333,37.6265349,0 -122.4256452,37.6265349,0 -122.4256452,37.6265349833333,0 -122.4256452,37.6265349833333,0 -122.4256452,37.6265350833333,0 -122.4256452,37.6265350833333,0 -122.4256452,37.6265350833333,0 -122.425645283333,37.6265349833333,0 -122.425645083333,37.6265349,0 -122.425645083333,37.6265349833333,0 -122.425645083333,37.6265349833333,0 -122.425644883333,37.6265349833333,0 -122.425645,37.6265349,0 -122.425645083333,37.6265349833333,0 -122.4256452,37.6265349833333,0 -122.425637683333,37.6265355833333,0 -122.4256079,37.6265387833333,0 -122.4255514,37.6265447833333,0 -122.4254791,37.6265545833333,0 -122.425394183333,37.6265643833333,0 -122.425306383333,37.6265724,0 -122.4252175,37.6265860833333,0 -122.425134083333,37.6266035,0 -122.425062483333,37.6266218,0 -122.425002,37.6266389,0 -122.4249575,37.6266518833333,0 -122.4249358,37.6266565833333,0 -122.4249334,37.6266569,0 -122.424933483333,37.6266569,0 -122.4249333,37.6266567833333,0 -122.4249333,37.6266566833333,0 -122.4249331,37.6266565833333,0 -122.4249324,37.6266565,0 -122.4249305,37.6266566833333,0 -122.4249254,37.6266575,0 -122.424910683333,37.6266598833333,0 -122.42489,37.6266616833333,0 -122.4248666,37.6266512833333,0 -122.424839083333,37.6266377833333,0 -122.424812783333,37.6265983833333,0 -122.424779583333,37.6265562833333,0 -122.4247292,37.6264942833333,0 -122.424670183333,37.6264266,0 -122.424619,37.6263608,0 -122.4245815,37.6263069833333,0 -122.4245599,37.626271,0 -122.424547783333,37.6262522,0 -122.424542983333,37.6262390833333,0 -122.424542783333,37.6262359833333,0 -122.4245422,37.6262353833333,0 -122.4245418,37.6262328833333,0 -122.424541083333,37.6262315,0 -122.424539983333,37.6262301,0 -122.4245408,37.6262304833333,0 -122.4245405,37.6262305833333,0 -122.082099083333,37.4167054833333,0 -122.082098783333,37.4167062,0 -122.082098983333,37.416707,0 -122.082099083333,37.4167079833333,0</coordinates>
         </LineString>
      </Placemark>
      <Placemark>
         <Snippet maxLines="0"> </Snippet>
         <description>1, UTC 17:59:11
37.6265345,-122.4256495,EA2.0m
Alt 9.4 m, EA 1.0 m
Vel 0.0,0.0, EA 0.00 m/s</description>
         <Style>
            <IconStyle>
               <Icon>
                  <href>http://maps.google.com/mapfiles/kml/shapes/shaded_dot.png</href>
               </Icon>
               <scale>0.6</scale>
               <color>bfed8548</color>
            </IconStyle>
         </Style>
         <Point>
            <coordinates>-122.4256495,37.6265344833333,0</coordinates>
         </Point>
      </Placemark>
      <Placemark>
         <Snippet maxLines="0"> </Snippet>
         <description>2, UTC 17:59:12
37.6265347,-122.4256493,EA2.0m
Alt 9.4 m, EA 1.0 m
Vel 0.0,0.0, EA 0.00 m/s</description>
         <Style>
            <IconStyle>
               <Icon>
                  <href>http://maps.google.com/mapfiles/kml/shapes/shaded_dot.png</href>
               </Icon>
               <scale>0.6</scale>
               <color>bfed8548</color>
            </IconStyle>
         </Style>
         <Point>
            <coordinates>-122.4256493,37.6265347,0</coordinates>
         </Point>
      </Placemark>
      <Placemark>
         <Snippet maxLines="0"> </Snippet>
         <description>3, UTC 17:59:13
37.6265347,-122.4256492,EA2.0m
Alt 9.5 m, EA 1.0 m
Vel 0.0,0.0, EA 0.00 m/s</description>
         <Style>
            <IconStyle>
               <Icon>
                  <href>http://maps.google.com/mapfiles/kml/shapes/shaded_dot.png</href>
               </Icon>
               <scale>0.6</scale>
               <color>bfed8548</color>
            </IconStyle>
         </Style>
         <Point>
            <coordinates>-122.425649183333,37.6265347,0</coordinates>
         </Point>
      </Placemark>
      <Placemark>
         <Snippet maxLines="0"> </Snippet>
         <description>4, UTC 17:59:14
37.6265349,-122.4256490,EA2.0m
Alt 9.5 m, EA 1.0 m
Vel 0.0,0.0, EA 0.00 m/s</description>
         <Style>
            <IconStyle>
               <Icon>
                  <href>http://maps.google.com/mapfiles/kml/shapes/shaded_dot.png</href>
               </Icon>
               <scale>0.6</scale>
               <color>bfed8548</color>
            </IconStyle>
         </Style>
         <Point>
            <coordinates>-122.425649,37.6265349,0</coordinates>
         </Point>
      </Placemark>
      <Placemark>
         <Snippet maxLines="0"> </Snippet>
         <description>5, UTC 17:59:15
37.6265349,-122.4256491,EA2.0m
Alt 9.6 m, EA 1.0 m
Vel 0.0,0.0, EA 0.00 m/s</description>
         <Style>
            <IconStyle>
               <Icon>
                  <href>http://maps.google.com/mapfiles/kml/shapes/shaded_dot.png</href>
               </Icon>
               <scale>0.6</scale>
               <color>bfed8548</color>
            </IconStyle>
         </Style>
         <Point>
            <coordinates>-122.4256491,37.6265349,0</coordinates>
         </Point>
      </Placemark>
      <Placemark>
         <Snippet maxLines="0"> </Snippet>
         <description>6, UTC 17:59:16
37.6265350,-122.4256490,EA2.0m
Alt 9.6 m, EA 1.0 m
Vel 0.0,0.0, EA 0.00 m/s</description>
         <Style>
            <IconStyle>
               <Icon>
                  <href>http://maps.google.com/mapfiles/kml/shapes/shaded_dot.png</href>
               </Icon>
               <scale>0.6</scale>
               <color>bfed8548</color>
            </IconStyle>
         </Style>
         <Point>
            <coordinates>-122.425649,37.6265349833333,0</coordinates>
         </Point>
      </Placemark>
      <Placemark>
         <Snippet maxLines="0"> </Snippet>
         <description>7, UTC 17:59:17
37.6265350,-122.4256489,EA2.0m
Alt 9.6 m, EA 1.0 m
Vel 0.0,0.0, EA 0.00 m/s</description>
         <Style>
            <IconStyle>
               <Icon>
                  <href>http://maps.google.com/mapfiles/kml/shapes/shaded_dot.png</href>
               </Icon>
               <scale>0.6</scale>
               <color>bfed8548</color>
            </IconStyle>
         </Style>
         <Point>
            <coordinates>-122.425648883333,37.6265349833333,0</coordinates>
         </Point>
      </Placemark>
      <Placemark>
         <Snippet maxLines="0"> </Snippet>
         <description>8, UTC 17:59:18
37.6265349,-122.4256487,EA2.0m
Alt 9.6 m, EA 1.0 m
Vel 0.0,0.0, EA 0.00 m/s</description>
         <Style>
            <IconStyle>
               <Icon>
                  <href>http://maps.google.com/mapfiles/kml/shapes/shaded_dot.png</href>
               </Icon>
               <scale>0.6</scale>
               <color>bfed8548</color>
            </IconStyle>
         </Style>
         <Point>
            <coordinates>-122.425648683333,37.6265349,0</coordinates>
         </Point>
      </Placemark>
      <Placemark>
         <Snippet maxLines="0"> </Snippet>
         <description>9, UTC 17:59:19
37.6265349,-122.4256483,EA2.0m
Alt 9.6 m, EA 1.0 m
Vel 0.0,0.0, EA 0.00 m/s</description>
         <Style>
            <IconStyle>
               <Icon>
                  <href>http://maps.google.com/mapfiles/kml/shapes/shaded_dot.png</href>
               </Icon>
               <scale>0.6</scale>
               <color>bfed8548</color>
            </IconStyle>
         </Style>
         <Point>
            <coordinates>-122.4256483,37.6265349,0</coordinates>
         </Point>
      </Placemark>
      <Placemark>
         <Snippet maxLines="0"> </Snippet>
         <description>10, UTC 17:59:20
37.6265349,-122.4256481,EA2.0m
Alt 9.6 m, EA 1.0 m
Vel 0.0,0.0, EA 0.00 m/s</description>
         <Style>
            <IconStyle>
               <Icon>
                  <href>http://maps.google.com/mapfiles/kml/shapes/shaded_dot.png</href>
               </Icon>
               <scale>0.6</scale>
               <color>bfed8548</color>
            </IconStyle>
         </Style>
         <Point>
            <coordinates>-122.4256481,37.6265349,0</coordinates>
         </Point>
      </Placemark>
      <Placemark>
         <Snippet maxLines="0"> </Snippet>
         <description>11, UTC 17:59:21
37.6265350,-122.4256478,EA2.0m
Alt 9.5 m, EA 1.0 m
Vel 0.0,0.0, EA 0.00 m/s</description>
         <Style>
            <IconStyle>
               <Icon>
                  <href>http://maps.google.com/mapfiles/kml/shapes/shaded_dot.png</href>
               </Icon>
               <scale>0.6</scale>
               <color>bfed8548</color>
            </IconStyle>
         </Style>
         <Point>
            <coordinates>-122.425647783333,37.6265349833333,0</coordinates>
         </Point>
      </Placemark>
      <Placemark>
         <Snippet maxLines="0"> </Snippet>
         <description>12, UTC 17:59:22
37.6265347,-122.4256476,EA2.0m
Alt 9.5 m, EA 1.0 m
Vel 0.0,0.0, EA 0.00 m/s</description>
         <Style>
            <IconStyle>
               <Icon>
                  <href>http://maps.google.com/mapfiles/kml/shapes/shaded_dot.png</href>
               </Icon>
               <scale>0.6</scale>
               <color>bfed8548</color>
            </IconStyle>
         </Style>
         <Point>
            <coordinates>-122.4256476,37.6265347,0</coordinates>
         </Point>
      </Placemark>
      <Placemark>
         <Snippet maxLines="0"> </Snippet>
         <description>13, UTC 17:59:23
37.6265346,-122.4256478,EA2.0m
Alt 9.5 m, EA 1.0 m
Vel 0.0,0.0, EA 0.00 m/s</description>
         <Style>
            <IconStyle>
               <Icon>
                  <href>http://maps.google.com/mapfiles/kml/shapes/shaded_dot.png</href>
               </Icon>
               <scale>0.6</scale>
               <color>bfed8548</color>
            </IconStyle>
         </Style>
         <Point>
            <coordinates>-122.425647783333,37.6265345833333,0</coordinates>
         </Point>
      </Placemark>
      <Placemark>
         <Snippet maxLines="0"> </Snippet>
         <description>14, UTC 17:59:24
37.6265345,-122.4256478,EA1.5m
Alt 9.4 m, EA 1.0 m
Vel 0.0,0.0, EA 0.00 m/s</description>
         <Style>
            <IconStyle>
               <Icon>
                  <href>http://maps.google.com/mapfiles/kml/shapes/shaded_dot.png</href>
               </Icon>
               <scale>0.6</scale>
               <color>bfed8548</color>
            </IconStyle>
         </Style>
         <Point>
            <coordinates>-122.425647783333,37.6265344833333,0</coordinates>
         </Point>
      </Placemark>
      <Placemark>
         <Snippet maxLines="0"> </Snippet>
         <description>15, UTC 17:59:25
37.6265343,-122.4256476,EA1.5m
Alt 9.3 m, EA 1.0 m
Vel 0.0,0.0, EA 0.00 m/s</description>
         <Style>
            <IconStyle>
               <Icon>
                  <href>http://maps.google.com/mapfiles/kml/shapes/shaded_dot.png</href>
               </Icon>
               <scale>0.6</scale>
               <color>bfed8548</color>
            </IconStyle>
         </Style>
         <Point>
            <coordinates>-122.4256476,37.6265343,0</coordinates>
         </Point>
      </Placemark>
      <Placemark>
         <Snippet maxLines="0"> </Snippet>
         <description>16, UTC 17:59:26
37.6265343,-122.4256474,EA1.5m
Alt 9.3 m, EA 1.0 m
Vel 0.0,0.0, EA 0.00 m/s</description>
         <Style>
            <IconStyle>
               <Icon>
                  <href>http://maps.google.com/mapfiles/kml/shapes/shaded_dot.png</href>
               </Icon>
               <scale>0.6</scale>
               <color>bfed8548</color>
            </IconStyle>
         </Style>
         <Point>
            <coordinates>-122.4256474,37.6265343,0</coordinates>
         </Point>
      </Placemark>
      <Placemark>
         <Snippet maxLines="0"> </Snippet>
         <description>17, UTC 17:59:27
37.6265342,-122.4256473,EA1.5m
Alt 9.3 m, EA 1.0 m
Vel 0.0,0.0, EA 0.00 m/s</description>
         <Style>
            <IconStyle>
               <Icon>
                  <href>http://maps.google.com/mapfiles/kml/shapes/shaded_dot.png</href>
               </Icon>
               <scale>0.6</scale>
               <color>bfed8548</color>
            </IconStyle>
         </Style>
         <Point>
            <coordinates>-122.425647283333,37.6265342,0</coordinates>
         </Point>
      </Placemark>
      <Placemark>
         <Snippet maxLines="0"> </Snippet>
         <description>18, UTC 17:59:28
37.6265340,-122.4256471,EA1.5m
Alt 9.3 m, EA 1.0 m
Vel 0.0,0.0, EA 0.00 m/s</description>
         <Style>
            <IconStyle>
               <Icon>
                  <href>http://maps.google.com/mapfiles/kml/shapes/shaded_dot.png</href>
               </Icon>
               <scale>0.6</scale>
               <color>bfed8548</color>
            </IconStyle>
         </Style>
         <Point>
            <coordinates>-122.4256471,37.6265339833333,0</coordinates>
         </Point>
      </Placemark>
      <Placemark>
         <Snippet maxLines="0"> </Snippet>
         <description>19, UTC 17:59:29
37.6265340,-122.4256469,EA1.5m
Alt 9.3 m, EA 1.0 m
Vel 0.0,0.0, EA 0.00 m/s</description>
         <Style>
            <IconStyle>
               <Icon>
                  <href>http://maps.google.com/mapfiles/kml/shapes/shaded_dot.png</href>
               </Icon>
               <scale>0.6</scale>
               <color>bfed8548</color>
            </IconStyle>
         </Style>
         <Point>
            <coordinates>-122.4256469,37.6265339833333,0</coordinates>
         </Point>
      </Placemark>
      <Placemark>
         <Snippet maxLines="0"> </Snippet>
         <description>20, UTC 17:59:30
37.6265341,-122.4256466,EA1.5m
Alt 9.3 m, EA 1.0 m
Vel 0.0,0.0, EA 0.00 m/s</description>
         <Style>
            <IconStyle>
               <Icon>
                  <href>http://maps.google.com/mapfiles/kml/shapes/shaded_dot.png</href>
               </Icon>
               <scale>0.6</scale>
               <color>bfed8548</color>
            </IconStyle>
         </Style>
         <Point>
            <coordinates>-122.425646583333,37.6265341,0</coordinates>
         </Point>
      </Placemark>
      <Placemark>
         <Snippet maxLines="0"> </Snippet>
         <description>21, UTC 17:59:31
37.6265342,-122.4256463,EA1.5m
Alt 9.3 m, EA 1.0 m
Vel 0.0,0.0, EA 0.00 m/s</description>
         <Style>
            <IconStyle>
               <Icon>
                  <href>http://maps.google.com/mapfiles/kml/shapes/shaded_dot.png</href>
               </Icon>
               <scale>0.6</scale>
               <color>bfed8548</color>
            </IconStyle>
         </Style>
         <Point>
            <coordinates>-122.425646283333,37.6265342,0</coordinates>
         </Point>
      </Placemark>
      <Placemark>
         <Snippet maxLines="0"> </Snippet>
         <description>22, UTC 17:59:32
37.6265343,-122.4256463,EA1.5m
Alt 9.3 m, EA 1.0 m
Vel 0.0,0.0, EA 0.00 m/s</description>
         <Style>
            <IconStyle>
               <Icon>
                  <href>http://maps.google.com/mapfiles/kml/shapes/shaded_dot.png</href>
               </Icon>
               <scale>0.6</scale>
               <color>bfed8548</color>
            </IconStyle>
         </Style>
         <Point>
            <coordinates>-122.425646283333,37.6265343,0</coordinates>
         </Point>
      </Placemark>
      <Placemark>
         <Snippet maxLines="0"> </Snippet>
         <description>23, UTC 17:59:33
37.6265342,-122.4256460,EA1.5m
Alt 9.3 m, EA 1.0 m
Vel 0.0,0.0, EA 0.00 m/s</description>
         <Style>
            <IconStyle>
               <Icon>
                  <href>http://maps.google.com/mapfiles/kml/shapes/shaded_dot.png</href>
               </Icon>
               <scale>0.6</scale>
               <color>bfed8548</color>
            </IconStyle>
         </Style>
         <Point>
            <coordinates>-122.425646,37.6265342,0</coordinates>
         </Point>
      </Placemark>
      <Placemark>
         <Snippet maxLines="0"> </Snippet>
         <description>24, UTC 17:59:34
37.6265342,-122.4256459,EA1.5m
Alt 9.3 m, EA 1.0 m
Vel 0.0,0.0, EA 0.00 m/s</description>
         <Style>
            <IconStyle>
               <Icon>
                  <href>http://maps.google.com/mapfiles/kml/shapes/shaded_dot.png</href>
               </Icon>
               <scale>0.6</scale>
               <color>bfed8548</color>
            </IconStyle>
         </Style>
         <Point>
            <coordinates>-122.4256459,37.6265342,0</coordinates>
         </Point>
      </Placemark>
      <Placemark>
         <Snippet maxLines="0"> </Snippet>
         <description>25, UTC 17:59:35
37.6265340,-122.4256458,EA1.5m
Alt 9.3 m, EA 1.0 m
Vel 0.0,0.0, EA 0.00 m/s</description>
         <Style>
            <IconStyle>
               <Icon>
                  <href>http://maps.google.com/mapfiles/kml/shapes/shaded_dot.png</href>
               </Icon>
               <scale>0.6</scale>
               <color>bfed8548</color>
            </IconStyle>
         </Style>
         <Point>
            <coordinates>-122.425645783333,37.6265339833333,0</coordinates>
         </Point>
      </Placemark>
      <Placemark>
         <Snippet maxLines="0"> </Snippet>
         <description>26, UTC 17:59:36
37.6265340,-122.4256458,EA1.5m
Alt 9.3 m, EA 1.0 m
Vel 0.0,0.0, EA 0.00 m/s</description>
         <Style>
            <IconStyle>
               <Icon>
                  <href>http://maps.google.com/mapfiles/kml/shapes/shaded_dot.png</href>
               </Icon>
               <scale>0.6</scale>
               <color>bfed8548</color>
            </IconStyle>
         </Style>
         <Point>
            <coordinates>-122.425645783333,37.6265339833333,0</coordinates>
         </Point>
      </Placemark>
      <Placemark>
         <Snippet maxLines="0"> </Snippet>
         <description>27, UTC 17:59:37
37.6265338,-122.4256455,EA1.5m
Alt 9.3 m, EA 1.0 m
Vel 0.0,0.0, EA 0.00 m/s</description>
         <Style>
            <IconStyle>
               <Icon>
                  <href>http://maps.google.com/mapfiles/kml/shapes/shaded_dot.png</href>
               </Icon>
               <scale>0.6</scale>
               <color>bfed8548</color>
            </IconStyle>
         </Style>
         <Point>
            <coordinates>-122.4256455,37.6265337833333,0</coordinates>
         </Point>
      </Placemark>
      <Placemark>
         <Snippet maxLines="0"> </Snippet>
         <description>28, UTC 17:59:38
37.6265338,-122.4256455,EA1.5m
Alt 9.3 m, EA 1.0 m
Vel 0.0,0.0, EA 0.00 m/s</description>
         <Style>
            <IconStyle>
               <Icon>
                  <href>http://maps.google.com/mapfiles/kml/shapes/shaded_dot.png</href>
               </Icon>
               <scale>0.6</scale>
               <color>bfed8548</color>
            </IconStyle>
         </Style>
         <Point>
            <coordinates>-122.4256455,37.6265337833333,0</coordinates>
         </Point>
      </Placemark>
      <Placemark>
         <Snippet maxLines="0"> </Snippet>
         <description>29, UTC 17:59:39
37.6265339,-122.4256455,EA1.5m
Alt 9.4 m, EA 1.0 m
Vel 0.0,0.0, EA 0.00 m/s</description>
         <Style>
            <IconStyle>
               <Icon>
                  <href>http://maps.google.com/mapfiles/kml/shapes/shaded_dot.png</href>
               </Icon>
               <scale>0.6</scale>
               <color>bfed8548</color>
            </IconStyle>
         </Style>
         <Point>
            <coordinates>-122.4256455,37.6265338833333,0</coordinates>
         </Point>
      </Placemark>
      <Placemark>
         <Snippet maxLines="0"> </Snippet>
         <description>30, UTC 17:59:40
37.6265338,-122.4256455,EA1.5m
Alt 9.4 m, EA 1.0 m
Vel 0.0,0.0, EA 0.00 m/s</description>
         <Style>
            <IconStyle>
               <Icon>
                  <href>http://maps.google.com/mapfiles/kml/shapes/shaded_dot.png</href>
               </Icon>
               <scale>0.6</scale>
               <color>bfed8548</color>
            </IconStyle>
         </Style>
         <Point>
            <coordinates>-122.4256455,37.6265337833333,0</coordinates>
         </Point>
      </Placemark>
      <Placemark>
         <Snippet maxLines="0"> </Snippet>
         <description>31, UTC 17:59:41
37.6265339,-122.4256454,EA1.5m
Alt 9.4 m, EA 1.0 m
Vel 0.0,0.0, EA 0.00 m/s</description>
         <Style>
            <IconStyle>
               <Icon>
                  <href>http://maps.google.com/mapfiles/kml/shapes/shaded_dot.png</href>
               </Icon>
               <scale>0.6</scale>
               <color>bfed8548</color>
            </IconStyle>
         </Style>
         <Point>
            <coordinates>-122.425645383333,37.6265338833333,0</coordinates>
         </Point>
      </Placemark>
      <Placemark>
         <Snippet maxLines="0"> </Snippet>
         <description>32, UTC 17:59:42
37.6265339,-122.4256454,EA1.5m
Alt 9.4 m, EA 1.0 m
Vel 0.0,0.0, EA 0.00 m/s</description>
         <Style>
            <IconStyle>
               <Icon>
                  <href>http://maps.google.com/mapfiles/kml/shapes/shaded_dot.png</href>
               </Icon>
               <scale>0.6</scale>
               <color>bfed8548</color>
            </IconStyle>
         </Style>
         <Point>
            <coordinates>-122.425645383333,37.6265338833333,0</coordinates>
         </Point>
      </Placemark>
      <Placemark>
         <Snippet maxLines="0"> </Snippet>
         <description>33, UTC 17:59:43
37.6265340,-122.4256452,EA1.5m
Alt 9.4 m, EA 1.0 m
Vel 0.0,0.0, EA 0.00 m/s</description>
         <Style>
            <IconStyle>
               <Icon>
                  <href>http://maps.google.com/mapfiles/kml/shapes/shaded_dot.png</href>
               </Icon>
               <scale>0.6</scale>
               <color>bfed8548</color>
            </IconStyle>
         </Style>
         <Point>
            <coordinates>-122.4256452,37.6265339833333,0</coordinates>
         </Point>
      </Placemark>
      <Placemark>
         <Snippet maxLines="0"> </Snippet>
         <description>34, UTC 17:59:44
37.6265340,-122.4256451,EA1.5m
Alt 9.4 m, EA 1.0 m
Vel 0.0,0.0, EA 0.00 m/s</description>
         <Style>
            <IconStyle>
               <Icon>
                  <href>http://maps.google.com/mapfiles/kml/shapes/shaded_dot.png</href>
               </Icon>
               <scale>0.6</scale>
               <color>bfed8548</color>
            </IconStyle>
         </Style>
         <Point>
            <coordinates>-122.425645083333,37.6265339833333,0</coordinates>
         </Point>
      </Placemark>
      <Placemark>
         <Snippet maxLines="0"> </Snippet>
         <description>35, UTC 17:59:45
37.6265341,-122.4256450,EA1.5m
Alt 9.4 m, EA 1.0 m
Vel 0.0,0.0, EA 0.00 m/s</description>
         <Style>
            <IconStyle>
               <Icon>
                  <href>http://maps.google.com/mapfiles/kml/shapes/shaded_dot.png</href>
               </Icon>
               <scale>0.6</scale>
               <color>bfed8548</color>
            </IconStyle>
         </Style>
         <Point>
            <coordinates>-122.425645,37.6265341,0</coordinates>
         </Point>
      </Placemark>
      <Placemark>
         <Snippet maxLines="0"> </Snippet>
         <description>36, UTC 17:59:46
37.6265341,-122.4256449,EA1.5m
Alt 9.4 m, EA 1.0 m
Vel 0.0,0.0, EA 0.00 m/s</description>
         <Style>
            <IconStyle>
               <Icon>
                  <href>http://maps.google.com/mapfiles/kml/shapes/shaded_dot.png</href>
               </Icon>
               <scale>0.6</scale>
               <color>bfed8548</color>
            </IconStyle>
         </Style>
         <Point>
            <coordinates>-122.425644883333,37.6265341,0</coordinates>
         </Point>
      </Placemark>
      <Placemark>
         <Snippet maxLines="0"> </Snippet>
         <description>37, UTC 17:59:47
37.6265343,-122.4256449,EA1.5m
Alt 9.4 m, EA 1.0 m
Vel 0.0,0.0, EA 0.00 m/s</description>
         <Style>
            <IconStyle>
               <Icon>
                  <href>http://maps.google.com/mapfiles/kml/shapes/shaded_dot.png</href>
               </Icon>
               <scale>0.6</scale>
               <color>bfed8548</color>
            </IconStyle>
         </Style>
         <Point>
            <coordinates>-122.425644883333,37.6265343,0</coordinates>
         </Point>
      </Placemark>
      <Placemark>
         <Snippet maxLines="0"> </Snippet>
         <description>38, UTC 17:59:48
37.6265343,-122.4256450,EA1.5m
Alt 9.3 m, EA 1.0 m
Vel 0.0,0.0, EA 0.00 m/s</description>
         <Style>
            <IconStyle>
               <Icon>
                  <href>http://maps.google.com/mapfiles/kml/shapes/shaded_dot.png</href>
               </Icon>
               <scale>0.6</scale>
               <color>bfed8548</color>
            </IconStyle>
         </Style>
         <Point>
            <coordinates>-122.425645,37.6265343,0</coordinates>
         </Point>
      </Placemark>
      <Placemark>
         <Snippet maxLines="0"> </Snippet>
         <description>39, UTC 17:59:49
37.6265345,-122.4256451,EA1.5m
Alt 9.3 m, EA 1.0 m
Vel 0.0,0.0, EA 0.00 m/s</description>
         <Style>
            <IconStyle>
               <Icon>
                  <href>http://maps.google.com/mapfiles/kml/shapes/shaded_dot.png</href>
               </Icon>
               <scale>0.6</scale>
               <color>bfed8548</color>
            </IconStyle>
         </Style>
         <Point>
            <coordinates>-122.425645083333,37.6265344833333,0</coordinates>
         </Point>
      </Placemark>
      <Placemark>
         <Snippet maxLines="0"> </Snippet>
         <description>40, UTC 17:59:50
37.6265347,-122.4256453,EA1.5m
Alt 9.3 m, EA 1.0 m
Vel 0.0,0.0, EA 0.00 m/s</description>
         <Style>
            <IconStyle>
               <Icon>
                  <href>http://maps.google.com/mapfiles/kml/shapes/shaded_dot.png</href>
               </Icon>
               <scale>0.6</scale>
               <color>bfed8548</color>
            </IconStyle>
         </Style>
         <Point>
            <coordinates>-122.425645283333,37.6265347,0</coordinates>
         </Point>
      </Placemark>
      <Placemark>
         <Snippet maxLines="0"> </Snippet>
         <description>41, UTC 17:59:51
37.6265347,-122.4256453,EA1.5m
Alt 9.3 m, EA 1.0 m
Vel 0.0,0.0, EA 0.00 m/s</description>
         <Style>
            <IconStyle>
               <Icon>
                  <href>http://maps.google.com/mapfiles/kml/shapes/shaded_dot.png</href>
               </Icon>
               <scale>0.6</scale>
               <color>bfed8548</color>
            </IconStyle>
         </Style>
         <Point>
            <coordinates>-122.425645283333,37.6265347,0</coordinates>
         </Point>
      </Placemark>
      <Placemark>
         <Snippet maxLines="0"> </Snippet>
         <description>42, UTC 17:59:52
37.6265348,-122.4256453,EA1.5m
Alt 9.2 m, EA 1.0 m
Vel 0.0,0.0, EA 0.00 m/s</description>
         <Style>
            <IconStyle>
               <Icon>
                  <href>http://maps.google.com/mapfiles/kml/shapes/shaded_dot.png</href>
               </Icon>
               <scale>0.6</scale>
               <color>bfed8548</color>
            </IconStyle>
         </Style>
         <Point>
            <coordinates>-122.425645283333,37.6265348,0</coordinates>
         </Point>
      </Placemark>
      <Placemark>
         <Snippet maxLines="0"> </Snippet>
         <description>43, UTC 17:59:53
37.6265349,-122.4256453,EA1.5m
Alt 9.2 m, EA 1.0 m
Vel 0.0,0.0, EA 0.00 m/s</description>
         <Style>
            <IconStyle>
               <Icon>
                  <href>http://maps.google.com/mapfiles/kml/shapes/shaded_dot.png</href>
               </Icon>
               <scale>0.6</scale>
               <color>bfed8548</color>
            </IconStyle>
         </Style>
         <Point>
            <coordinates>-122.425645283333,37.6265349,0</coordinates>
         </Point>
      </Placemark>
      <Placemark>
         <Snippet maxLines="0"> </Snippet>
         <description>44, UTC 17:59:54
37.6265349,-122.4256452,EA1.5m
Alt 9.2 m, EA 1.0 m
Vel 0.0,0.0, EA 0.00 m/s</description>
         <Style>
            <IconStyle>
               <Icon>
                  <href>http://maps.google.com/mapfiles/kml/shapes/shaded_dot.png</href>
               </Icon>
               <scale>0.6</scale>
               <color>bfed8548</color>
            </IconStyle>
         </Style>
         <Point>
            <coordinates>-122.4256452,37.6265349,0</coordinates>
         </Point>
      </Placemark>
      <Placemark>
         <Snippet maxLines="0"> </Snippet>
         <description>45, UTC 17:59:55
37.6265350,-122.4256452,EA1.5m
Alt 9.1 m, EA 1.0 m
Vel 0.0,0.0, EA 0.00 m/s</description>
         <Style>
            <IconStyle>
               <Icon>
                  <href>http://maps.google.com/mapfiles/kml/shapes/shaded_dot.png</href>
               </Icon>
               <scale>0.6</scale>
               <color>bfed8548</color>
            </IconStyle>
         </Style>
         <Point>
            <coordinates>-122.4256452,37.6265349833333,0</coordinates>
         </Point>
      </Placemark>
      <Placemark>
         <Snippet maxLines="0"> </Snippet>
         <description>46, UTC 17:59:56
37.6265350,-122.4256452,EA1.5m
Alt 9.1 m, EA 1.0 m
Vel 0.0,0.0, EA 0.00 m/s</description>
         <Style>
            <IconStyle>
               <Icon>
                  <href>http://maps.google.com/mapfiles/kml/shapes/shaded_dot.png</href>
               </Icon>
               <scale>0.6</scale>
               <color>bfed8548</color>
            </IconStyle>
         </Style>
         <Point>
            <coordinates>-122.4256452,37.6265349833333,0</coordinates>
         </Point>
      </Placemark>
      <Placemark>
         <Snippet maxLines="0"> </Snippet>
         <description>47, UTC 17:59:57
37.6265351,-122.4256452,EA1.5m
Alt 9.1 m, EA 1.0 m
Vel 0.0,0.0, EA 0.00 m/s</description>
         <Style>
            <IconStyle>
               <Icon>
                  <href>http://maps.google.com/mapfiles/kml/shapes/shaded_dot.png</href>
               </Icon>
               <scale>0.6</scale>
               <color>bfed8548</color>
            </IconStyle>
         </Style>
         <Point>
            <coordinates>-122.4256452,37.6265350833333,0</coordinates>
         </Point>
      </Placemark>
      <Placemark>
         <Snippet maxLines="0"> </Snippet>
         <description>48, UTC 17:59:58
37.6265351,-122.4256452,EA1.5m
Alt 9.1 m, EA 1.0 m
Vel 0.0,0.0, EA 0.00 m/s</description>
         <Style>
            <IconStyle>
               <Icon>
                  <href>http://maps.google.com/mapfiles/kml/shapes/shaded_dot.png</href>
               </Icon>
               <scale>0.6</scale>
               <color>bfed8548</color>
            </IconStyle>
         </Style>
         <Point>
            <coordinates>-122.4256452,37.6265350833333,0</coordinates>
         </Point>
      </Placemark>
      <Placemark>
         <Snippet maxLines="0"> </Snippet>
         <description>49, UTC 17:59:59
37.6265351,-122.4256452,EA1.5m
Alt 9.1 m, EA 1.0 m
Vel 0.0,0.0, EA 0.00 m/s</description>
         <Style>
            <IconStyle>
               <Icon>
                  <href>http://maps.google.com/mapfiles/kml/shapes/shaded_dot.png</href>
               </Icon>
               <scale>0.6</scale>
               <color>bfed8548</color>
            </IconStyle>
         </Style>
         <Point>
            <coordinates>-122.4256452,37.6265350833333,0</coordinates>
         </Point>
      </Placemark>
      <Placemark>
         <Snippet maxLines="0"> </Snippet>
         <description>50, UTC 18:00:00
37.6265350,-122.4256453,EA1.5m
Alt 9.1 m, EA 1.0 m
Vel 0.0,0.0, EA 0.00 m/s</description>
         <Style>
            <IconStyle>
               <Icon>
                  <href>http://maps.google.com/mapfiles/kml/shapes/shaded_dot.png</href>
               </Icon>
               <scale>0.6</scale>
               <color>bfed8548</color>
            </IconStyle>
         </Style>
         <Point>
            <coordinates>-122.425645283333,37.6265349833333,0</coordinates>
         </Point>
      </Placemark>
      <Placemark>
         <Snippet maxLines="0"> </Snippet>
         <description>51, UTC 18:00:01
37.6265349,-122.4256451,EA1.5m
Alt 9.1 m, EA 1.0 m
Vel 0.0,0.0, EA 0.00 m/s</description>
         <Style>
            <IconStyle>
               <Icon>
                  <href>http://maps.google.com/mapfiles/kml/shapes/shaded_dot.png</href>
               </Icon>
               <scale>0.6</scale>
               <color>bfed8548</color>
            </IconStyle>
         </Style>
         <Point>
            <coordinates>-122.425645083333,37.6265349,0</coordinates>
         </Point>
      </Placemark>
      <Placemark>
         <Snippet maxLines="0"> </Snippet>
         <description>52, UTC 18:00:02
37.6265350,-122.4256451,EA1.5m
Alt 9.1 m, EA 1.0 m
Vel 0.0,0.0, EA 0.00 m/s</description>
         <Style>
            <IconStyle>
               <Icon>
                  <href>http://maps.google.com/mapfiles/kml/shapes/shaded_dot.png</href>
               </Icon>
               <scale>0.6</scale>
               <color>bfed8548</color>
            </IconStyle>
         </Style>
         <Point>
            <coordinates>-122.425645083333,37.6265349833333,0</coordinates>
         </Point>
      </Placemark>
      <Placemark>
         <Snippet maxLines="0"> </Snippet>
         <description>53, UTC 18:00:03
37.6265350,-122.4256451,EA1.5m
Alt 9.1 m, EA 1.0 m
Vel 0.0,0.0, EA 0.00 m/s</description>
         <Style>
            <IconStyle>
               <Icon>
                  <href>http://maps.google.com/mapfiles/kml/shapes/shaded_dot.png</href>
               </Icon>
               <scale>0.6</scale>
               <color>bfed8548</color>
            </IconStyle>
         </Style>
         <Point>
            <coordinates>-122.425645083333,37.6265349833333,0</coordinates>
         </Point>
      </Placemark>
      <Placemark>
         <Snippet maxLines="0"> </Snippet>
         <description>54, UTC 18:00:04
37.6265350,-122.4256449,EA1.5m
Alt 9.1 m, EA 1.0 m
Vel 0.0,0.0, EA 0.00 m/s</description>
         <Style>
            <IconStyle>
               <Icon>
                  <href>http://maps.google.com/mapfiles/kml/shapes/shaded_dot.png</href>
               </Icon>
               <scale>0.6</scale>
               <color>bfed8548</color>
            </IconStyle>
         </Style>
         <Point>
            <coordinates>-122.425644883333,37.6265349833333,0</coordinates>
         </Point>
      </Placemark>
      <Placemark>
         <Snippet maxLines="0"> </Snippet>
         <description>55, UTC 18:00:05
37.6265349,-122.4256450,EA1.5m
Alt 9.2 m, EA 1.0 m
Vel 0.0,0.0, EA 0.00 m/s</description>
         <Style>
            <IconStyle>
               <Icon>
                  <href>http://maps.google.com/mapfiles/kml/shapes/shaded_dot.png</href>
               </Icon>
               <scale>0.6</scale>
               <color>bfed8548</color>
            </IconStyle>
         </Style>
         <Point>
            <coordinates>-122.425645,37.6265349,0</coordinates>
         </Point>
      </Placemark>
      <Placemark>
         <Snippet maxLines="0"> </Snippet>
         <description>56, UTC 18:00:06
37.6265350,-122.4256451,EA1.5m
Alt 9.2 m, EA 1.0 m
Vel 0.0,0.0, EA 0.00 m/s</description>
         <Style>
            <IconStyle>
               <Icon>
                  <href>http://maps.google.com/mapfiles/kml/shapes/shaded_dot.png</href>
               </Icon>
               <scale>0.6</scale>
               <color>bfed8548</color>
            </IconStyle>
         </Style>
         <Point>
            <coordinates>-122.425645083333,37.6265349833333,0</coordinates>
         </Point>
      </Placemark>
      <Placemark>
         <Snippet maxLines="0"> </Snippet>
         <description>57, UTC 18:00:07
37.6265350,-122.4256452,EA1.5m
Alt 9.2 m, EA 1.0 m
Vel 0.0,0.0, EA 0.00 m/s</description>
         <Style>
            <IconStyle>
               <Icon>
                  <href>http://maps.google.com/mapfiles/kml/shapes/shaded_dot.png</href>
               </Icon>
               <scale>0.6</scale>
               <color>bfed8548</color>
            </IconStyle>
         </Style>
         <Point>
            <coordinates>-122.4256452,37.6265349833333,0</coordinates>
         </Point>
      </Placemark>
      <Placemark>
         <Snippet maxLines="0"> </Snippet>
         <description>58, UTC 18:00:08
37.6265356,-122.4256377,EA1.5m
Alt 9.2 m, EA 1.0 m
Vel 0.1,0.7, EA 0.00 m/s</description>
         <Style>
            <IconStyle>
               <Icon>
                  <href>http://maps.google.com/mapfiles/kml/shapes/shaded_dot.png</href>
               </Icon>
               <scale>0.6</scale>
               <color>bfed8548</color>
            </IconStyle>
         </Style>
         <Point>
            <coordinates>-122.425637683333,37.6265355833333,0</coordinates>
         </Point>
      </Placemark>
      <Placemark>
         <Snippet maxLines="0"> </Snippet>
         <description>59, UTC 18:00:09
37.6265388,-122.4256079,EA4.0m
Alt 9.1 m, EA 1.0 m
Vel 0.4,2.7, EA 0.00 m/s</description>
         <Style>
            <IconStyle>
               <Icon>
                  <href>http://maps.google.com/mapfiles/kml/shapes/shaded_dot.png</href>
               </Icon>
               <scale>0.6</scale>
               <color>bfed8548</color>
            </IconStyle>
         </Style>
         <Point>
            <coordinates>-122.4256079,37.6265387833333,0</coordinates>
         </Point>
      </Placemark>
      <Placemark>
         <Snippet maxLines="0"> </Snippet>
         <description>60, UTC 18:00:10
37.6265448,-122.4255514,EA4.0m
Alt 9.0 m, EA 1.0 m
Vel 0.7,5.0, EA 0.00 m/s</description>
         <Style>
            <IconStyle>
               <Icon>
                  <href>http://maps.google.com/mapfiles/kml/shapes/shaded_dot.png</href>
               </Icon>
               <scale>0.6</scale>
               <color>bfed8548</color>
            </IconStyle>
         </Style>
         <Point>
            <coordinates>-122.4255514,37.6265447833333,0</coordinates>
         </Point>
      </Placemark>
      <Placemark>
         <Snippet maxLines="0"> </Snippet>
         <description>61, UTC 18:00:11
37.6265546,-122.4254791,EA4.0m
Alt 8.8 m, EA 1.0 m
Vel 1.1,6.4, EA 0.00 m/s</description>
         <Style>
            <IconStyle>
               <Icon>
                  <href>http://maps.google.com/mapfiles/kml/shapes/shaded_dot.png</href>
               </Icon>
               <scale>0.6</scale>
               <color>bfed8548</color>
            </IconStyle>
         </Style>
         <Point>
            <coordinates>-122.4254791,37.6265545833333,0</coordinates>
         </Point>
      </Placemark>
      <Placemark>
         <Snippet maxLines="0"> </Snippet>
         <description>62, UTC 18:00:12
37.6265644,-122.4253942,EA4.0m
Alt 8.6 m, EA 1.0 m
Vel 1.1,7.5, EA 0.00 m/s</description>
         <Style>
            <IconStyle>
               <Icon>
                  <href>http://maps.google.com/mapfiles/kml/shapes/shaded_dot.png</href>
               </Icon>
               <scale>0.6</scale>
               <color>bfed8548</color>
            </IconStyle>
         </Style>
         <Point>
            <coordinates>-122.425394183333,37.6265643833333,0</coordinates>
         </Point>
      </Placemark>
      <Placemark>
         <Snippet maxLines="0"> </Snippet>
         <description>63, UTC 18:00:13
37.6265724,-122.4253064,EA1.5m
Alt 8.2 m, EA 1.0 m
Vel 0.9,7.7, EA 0.00 m/s</description>
         <Style>
            <IconStyle>
               <Icon>
                  <href>http://maps.google.com/mapfiles/kml/shapes/shaded_dot.png</href>
               </Icon>
               <scale>0.6</scale>
               <color>bfed8548</color>
            </IconStyle>
         </Style>
         <Point>
            <coordinates>-122.425306383333,37.6265724,0</coordinates>
         </Point>
      </Placemark>
      <Placemark>
         <Snippet maxLines="0"> </Snippet>
         <description>64, UTC 18:00:14
37.6265861,-122.4252175,EA0.5m
Alt 8.0 m, EA 1.0 m
Vel 1.5,7.8, EA 0.00 m/s</description>
         <Style>
            <IconStyle>
               <Icon>
                  <href>http://maps.google.com/mapfiles/kml/shapes/shaded_dot.png</href>
               </Icon>
               <scale>0.6</scale>
               <color>bfed8548</color>
            </IconStyle>
         </Style>
         <Point>
            <coordinates>-122.4252175,37.6265860833333,0</coordinates>
         </Point>
      </Placemark>
      <Placemark>
         <Snippet maxLines="0"> </Snippet>
         <description>65, UTC 18:00:15
37.6266035,-122.4251341,EA0.5m
Alt 7.7 m, EA 1.0 m
Vel 1.9,7.3, EA 0.00 m/s</description>
         <Style>
            <IconStyle>
               <Icon>
                  <href>http://maps.google.com/mapfiles/kml/shapes/shaded_dot.png</href>
               </Icon>
               <scale>0.6</scale>
               <color>bfed8548</color>
            </IconStyle>
         </Style>
         <Point>
            <coordinates>-122.425134083333,37.6266035,0</coordinates>
         </Point>
      </Placemark>
      <Placemark>
         <Snippet maxLines="0"> </Snippet>
         <description>66, UTC 18:00:16
37.6266218,-122.4250625,EA1.5m
Alt 7.5 m, EA 1.0 m
Vel 2.0,6.3, EA 0.00 m/s</description>
         <Style>
            <IconStyle>
               <Icon>
                  <href>http://maps.google.com/mapfiles/kml/shapes/shaded_dot.png</href>
               </Icon>
               <scale>0.6</scale>
               <color>bfed8548</color>
            </IconStyle>
         </Style>
         <Point>
            <coordinates>-122.425062483333,37.6266218,0</coordinates>
         </Point>
      </Placemark>
      <Placemark>
         <Snippet maxLines="0"> </Snippet>
         <description>67, UTC 18:00:17
37.6266389,-122.4250020,EA0.5m
Alt 7.3 m, EA 1.0 m
Vel 1.9,5.3, EA 0.00 m/s</description>
         <Style>
            <IconStyle>
               <Icon>
                  <href>http://maps.google.com/mapfiles/kml/shapes/shaded_dot.png</href>
               </Icon>
               <scale>0.6</scale>
               <color>bfed8548</color>
            </IconStyle>
         </Style>
         <Point>
            <coordinates>-122.425002,37.6266389,0</coordinates>
         </Point>
      </Placemark>
      <Placemark>
         <Snippet maxLines="0"> </Snippet>
         <description>68, UTC 18:00:18
37.6266519,-122.4249575,EA0.5m
Alt 7.3 m, EA 1.0 m
Vel 1.4,3.9, EA 0.00 m/s</description>
         <Style>
            <IconStyle>
               <Icon>
                  <href>http://maps.google.com/mapfiles/kml/shapes/shaded_dot.png</href>
               </Icon>
               <scale>0.6</scale>
               <color>bfed8548</color>
            </IconStyle>
         </Style>
         <Point>
            <coordinates>-122.4249575,37.6266518833333,0</coordinates>
         </Point>
      </Placemark>
      <Placemark>
         <Snippet maxLines="0"> </Snippet>
         <description>69, UTC 18:00:19
37.6266566,-122.4249358,EA0.5m
Alt 7.3 m, EA 1.0 m
Vel 0.5,1.9, EA 0.00 m/s</description>
         <Style>
            <IconStyle>
               <Icon>
                  <href>http://maps.google.com/mapfiles/kml/shapes/shaded_dot.png</href>
               </Icon>
               <scale>0.6</scale>
               <color>bfed8548</color>
            </IconStyle>
         </Style>
         <Point>
            <coordinates>-122.4249358,37.6266565833333,0</coordinates>
         </Point>
      </Placemark>
      <Placemark>
         <Snippet maxLines="0"> </Snippet>
         <description>70, UTC 18:00:20
37.6266569,-122.4249334,EA0.5m
Alt 7.3 m, EA 1.0 m
Vel 0.1,0.2, EA 0.00 m/s</description>
         <Style>
            <IconStyle>
               <Icon>
                  <href>http://maps.google.com/mapfiles/kml/shapes/shaded_dot.png</href>
               </Icon>
               <scale>0.6</scale>
               <color>bfed8548</color>
            </IconStyle>
         </Style>
         <Point>
            <coordinates>-122.4249334,37.6266569,0</coordinates>
         </Point>
      </Placemark>
      <Placemark>
         <Snippet maxLines="0"> </Snippet>
         <description>71, UTC 18:00:21
37.6266569,-122.4249335,EA0.5m
Alt 7.3 m, EA 1.0 m
Vel 0.0,0.0, EA 0.00 m/s</description>
         <Style>
            <IconStyle>
               <Icon>
                  <href>http://maps.google.com/mapfiles/kml/shapes/shaded_dot.png</href>
               </Icon>
               <scale>0.6</scale>
               <color>bfed8548</color>
            </IconStyle>
         </Style>
         <Point>
            <coordinates>-122.424933483333,37.6266569,0</coordinates>
         </Point>
      </Placemark>
      <Placemark>
         <Snippet maxLines="0"> </Snippet>
         <description>72, UTC 18:00:22
37.6266568,-122.4249333,EA0.5m
Alt 7.3 m, EA 1.0 m
Vel 0.0,0.0, EA 0.00 m/s</description>
         <Style>
            <IconStyle>
               <Icon>
                  <href>http://maps.google.com/mapfiles/kml/shapes/shaded_dot.png</href>
               </Icon>
               <scale>0.6</scale>
               <color>bfed8548</color>
            </IconStyle>
         </Style>
         <Point>
            <coordinates>-122.4249333,37.6266567833333,0</coordinates>
         </Point>
      </Placemark>
      <Placemark>
         <Snippet maxLines="0"> </Snippet>
         <description>73, UTC 18:00:23
37.6266567,-122.4249333,EA1.5m
Alt 7.3 m, EA 1.0 m
Vel 0.0,0.0, EA 0.00 m/s</description>
         <Style>
            <IconStyle>
               <Icon>
                  <href>http://maps.google.com/mapfiles/kml/shapes/shaded_dot.png</href>
               </Icon>
               <scale>0.6</scale>
               <color>bfed8548</color>
            </IconStyle>
         </Style>
         <Point>
            <coordinates>-122.4249333,37.6266566833333,0</coordinates>
         </Point>
      </Placemark>
      <Placemark>
         <Snippet maxLines="0"> </Snippet>
         <description>74, UTC 18:00:24
37.6266566,-122.4249331,EA0.5m
Alt 7.3 m, EA 1.0 m
Vel 0.0,0.0, EA 0.00 m/s</description>
         <Style>
            <IconStyle>
               <Icon>
                  <href>http://maps.google.com/mapfiles/kml/shapes/shaded_dot.png</href>
               </Icon>
               <scale>0.6</scale>
               <color>bfed8548</color>
            </IconStyle>
         </Style>
         <Point>
            <coordinates>-122.4249331,37.6266565833333,0</coordinates>
         </Point>
      </Placemark>
      <Placemark>
         <Snippet maxLines="0"> </Snippet>
         <description>75, UTC 18:00:25
37.6266565,-122.4249324,EA0.5m
Alt 7.2 m, EA 1.0 m
Vel 0.0,0.0, EA 0.00 m/s</description>
         <Style>
            <IconStyle>
               <Icon>
                  <href>http://maps.google.com/mapfiles/kml/shapes/shaded_dot.png</href>
               </Icon>
               <scale>0.6</scale>
               <color>bfed8548</color>
            </IconStyle>
         </Style>
         <Point>
            <coordinates>-122.4249324,37.6266565,0</coordinates>
         </Point>
      </Placemark>
      <Placemark>
         <Snippet maxLines="0"> </Snippet>
         <description>76, UTC 18:00:26
37.6266567,-122.4249305,EA1.5m
Alt 7.0 m, EA 1.0 m
Vel 0.1,0.3, EA 0.00 m/s</description>
         <Style>
            <IconStyle>
               <Icon>
                  <href>http://maps.google.com/mapfiles/kml/shapes/shaded_dot.png</href>
               </Icon>
               <scale>0.6</scale>
               <color>bfed8548</color>
            </IconStyle>
         </Style>
         <Point>
            <coordinates>-122.4249305,37.6266566833333,0</coordinates>
         </Point>
      </Placemark>
      <Placemark>
         <Snippet maxLines="0"> </Snippet>
         <description>77, UTC 18:00:27
37.6266575,-122.4249254,EA2.0m
Alt 7.0 m, EA 1.0 m
Vel 0.1,0.6, EA 0.00 m/s</description>
         <Style>
            <IconStyle>
               <Icon>
                  <href>http://maps.google.com/mapfiles/kml/shapes/shaded_dot.png</href>
               </Icon>
               <scale>0.6</scale>
               <color>bfed8548</color>
            </IconStyle>
         </Style>
         <Point>
            <coordinates>-122.4249254,37.6266575,0</coordinates>
         </Point>
      </Placemark>
      <Placemark>
         <Snippet maxLines="0"> </Snippet>
         <description>78, UTC 18:00:28
37.6266599,-122.4249107,EA3.0m
Alt 7.1 m, EA 1.0 m
Vel 0.1,1.1, EA 0.00 m/s</description>
         <Style>
            <IconStyle>
               <Icon>
                  <href>http://maps.google.com/mapfiles/kml/shapes/shaded_dot.png</href>
               </Icon>
               <scale>0.6</scale>
               <color>bfed8548</color>
            </IconStyle>
         </Style>
         <Point>
            <coordinates>-122.424910683333,37.6266598833333,0</coordinates>
         </Point>
      </Placemark>
      <Placemark>
         <Snippet maxLines="0"> </Snippet>
         <description>79, UTC 18:00:29
37.6266617,-122.4248900,EA3.0m
Alt 7.1 m, EA 1.0 m
Vel -0.2,1.7, EA 0.00 m/s</description>
         <Style>
            <IconStyle>
               <Icon>
                  <href>http://maps.google.com/mapfiles/kml/shapes/shaded_dot.png</href>
               </Icon>
               <scale>0.6</scale>
               <color>bfed8548</color>
            </IconStyle>
         </Style>
         <Point>
            <coordinates>-122.42489,37.6266616833333,0</coordinates>
         </Point>
      </Placemark>
      <Placemark>
         <Snippet maxLines="0"> </Snippet>
         <description>80, UTC 18:00:30
37.6266513,-122.4248666,EA3.0m
Alt 7.2 m, EA 1.0 m
Vel -1.2,1.9, EA 0.00 m/s</description>
         <Style>
            <IconStyle>
               <Icon>
                  <href>http://maps.google.com/mapfiles/kml/shapes/shaded_dot.png</href>
               </Icon>
               <scale>0.6</scale>
               <color>bfed8548</color>
            </IconStyle>
         </Style>
         <Point>
            <coordinates>-122.4248666,37.6266512833333,0</coordinates>
         </Point>
      </Placemark>
      <Placemark>
         <Snippet maxLines="0"> </Snippet>
         <description>81, UTC 18:00:31
37.6266378,-122.4248391,EA3.0m
Alt 7.0 m, EA 1.0 m
Vel -2.6,2.4, EA 0.00 m/s</description>
         <Style>
            <IconStyle>
               <Icon>
                  <href>http://maps.google.com/mapfiles/kml/shapes/shaded_dot.png</href>
               </Icon>
               <scale>0.6</scale>
               <color>bfed8548</color>
            </IconStyle>
         </Style>
         <Point>
            <coordinates>-122.424839083333,37.6266377833333,0</coordinates>
         </Point>
      </Placemark>
      <Placemark>
         <Snippet maxLines="0"> </Snippet>
         <description>82, UTC 18:00:32
37.6265984,-122.4248128,EA3.0m
Alt 7.3 m, EA 1.0 m
Vel -4.3,2.6, EA 0.00 m/s</description>
         <Style>
            <IconStyle>
               <Icon>
                  <href>http://maps.google.com/mapfiles/kml/shapes/shaded_dot.png</href>
               </Icon>
               <scale>0.6</scale>
               <color>bfed8548</color>
            </IconStyle>
         </Style>
         <Point>
            <coordinates>-122.424812783333,37.6265983833333,0</coordinates>
         </Point>
      </Placemark>
      <Placemark>
         <Snippet maxLines="0"> </Snippet>
         <description>83, UTC 18:00:33
37.6265563,-122.4247796,EA3.0m
Alt 7.0 m, EA 1.0 m
Vel -5.3,3.4, EA 0.00 m/s</description>
         <Style>
            <IconStyle>
               <Icon>
                  <href>http://maps.google.com/mapfiles/kml/shapes/shaded_dot.png</href>
               </Icon>
               <scale>0.6</scale>
               <color>bfed8548</color>
            </IconStyle>
         </Style>
         <Point>
            <coordinates>-122.424779583333,37.6265562833333,0</coordinates>
         </Point>
      </Placemark>
      <Placemark>
         <Snippet maxLines="0"> </Snippet>
         <description>84, UTC 18:00:34
37.6264943,-122.4247292,EA3.0m
Alt 7.2 m, EA 1.0 m
Vel -6.6,4.5, EA 0.00 m/s</description>
         <Style>
            <IconStyle>
               <Icon>
                  <href>http://maps.google.com/mapfiles/kml/shapes/shaded_dot.png</href>
               </Icon>
               <scale>0.6</scale>
               <color>bfed8548</color>
            </IconStyle>
         </Style>
         <Point>
            <coordinates>-122.4247292,37.6264942833333,0</coordinates>
         </Point>
      </Placemark>
      <Placemark>
         <Snippet maxLines="0"> </Snippet>
         <description>85, UTC 18:00:35
37.6264266,-122.4246702,EA3.0m
Alt 7.3 m, EA 1.0 m
Vel -7.2,5.0, EA 0.00 m/s</description>
         <Style>
            <IconStyle>
               <Icon>
                  <href>http://maps.google.com/mapfiles/kml/shapes/shaded_dot.png</href>
               </Icon>
               <scale>0.6</scale>
               <color>bfed8548</color>
            </IconStyle>
         </Style>
         <Point>
            <coordinates>-122.424670183333,37.6264266,0</coordinates>
         </Point>
      </Placemark>
      <Placemark>
         <Snippet maxLines="0"> </Snippet>
         <description>86, UTC 18:00:36
37.6263608,-122.4246190,EA3.0m
Alt 7.3 m, EA 1.0 m
Vel -7.1,4.3, EA 0.00 m/s</description>
         <Style>
            <IconStyle>
               <Icon>
                  <href>http://maps.google.com/mapfiles/kml/shapes/shaded_dot.png</href>
               </Icon>
               <scale>0.6</scale>
               <color>bfed8548</color>
            </IconStyle>
         </Style>
         <Point>
            <coordinates>-122.424619,37.6263608,0</coordinates>
         </Point>
      </Placemark>
      <Placemark>
         <Snippet maxLines="0"> </Snippet>
         <description>87, UTC 18:00:37
37.6263070,-122.4245815,EA3.0m
Alt 7.3 m, EA 1.0 m
Vel -5.8,3.2, EA 0.00 m/s</description>
         <Style>
            <IconStyle>
               <Icon>
                  <href>http://maps.google.com/mapfiles/kml/shapes/shaded_dot.png</href>
               </Icon>
               <scale>0.6</scale>
               <color>bfed8548</color>
            </IconStyle>
         </Style>
         <Point>
            <coordinates>-122.4245815,37.6263069833333,0</coordinates>
         </Point>
      </Placemark>
      <Placemark>
         <Snippet maxLines="0"> </Snippet>
         <description>88, UTC 18:00:38
37.6262710,-122.4245599,EA3.0m
Alt 7.4 m, EA 1.0 m
Vel -3.8,2.0, EA 0.00 m/s</description>
         <Style>
            <IconStyle>
               <Icon>
                  <href>http://maps.google.com/mapfiles/kml/shapes/shaded_dot.png</href>
               </Icon>
               <scale>0.6</scale>
               <color>bfed8548</color>
            </IconStyle>
         </Style>
         <Point>
            <coordinates>-122.4245599,37.626271,0</coordinates>
         </Point>
      </Placemark>
      <Placemark>
         <Snippet maxLines="0"> </Snippet>
         <description>89, UTC 18:00:39
37.6262522,-122.4245478,EA4.0m
Alt 7.5 m, EA 1.0 m
Vel -2.1,1.0, EA 0.00 m/s</description>
         <Style>
            <IconStyle>
               <Icon>
                  <href>http://maps.google.com/mapfiles/kml/shapes/shaded_dot.png</href>
               </Icon>
               <scale>0.6</scale>
               <color>bfed8548</color>
            </IconStyle>
         </Style>
         <Point>
            <coordinates>-122.424547783333,37.6262522,0</coordinates>
         </Point>
      </Placemark>
      <Placemark>
         <Snippet maxLines="0"> </Snippet>
         <description>90, UTC 18:00:40
37.6262391,-122.4245430,EA4.0m
Alt 7.2 m, EA 1.0 m
Vel -1.0,0.5, EA 0.00 m/s</description>
         <Style>
            <IconStyle>
               <Icon>
                  <href>http://maps.google.com/mapfiles/kml/shapes/shaded_dot.png</href>
               </Icon>
               <scale>0.6</scale>
               <color>bfed8548</color>
            </IconStyle>
         </Style>
         <Point>
            <coordinates>-122.424542983333,37.6262390833333,0</coordinates>
         </Point>
      </Placemark>
      <Placemark>
         <Snippet maxLines="0"> </Snippet>
         <description>91, UTC 18:00:41
37.6262360,-122.4245428,EA2.0m
Alt 7.2 m, EA 1.0 m
Vel -0.1,0.1, EA 0.00 m/s</description>
         <Style>
            <IconStyle>
               <Icon>
                  <href>http://maps.google.com/mapfiles/kml/shapes/shaded_dot.png</href>
               </Icon>
               <scale>0.6</scale>
               <color>bfed8548</color>
            </IconStyle>
         </Style>
         <Point>
            <coordinates>-122.424542783333,37.6262359833333,0</coordinates>
         </Point>
      </Placemark>
      <Placemark>
         <Snippet maxLines="0"> </Snippet>
         <description>92, UTC 18:00:42
37.6262354,-122.4245422,EA2.0m
Alt 7.0 m, EA 1.0 m
Vel -0.0,0.0, EA 0.00 m/s</description>
         <Style>
            <IconStyle>
               <Icon>
                  <href>http://maps.google.com/mapfiles/kml/shapes/shaded_dot.png</href>
               </Icon>
               <scale>0.6</scale>
               <color>bfed8548</color>
            </IconStyle>
         </Style>
         <Point>
            <coordinates>-122.4245422,37.6262353833333,0</coordinates>
         </Point>
      </Placemark>
      <Placemark>
         <Snippet maxLines="0"> </Snippet>
         <description>93, UTC 18:00:43
37.6262329,-122.4245418,EA6.0m
Alt 7.1 m, EA 1.0 m
Vel -0.0,0.0, EA 0.00 m/s</description>
         <Style>
            <IconStyle>
               <Icon>
                  <href>http://maps.google.com/mapfiles/kml/shapes/shaded_dot.png</href>
               </Icon>
               <scale>0.6</scale>
               <color>bfed8548</color>
            </IconStyle>
         </Style>
         <Point>
            <coordinates>-122.4245418,37.6262328833333,0</coordinates>
         </Point>
      </Placemark>
      <Placemark>
         <Snippet maxLines="0"> </Snippet>
         <description>94, UTC 18:00:44
37.6262315,-122.4245411,EA4.0m
Alt 6.9 m, EA 1.0 m
Vel -0.0,0.0, EA 0.00 m/s</description>
         <Style>
            <IconStyle>
               <Icon>
                  <href>http://maps.google.com/mapfiles/kml/shapes/shaded_dot.png</href>
               </Icon>
               <scale>0.6</scale>
               <color>bfed8548</color>
            </IconStyle>
         </Style>
         <Point>
            <coordinates>-122.424541083333,37.6262315,0</coordinates>
         </Point>
      </Placemark>
      <Placemark>
         <Snippet maxLines="0"> </Snippet>
         <description>95, UTC 18:00:45
37.6262301,-122.4245400,EA4.0m
Alt 6.7 m, EA 1.0 m
Vel -0.0,0.0, EA 0.00 m/s</description>
         <Style>
            <IconStyle>
               <Icon>
                  <href>http://maps.google.com/mapfiles/kml/shapes/shaded_dot.png</href>
               </Icon>
               <scale>0.6</scale>
               <color>bfed8548</color>
            </IconStyle>
         </Style>
         <Point>
            <coordinates>-122.424539983333,37.6262301,0</coordinates>
         </Point>
      </Placemark>
      <Placemark>
         <Snippet maxLines="0"> </Snippet>
         <description>96, UTC 18:00:46
37.6262305,-122.4245408,EA4.0m
Alt 6.4 m, EA 1.0 m
Vel -0.0,0.0, EA 0.00 m/s</description>
         <Style>
            <IconStyle>
               <Icon>
                  <href>http://maps.google.com/mapfiles/kml/shapes/shaded_dot.png</href>
               </Icon>
               <scale>0.6</scale>
               <color>bfed8548</color>
            </IconStyle>
         </Style>
         <Point>
            <coordinates>-122.4245408,37.6262304833333,0</coordinates>
         </Point>
      </Placemark>
      <Placemark>
         <Snippet maxLines="0"> </Snippet>
         <description>97, UTC 18:00:47
37.6262306,-122.4245405,EA4.0m
Alt 6.2 m, EA 1.0 m
Vel -0.0,0.0, EA 0.00 m/s</description>
         <Style>
            <IconStyle>
               <Icon>
                  <href>http://maps.google.com/mapfiles/kml/shapes/shaded_dot.png</href>
               </Icon>
               <scale>0.6</scale>
               <color>bfed8548</color>
            </IconStyle>
         </Style>
         <Point>
            <coordinates>-122.4245405,37.6262305833333,0</coordinates>
         </Point>
      </Placemark>
      <Placemark>
         <Snippet maxLines="0"> </Snippet>
         <description>98, UTC 18:40:47
37.4167055,-122.0820991,EA4.0m
Alt -24.5 m, EA 1.0 m
Vel 0.0,-0.0, EA 0.00 m/s</description>
         <Style>
            <IconStyle>
               <Icon>
                  <href>http://maps.google.com/mapfiles/kml/shapes/shaded_dot.png</href>
               </Icon>
               <scale>0.6</scale>
               <color>bfed8548</color>
            </IconStyle>
         </Style>
         <Point>
            <coordinates>-122.082099083333,37.4167054833333,0</coordinates>
         </Point>
      </Placemark>
      <Placemark>
         <Snippet maxLines="0"> </Snippet>
         <description>99, UTC 18:40:48
37.4167062,-122.0820988,EA4.0m
Alt -24.5 m, EA 1.0 m
Vel 0.0,-0.0, EA 0.00 m/s</description>
         <Style>
            <IconStyle>
               <Icon>
                  <href>http://maps.google.com/mapfiles/kml/shapes/shaded_dot.png</href>
               </Icon>
               <scale>0.6</scale>
               <color>bfed8548</color>
            </IconStyle>
         </Style>
         <Point>
            <coordinates>-122.082098783333,37.4167062,0</coordinates>
         </Point>
      </Placemark>
      <Placemark>
         <Snippet maxLines="0"> </Snippet>
         <description>100, UTC 18:40:49
37.4167070,-122.0820990,EA4.0m
Alt -24.5 m, EA 1.0 m
Vel 0.0,-0.0, EA 0.00 m/s</description>
         <Style>
            <IconStyle>
               <Icon>
                  <href>http://maps.google.com/mapfiles/kml/shapes/shaded_dot.png</href>
               </Icon>
               <scale>0.6</scale>
               <color>bfed8548</color>
            </IconStyle>
         </Style>
         <Point>
            <coordinates>-122.082098983333,37.416707,0</coordinates>
         </Point>
      </Placemark>
      <Placemark>
         <Snippet maxLines="0"> </Snippet>
         <description>101, UTC 18:40:50
37.4167080,-122.0820991,EA4.0m
Alt -24.5 m, EA 1.0 m
Vel 0.0,-0.0, EA 0.00 m/s</description>
         <Style>
            <IconStyle>
               <Icon>
                  <href>http://maps.google.com/mapfiles/kml/shapes/shaded_dot.png</href>
               </Icon>
               <scale>0.6</scale>
               <color>bfed8548</color>
            </IconStyle>
         </Style>
         <Point>
            <coordinates>-122.082099083333,37.4167079833333,0</coordinates>
         </Point>
      </Placemark>
   </Document>
</kml>