$GPGGA,175911.00,3737.592069,N,12225.538970,W,7,,0.20,9.37,M,0.0,M,0.0,0000*64
$GPRMC,175911.00,A,3737.592069,N,12225.538970,W,000.0,083.8,040920,,,A*4D
$GPGGA,175912.00,3737.592082,N,12225.538958,W,7,,0.20,9.45,M,0.0,M,0.0,0000*6D
$GPRMC,175912.00,A,3737.592082,N,12225.538958,W,000.0,083.8,040920,,,A*41
$GPGGA,175913.00,3737.592082,N,12225.538951,W,7,,0.20,9.51,M,0.0,M,0.0,0000*60
$GPRMC,175913.00,A,3737.592082,N,12225.538951,W,000.0,083.8,040920,,,A*49
$GPGGA,175914.00,3737.592094,N,12225.538940,W,7,,0.20,9.51,M,0.0,M,0.0,0000*60
$GPRMC,175914.00,A,3737.592094,N,12225.538940,W,000.0,083.8,040920,,,A*49
$GPGGA,175915.00,3737.592094,N,12225.538946,W,7,,0.20,9.55,M,0.0,M,0.0,0000*63
$GPRMC,175915.00,A,3737.592094,N,12225.538946,W,000.0,083.8,040920,,,A*4E
$GPGGA,175916.00,3737.592099,N,12225.538940,W,7,,0.20,9.59,M,0.0,M,0.0,0000*67
$GPRMC,175916.00,A,3737.592099,N,12225.538940,W,000.0,083.8,040920,,,A*46
$GPGGA,175917.00,3737.592099,N,12225.538933,W,7,,0.20,9.60,M,0.0,M,0.0,0000*68
$GPRMC,175917.00,A,3737.592099,N,12225.538933,W,000.0,083.8,040920,,,A*43
$GPGGA,175918.00,3737.592094,N,12225.538921,W,7,,0.20,9.62,M,0.0,M,0.0,0000*6B
$GPRMC,175918.00,A,3737.592094,N,12225.538921,W,000.0,083.8,040920,,,A*42
$GPGGA,175919.00,3737.592094,N,12225.538898,W,7,,0.20,9.58,M,0.0,M,0.0,0000*60
$GPRMC,175919.00,A,3737.592094,N,12225.538898,W,000.0,083.8,040920,,,A*40
$GPGGA,175920.00,3737.592094,N,12225.538886,W,7,,0.20,9.55,M,0.0,M,0.0,0000*68
$GPRMC,175920.00,A,3737.592094,N,12225.538886,W,000.0,083.8,040920,,,A*45
$GPGGA,175921.00,3737.592099,N,12225.538867,W,7,,0.20,9.54,M,0.0,M,0.0,0000*6A
$GPRMC,175921.00,A,3737.592099,N,12225.538867,W,000.0,083.8,040920,,,A*46
$GPGGA,175922.00,3737.592082,N,12225.538856,W,7,,0.20,9.54,M,0.0,M,0.0,0000*61
$GPRMC,175922.00,A,3737.592082,N,12225.538856,W,000.0,083.8,040920,,,A*4D
$GPGGA,175923.00,3737.592075,N,12225.538867,W,7,,0.20,9.47,M,0.0,M,0.0,0000*68
$GPRMC,175923.00,A,3737.592075,N,12225.538867,W,000.0,083.8,040920,,,A*46
$GPGGA,175924.00,3737.592069,N,12225.538867,W,7,,0.15,9.43,M,0.0,M,0.0,0000*60
$GPRMC,175924.00,A,3737.592069,N,12225.538867,W,000.0,083.8,040920,,,A*4C
$GPGGA,175925.00,3737.592058,N,12225.538856,W,7,,0.15,9.34,M,0.0,M,0.0,0000*61
$GPRMC,175925.00,A,3737.592058,N,12225.538856,W,000.0,083.8,040920,,,A*4D
$GPGGA,175926.00,3737.592058,N,12225.538844,W,7,,0.15,9.32,M,0.0,M,0.0,0000*67
$GPRMC,175926.00,A,3737.592058,N,12225.538844,W,000.0,083.8,040920,,,A*4D
$GPGGA,175927.00,3737.592052,N,12225.538837,W,7,,0.15,9.29,M,0.0,M,0.0,0000*62
$GPRMC,175927.00,A,3737.592052,N,12225.538837,W,000.0,083.8,040920,,,A*42
$GPGGA,175928.00,3737.592039,N,12225.538826,W,7,,0.15,9.27,M,0.0,M,0.0,0000*6E
$GPRMC,175928.00,A,3737.592039,N,12225.538826,W,000.0,083.8,040920,,,A*40
$GPGGA,175929.00,3737.592039,N,12225.538814,W,7,,0.15,9.26,M,0.0,M,0.0,0000*6F
$GPRMC,175929.00,A,3737.592039,N,12225.538814,W,000.0,083.8,040920,,,A*40
$GPGGA,175930.00,3737.592046,N,12225.538795,W,7,,0.15,9.30,M,0.0,M,0.0,0000*6E
$GPRMC,175930.00,A,3737.592046,N,12225.538795,W,000.0,083.8,040920,,,A*46
$GPGGA,175931.00,3737.592052,N,12225.538777,W,7,,0.15,9.29,M,0.0,M,0.0,0000*6E
$GPRMC,175931.00,A,3737.592052,N,12225.538777,W,000.0,083.8,040920,,,A*4E
$GPGGA,175932.00,3737.592058,N,12225.538777,W,7,,0.15,9.31,M,0.0,M,0.0,0000*6E
$GPRMC,175932.00,A,3737.592058,N,12225.538777,W,000.0,083.8,040920,,,A*47
$GPGGA,175933.00,3737.592052,N,12225.538760,W,7,,0.15,9.30,M,0.0,M,0.0,0000*62
$GPRMC,175933.00,A,3737.592052,N,12225.538760,W,000.0,083.8,040920,,,A*4A
$GPGGA,175934.00,3737.592052,N,12225.538754,W,7,,0.15,9.29,M,0.0,M,0.0,0000*6A
$GPRMC,175934.00,A,3737.592052,N,12225.538754,W,000.0,083.8,040920,,,A*4A
$GPGGA,175935.00,3737.592039,N,12225.538747,W,7,,0.15,9.30,M,0.0,M,0.0,0000*6C
$GPRMC,175935.00,A,3737.592039,N,12225.538747,W,000.0,083.8,040920,,,A*44
$GPGGA,175936.00,3737.592039,N,12225.538747,W,7,,0.15,9.34,M,0.0,M,0.0,0000*6B
$GPRMC,175936.00,A,3737.592039,N,12225.538747,W,000.0,083.8,040920,,,A*47
$GPGGA,175937.00,3737.592027,N,12225.538730,W,7,,0.15,9.34,M,0.0,M,0.0,0000*65
$GPRMC,175937.00,A,3737.592027,N,12225.538730,W,000.0,083.8,040920,,,A*49
$GPGGA,175938.00,3737.592027,N,12225.538730,W,7,,0.15,9.35,M,0.0,M,0.0,0000*6B
$GPRMC,175938.00,A,3737.592027,N,12225.538730,W,000.0,083.8,040920,,,A*46
$GPGGA,175939.00,3737.592033,N,12225.538730,W,7,,0.15,9.38,M,0.0,M,0.0,0000*62
$GPRMC,175939.00,A,3737.592033,N,12225.538730,W,000.0,083.8,040920,,,A*42
$GPGGA,175940.00,3737.592027,N,12225.538730,W,7,,0.15,9.43,M,0.0,M,0.0,0000*65
$GPRMC,175940.00,A,3737.592027,N,12225.538730,W,000.0,083.8,040920,,,A*49
$GPGGA,175941.00,3737.592033,N,12225.538723,W,7,,0.15,9.45,M,0.0,M,0.0,0000*65
$GPRMC,175941.00,A,3737.592033,N,12225.538723,W,000.0,083.8,040920,,,A*4F
$GPGGA,175942.00,3737.592033,N,12225.538723,W,7,,0.15,9.45,M,0.0,M,0.0,0000*66
$GPRMC,175942.00,A,3737.592033,N,12225.538723,W,000.0,083.8,040920,,,A*4C
$GPGGA,175943.00,3737.592039,N,12225.538712,W,7,,0.15,9.43,M,0.0,M,0.0,0000*69
$GPRMC,175943.00,A,3737.592039,N,12225.538712,W,000.0,083.8,040920,,,A*45
$GPGGA,175944.00,3737.592039,N,12225.538705,W,7,,0.15,9.45,M,0.0,M,0.0,0000*6E
$GPRMC,175944.00,A,3737.592039,N,12225.538705,W,000.0,083.8,040920,,,A*44
$GPGGA,175945.00,3737.592046,N,12225.538700,W,7,,0.15,9.43,M,0.0,M,0.0,0000*64
$GPRMC,175945.00,A,3737.592046,N,12225.538700,W,000.0,083.8,040920,,,A*48
$GPGGA,175946.00,3737.592046,N,12225.538693,W,7,,0.15,9.40,M,0.0,M,0.0,0000*6F
$GPRMC,175946.00,A,3737.592046,N,12225.538693,W,000.0,083.8,040920,,,A*40
$GPGGA,175947.00,3737.592058,N,12225.538693,W,7,,0.15,9.38,M,0.0,M,0.0,0000*6E
$GPRMC,175947.00,A,3737.592058,N,12225.538693,W,000.0,083.8,040920,,,A*4E
$GPGGA,175948.00,3737.592058,N,12225.538700,W,7,,0.15,9.35,M,0.0,M,0.0,0000*67
$GPRMC,175948.00,A,3737.592058,N,12225.538700,W,000.0,083.8,040920,,,A*4A
$GPGGA,175949.00,3737.592069,N,12225.538705,W,7,,0.15,9.30,M,0.0,M,0.0,0000*64
$GPRMC,175949.00,A,3737.592069,N,12225.538705,W,000.0,083.8,040920,,,A*4C
$GPGGA,175950.00,3737.592082,N,12225.538717,W,7,,0.15,9.26,M,0.0,M,0.0,0000*6D
$GPRMC,175950.00,A,3737.592082,N,12225.538717,W,000.0,083.8,040920,,,A*42
$GPGGA,175951.00,3737.592082,N,12225.538717,W,7,,0.15,9.27,M,0.0,M,0.0,0000*6D
$GPRMC,175951.00,A,3737.592082,N,12225.538717,W,000.0,083.8,040920,,,A*43
$GPGGA,175952.00,3737.592088,N,12225.538717,W,7,,0.15,9.23,M,0.0,M,0.0,0000*60
$GPRMC,175952.00,A,3737.592088,N,12225.538717,W,000.0,083.8,040920,,,A*4A
$GPGGA,175953.00,3737.592094,N,12225.538717,W,7,,0.15,9.20,M,0.0,M,0.0,0000*6F
$GPRMC,175953.00,A,3737.592094,N,12225.538717,W,000.0,083.8,040920,,,A*46
$GPGGA,175954.00,3737.592094,N,12225.538712,W,7,,0.15,9.17,M,0.0,M,0.0,0000*69
$GPRMC,175954.00,A,3737.592094,N,12225.538712,W,000.0,083.8,040920,,,A*44
$GPGGA,175955.00,3737.592099,N,12225.538712,W,7,,0.15,9.12,M,0.0,M,0.0,0000*60
$GPRMC,175955.00,A,3737.592099,N,12225.538712,W,000.0,083.8,040920,,,A*48
$GPGGA,175956.00,3737.592099,N,12225.538712,W,7,,0.15,9.10,M,0.0,M,0.0,0000*61
$GPRMC,175956.00,A,3737.592099,N,12225.538712,W,000.0,083.8,040920,,,A*4B
$GPGGA,175957.00,3737.592105,N,12225.538712,W,7,,0.15,9.11,M,0.0,M,0.0,0000*65
$GPRMC,175957.00,A,3737.592105,N,12225.538712,W,000.0,083.8,040920,,,A*4E
$GPGGA,175958.00,3737.592105,N,12225.538712,W,7,,0.15,9.11,M,0.0,M,0.0,0000*6A
$GPRMC,175958.00,A,3737.592105,N,12225.538712,W,000.0,083.8,040920,,,A*41
$GPGGA,175959.00,3737.592105,N,12225.538712,W,7,,0.15,9.11,M,0.0,M,0.0,0000*6B
$GPRMC,175959.00,A,3737.592105,N,12225.538712,W,000.0,083.8,040920,,,A*40
$GPGGA,180000.00,3737.592099,N,12225.538717,W,7,,0.15,9.11,M,0.0,M,0.0,0000*65
$GPRMC,180000.00,A,3737.592099,N,12225.538717,W,000.0,083.8,040920,,,A*4E
$GPGGA,180001.00,3737.592094,N,12225.538705,W,7,,0.15,9.13,M,0.0,M,0.0,0000*68
$GPRMC,180001.00,A,3737.592094,N,12225.538705,W,000.0,083.8,040920,,,A*41
$GPGGA,180002.00,3737.592099,N,12225.538705,W,7,,0.15,9.12,M,0.0,M,0.0,0000*67
$GPRMC,180002.00,A,3737.592099,N,12225.538705,W,000.0,083.8,040920,,,A*4F
$GPGGA,180003.00,3737.592099,N,12225.538705,W,7,,0.15,9.13,M,0.0,M,0.0,0000*67
$GPRMC,180003.00,A,3737.592099,N,12225.538705,W,000.0,083.8,040920,,,A*4E
$GPGGA,180004.00,3737.592099,N,12225.538693,W,7,,0.15,9.12,M,0.0,M,0.0,0000*6F
$GPRMC,180004.00,A,3737.592099,N,12225.538693,W,000.0,083.8,040920,,,A*47
$GPGGA,180005.00,3737.592094,N,12225.538700,W,7,,0.15,9.16,M,0.0,M,0.0,0000*6C
$GPRMC,180005.00,A,3737.592094,N,12225.538700,W,000.0,083.8,040920,,,A*40
$GPGGA,180006.00,3737.592099,N,12225.538705,W,7,,0.15,9.18,M,0.0,M,0.0,0000*69
$GPRMC,180006.00,A,3737.592099,N,12225.538705,W,000.0,083.8,040920,,,A*4B
$GPGGA,180007.00,3737.592099,N,12225.538712,W,7,,0.15,9.19,M,0.0,M,0.0,0000*6F
$GPRMC,180007.00,A,3737.592099,N,12225.538712,W,000.0,083.8,040920,,,A*4C
$GPGGA,180008.00,3737.592135,N,12225.538261,W,7,,0.15,9.20,M,0.0,M,0.0,0000*6C
$GPRMC,180008.00,A,3737.592135,N,12225.538261,W,001.3,083.8,040920,,,A*47
$GPGGA,180009.00,3737.592327,N,12225.536474,W,7,,0.40,9.07,M,0.0,M,0.0,0000*65
$GPRMC,180009.00,A,3737.592327,N,12225.536474,W,005.2,082.4,040920,,,A*43
$GPGGA,180010.00,3737.592687,N,12225.533084,W,7,,0.40,8.96,M,0.0,M,0.0,0000*65
$GPRMC,180010.00,A,3737.592687,N,12225.533084,W,009.8,082.2,040920,,,A*4A
$GPGGA,180011.00,3737.593275,N,12225.528746,W,7,,0.40,8.80,M,0.0,M,0.0,0000*68
$GPRMC,180011.00,A,3737.593275,N,12225.528746,W,012.6,080.4,040920,,,A*40
$GPGGA,180012.00,3737.593863,N,12225.523651,W,7,,0.40,8.58,M,0.0,M,0.0,0000*6F
$GPRMC,180012.00,A,3737.593863,N,12225.523651,W,014.7,081.7,040920,,,A*47
$GPGGA,180013.00,3737.594344,N,12225.518383,W,7,,0.15,8.22,M,0.0,M,0.0,0000*68
$GPRMC,180013.00,A,3737.594344,N,12225.518383,W,015.1,083.4,040920,,,A*4B
$GPGGA,180014.00,3737.595165,N,12225.513050,W,7,,0.05,7.96,M,0.0,M,0.0,0000*68
$GPRMC,180014.00,A,3737.595165,N,12225.513050,W,015.5,078.9,040920,,,A*47
$GPGGA,180015.00,3737.596210,N,12225.508045,W,7,,0.05,7.73,M,0.0,M,0.0,0000*6E
$GPRMC,180015.00,A,3737.596210,N,12225.508045,W,014.7,075.1,040920,,,A*4C
$GPGGA,180016.00,3737.597308,N,12225.503749,W,7,,0.15,7.45,M,0.0,M,0.0,0000*60
$GPRMC,180016.00,A,3737.597308,N,12225.503749,W,012.8,072.1,040920,,,A*48
$GPGGA,180017.00,3737.598334,N,12225.500120,W,7,,0.05,7.29,M,0.0,M,0.0,0000*60
$GPRMC,180017.00,A,3737.598334,N,12225.500120,W,011.0,070.5,040920,,,A*4E
$GPGGA,180018.00,3737.599113,N,12225.497450,W,7,,0.05,7.26,M,0.0,M,0.0,0000*6B
$GPRMC,180018.00,A,3737.599113,N,12225.497450,W,008.1,069.8,040920,,,A*46
$GPGGA,180019.00,3737.599395,N,12225.496148,W,7,,0.05,7.29,M,0.0,M,0.0,0000*64
$GPRMC,180019.00,A,3737.599395,N,12225.496148,W,003.8,074.4,040920,,,A*44
$GPGGA,180020.00,3737.599414,N,12225.496004,W,7,,0.05,7.34,M,0.0,M,0.0,0000*65
$GPRMC,180020.00,A,3737.599414,N,12225.496004,W,000.4,074.0,040920,,,A*42
$GPGGA,180021.00,3737.599414,N,12225.496009,W,7,,0.05,7.32,M,0.0,M,0.0,0000*6F
$GPRMC,180021.00,A,3737.599414,N,12225.496009,W,000.0,073.7,040920,,,A*4A
$GPGGA,180022.00,3737.599407,N,12225.495998,W,7,,0.05,7.30,M,0.0,M,0.0,0000*6E
$GPRMC,180022.00,A,3737.599407,N,12225.495998,W,000.0,073.6,040920,,,A*48
$GPGGA,180023.00,3737.599401,N,12225.495998,W,7,,0.15,7.28,M,0.0,M,0.0,0000*61
$GPRMC,180023.00,A,3737.599401,N,12225.495998,W,000.0,073.5,040920,,,A*4C
$GPGGA,180024.00,3737.599395,N,12225.495986,W,7,,0.05,7.27,M,0.0,M,0.0,0000*6D
$GPRMC,180024.00,A,3737.599395,N,12225.495986,W,000.0,073.5,040920,,,A*4E
$GPGGA,180025.00,3737.599390,N,12225.495944,W,7,,0.05,7.23,M,0.0,M,0.0,0000*63
$GPRMC,180025.00,A,3737.599390,N,12225.495944,W,000.1,074.0,040920,,,A*47
$GPGGA,180026.00,3737.599401,N,12225.495830,W,7,,0.15,7.01,M,0.0,M,0.0,0000*6C
$GPRMC,180026.00,A,3737.599401,N,12225.495830,W,000.7,075.0,040920,,,A*4E
$GPGGA,180027.00,3737.599450,N,12225.495524,W,7,,0.20,6.99,M,0.0,M,0.0,0000*67
$GPRMC,180027.00,A,3737.599450,N,12225.495524,W,001.2,078.6,040920,,,A*4C
$GPGGA,180028.00,3737.599593,N,12225.494641,W,7,,0.30,7.08,M,0.0,M,0.0,0000*6F
$GPRMC,180028.00,A,3737.599593,N,12225.494641,W,002.2,086.7,040920,,,A*4F
$GPGGA,180029.00,3737.599701,N,12225.493400,W,7,,0.30,7.11,M,0.0,M,0.0,0000*6F
$GPRMC,180029.00,A,3737.599701,N,12225.493400,W,003.3,098.2,040920,,,A*4D
$GPGGA,180030.00,3737.599077,N,12225.491996,W,7,,0.30,7.18,M,0.0,M,0.0,0000*68
$GPRMC,180030.00,A,3737.599077,N,12225.491996,W,004.3,122.9,040920,,,A*4F
$GPGGA,180031.00,3737.598267,N,12225.490345,W,7,,0.30,7.00,M,0.0,M,0.0,0000*67
$GPRMC,180031.00,A,3737.598267,N,12225.490345,W,007.0,137.3,040920,,,A*47
$GPGGA,180032.00,3737.595903,N,12225.488767,W,7,,0.30,7.34,M,0.0,M,0.0,0000*6A
$GPRMC,180032.00,A,3737.595903,N,12225.488767,W,009.8,149.1,040920,,,A*40
$GPGGA,180033.00,3737.593377,N,12225.486775,W,7,,0.30,7.00,M,0.0,M,0.0,0000*6E
$GPRMC,180033.00,A,3737.593377,N,12225.486775,W,012.3,147.3,040920,,,A*4E
$GPGGA,180034.00,3737.589657,N,12225.483752,W,7,,0.30,7.24,M,0.0,M,0.0,0000*63
$GPRMC,180034.00,A,3737.589657,N,12225.483752,W,015.6,145.8,040920,,,A*4E
$GPGGA,180035.00,3737.585596,N,12225.480211,W,7,,0.30,7.30,M,0.0,M,0.0,0000*64
$GPRMC,180035.00,A,3737.585596,N,12225.480211,W,017.1,145.4,040920,,,A*45
$GPGGA,180036.00,3737.581648,N,12225.477140,W,7,,0.30,7.33,M,0.0,M,0.0,0000*6F
$GPRMC,180036.00,A,3737.581648,N,12225.477140,W,016.1,148.6,040920,,,A*43
$GPGGA,180037.00,3737.578419,N,12225.474890,W,7,,0.30,7.27,M,0.0,M,0.0,0000*6C
$GPRMC,180037.00,A,3737.578419,N,12225.474890,W,012.8,151.3,040920,,,A*45
$GPGGA,180038.00,3737.576260,N,12225.473594,W,7,,0.30,7.39,M,0.0,M,0.0,0000*64
$GPRMC,180038.00,A,3737.576260,N,12225.473594,W,008.3,152.0,040920,,,A*42
$GPGGA,180039.00,3737.575132,N,12225.472867,W,7,,0.40,7.47,M,0.0,M,0.0,0000*6C
$GPRMC,180039.00,A,3737.575132,N,12225.472867,W,004.5,154.3,040920,,,A*4B
$GPGGA,180040.00,3737.574345,N,12225.472579,W,7,,0.40,7.25,M,0.0,M,0.0,0000*67
$GPRMC,180040.00,A,3737.574345,N,12225.472579,W,002.2,153.2,040920,,,A*43
$GPGGA,180041.00,3737.574159,N,12225.472567,W,7,,0.20,7.16,M,0.0,M,0.0,0000*60
$GPRMC,180041.00,A,3737.574159,N,12225.472567,W,000.3,153.1,040920,,,A*42
$GPGGA,180042.00,3737.574123,N,12225.472532,W,7,,0.20,7.05,M,0.0,M,0.0,0000*6C
$GPRMC,180042.00,A,3737.574123,N,12225.472532,W,000.0,152.9,040920,,,A*46
$GPGGA,180043.00,3737.573973,N,12225.472508,W,7,,0.60,7.07,M,0.0,M,0.0,0000*68
$GPRMC,180043.00,A,3737.573973,N,12225.472508,W,000.1,152.8,040920,,,A*44
$GPGGA,180044.00,3737.573890,N,12225.472465,W,7,,0.40,6.92,M,0.0,M,0.0,0000*66
$GPRMC,180044.00,A,3737.573890,N,12225.472465,W,000.0,152.8,040920,,,A*44
$GPGGA,180045.00,3737.573806,N,12225.472399,W,7,,0.40,6.69,M,0.0,M,0.0,0000*68
$GPRMC,180045.00,A,3737.573806,N,12225.472399,W,000.0,152.7,040920,,,A*41
$GPGGA,180046.00,3737.573829,N,12225.472448,W,7,,0.40,6.43,M,0.0,M,0.0,0000*65
$GPRMC,180046.00,A,3737.573829,N,12225.472448,W,000.0,152.7,040920,,,A*44
$GPGGA,180047.00,3737.573835,N,12225.472430,W,7,,0.40,6.16,M,0.0,M,0.0,0000*66
$GPRMC,180047.00,A,3737.573835,N,12225.472430,W,000.0,152.7,040920,,,A*47
$GPGGA,184047.00,3725.002329,N,12204.925945,W,7,,0.40,-24.51,M,0.0,M,0.0,0000*79
$GPRMC,184047.00,A,3725.002329,N,12204.925945,W,000.0,274.9,040920,,,A*4F
$GPGGA,184048.00,3725.002372,N,12204.925927,W,7,,0.40,-24.49,M,0.0,M,0.0,0000*75
$GPRMC,184048.00,A,3725.002372,N,12204.925927,W,000.0,274.9,040920,,,A*4A
$GPGGA,184049.00,3725.002420,N,12204.925939,W,7,,0.40,-24.54,M,0.0,M,0.0,0000*77
$GPRMC,184049.00,A,3725.002420,N,12204.925939,W,000.0,274.9,040920,,,A*44
$GPGGA,184050.00,3725.002479,N,12204.925945,W,7,,0.40,-24.54,M,0.0,M,0.0,0000*78
$GPRMC,184050.00,A,3725.002479,N,12204.925945,W,000.0,274.9,040920,,,A*4B
