$GPGGA,222517.00,3725.695689,N,12204.352489,W,7,,0.40,-26.02,M,0.0,M,0.0,0000*72
$GPRMC,222517.00,A,3725.695689,N,12204.352489,W,000.0,350.9,170720,,,A*4B
$GPGGA,222518.00,3725.695678,N,12204.352526,W,7,,0.40,-25.95,M,0.0,M,0.0,0000*7A
$GPRMC,222518.00,A,3725.695678,N,12204.352526,W,000.1,350.9,170720,,,A*4F
$GPGGA,222519.00,3725.695659,N,12204.352532,W,7,,0.40,-25.96,M,0.0,M,0.0,0000*7E
$GPRMC,222519.00,A,3725.695659,N,12204.352532,W,000.0,350.9,170720,,,A*49
$GPGGA,222520.00,3725.695642,N,12204.352519,W,7,,0.40,-25.90,M,0.0,M,0.0,0000*71
$GPRMC,222520.00,A,3725.695642,N,12204.352519,W,000.0,350.9,170720,,,A*40
$GPGGA,222521.00,3725.695630,N,12204.352519,W,7,,0.40,-25.90,M,0.0,M,0.0,0000*75
$GPRMC,222521.00,A,3725.695630,N,12204.352519,W,000.0,351.0,170720,,,A*4C
$GPGGA,222522.00,3725.695695,N,12204.352412,W,7,,0.40,-25.90,M,0.0,M,0.0,0000*73
$GPRMC,222522.00,A,3725.695695,N,12204.352412,W,000.0,351.0,170720,,,A*4A
$GPGGA,222523.00,3725.695708,N,12204.352358,W,7,,0.40,-26.46,M,0.0,M,0.0,0000*76
$GPRMC,222523.00,A,3725.695708,N,12204.352358,W,000.3,066.4,170720,,,A*47
$GPGGA,222524.00,3725.695816,N,12204.352226,W,7,,0.40,-26.46,M,0.0,M,0.0,0000*79
$GPRMC,222524.00,A,3725.695816,N,12204.352226,W,000.2,066.5,170720,,,A*48
$GPGGA,222525.00,3725.695983,N,12204.352274,W,7,,0.40,-26.31,M,0.0,M,0.0,0000*72
$GPRMC,222525.00,A,3725.695983,N,12204.352274,W,000.2,017.2,170720,,,A*42
$GPGGA,222526.00,3725.696032,N,12204.352279,W,7,,0.40,-26.29,M,0.0,M,0.0,0000*75
$GPRMC,222526.00,A,3725.696032,N,12204.352279,W,000.1,017.2,170720,,,A*4F
$GPGGA,222527.00,3725.695972,N,12204.352375,W,7,,0.40,-26.21,M,0.0,M,0.0,0000*7F
$GPRMC,222527.00,A,3725.695972,N,12204.352375,W,000.1,017.3,170720,,,A*4C
$GPGGA,222528.00,3725.695983,N,12204.352442,W,7,,0.40,-26.23,M,0.0,M,0.0,0000*7F
$GPRMC,222528.00,A,3725.695983,N,12204.352442,W,000.1,017.3,170720,,,A*4E
$GPGGA,222530.00,3725.695881,N,12204.352405,W,7,,0.40,-26.22,M,0.0,M,0.0,0000*77
$GPRMC,222530.00,A,3725.695881,N,12204.352405,W,000.1,017.3,170720,,,A*47
$GPGGA,222531.00,3725.695930,N,12204.352154,W,7,,0.40,-26.06,M,0.0,M,0.0,0000*7A
$GPRMC,222531.00,A,3725.695930,N,12204.352154,W,000.2,349.0,170720,,,A*44
$GPGGA,222532.00,3725.696188,N,12204.352177,W,7,,0.40,-26.19,M,0.0,M,0.0,0000*7E
$GPRMC,222532.00,A,3725.696188,N,12204.352177,W,000.2,351.6,170720,,,A*41
$GPGGA,222533.00,3725.696133,N,12204.352135,W,7,,0.40,-26.17,M,0.0,M,0.0,0000*77
$GPRMC,222533.00,A,3725.696133,N,12204.352135,W,000.1,351.6,170720,,,A*45
$GPGGA,222534.00,3725.696241,N,12204.352021,W,7,,0.40,-26.17,M,0.0,M,0.0,0000*72
$GPRMC,222534.00,A,3725.696241,N,12204.352021,W,000.2,351.4,170720,,,A*41
$GPGGA,222535.00,3725.696421,N,12204.352015,W,7,,0.40,-26.15,M,0.0,M,0.0,0000*76
$GPRMC,222535.00,A,3725.696421,N,12204.352015,W,000.3,351.1,170720,,,A*43
$GPGGA,222536.00,3725.696374,N,12204.352430,W,7,,0.40,-26.15,M,0.0,M,0.0,0000*71
$GPRMC,222536.00,A,3725.696374,N,12204.352430,W,000.2,350.9,170720,,,A*4C
$GPGGA,222537.00,3725.696451,N,12204.352879,W,7,,0.40,-26.12,M,0.0,M,0.0,0000*76
$GPRMC,222537.00,A,3725.696451,N,12204.352879,W,000.1,350.9,170720,,,A*4F
$GPGGA,222538.00,3725.696578,N,12204.352976,W,7,,0.40,-26.07,M,0.0,M,0.0,0000*79
$GPRMC,222538.00,A,3725.696578,N,12204.352976,W,000.1,350.9,170720,,,A*44
$GPGGA,222539.00,3725.696542,N,12204.352867,W,7,,0.40,-26.06,M,0.0,M,0.0,0000*71
$GPRMC,222539.00,A,3725.696542,N,12204.352867,W,000.0,350.9,170720,,,A*4C
$GPGGA,222540.00,3725.696398,N,12204.352795,W,7,,0.40,-26.05,M,0.0,M,0.0,0000*7F
$GPRMC,222540.00,A,3725.696398,N,12204.352795,W,000.0,351.0,170720,,,A*49
$GPGGA,222541.00,3725.696355,N,12204.352897,W,7,,0.40,-26.04,M,0.0,M,0.0,0000*73
$GPRMC,222541.00,A,3725.696355,N,12204.352897,W,000.0,351.0,170720,,,A*44
$GPGGA,222542.00,3725.696446,N,12204.352921,W,7,,0.40,-26.01,M,0.0,M,0.0,0000*7C
$GPRMC,222542.00,A,3725.696446,N,12204.352921,W,000.0,351.0,170720,,,A*4E
$GPGGA,222543.00,3725.696559,N,12204.352946,W,7,,0.40,-25.96,M,0.0,M,0.0,0000*7E
$GPRMC,222543.00,A,3725.696559,N,12204.352946,W,000.1,348.5,170720,,,A*4D
$GPGGA,222544.00,3725.696529,N,12204.352909,W,7,,0.40,-25.96,M,0.0,M,0.0,0000*75
$GPRMC,222544.00,A,3725.696529,N,12204.352909,W,000.0,348.4,170720,,,A*46
$GPGGA,222545.00,3725.696590,N,12204.352897,W,7,,0.40,-25.97,M,0.0,M,0.0,0000*71
$GPRMC,222545.00,A,3725.696590,N,12204.352897,W,000.0,348.4,170720,,,A*43
$GPGGA,222546.00,3725.696584,N,12204.352879,W,7,,0.40,-25.96,M,0.0,M,0.0,0000*76
$GPRMC,222546.00,A,3725.696584,N,12204.352879,W,000.0,348.4,170720,,,A*45
$GPGGA,222547.00,3725.696637,N,12204.352874,W,7,,0.40,-25.98,M,0.0,M,0.0,0000*7F
$GPRMC,222547.00,A,3725.696637,N,12204.352874,W,000.0,348.4,170720,,,A*42
$GPGGA,222548.00,3725.696673,N,12204.352807,W,7,,0.40,-26.01,M,0.0,M,0.0,0000*77
$GPRMC,222548.00,A,3725.696673,N,12204.352807,W,000.0,348.4,170720,,,A*49
$GPGGA,222550.00,3725.696728,N,12204.352777,W,7,,0.40,-26.01,M,0.0,M,0.0,0000*79
$GPRMC,222550.00,A,3725.696728,N,12204.352777,W,000.0,348.4,170720,,,A*47
$GPGGA,222551.00,3725.696728,N,12204.352795,W,7,,0.40,-26.00,M,0.0,M,0.0,0000*75
$GPRMC,222551.00,A,3725.696728,N,12204.352795,W,000.0,348.4,170720,,,A*4A
$GPGGA,222552.00,3725.696745,N,12204.352783,W,7,,0.40,-25.99,M,0.0,M,0.0,0000*79
$GPRMC,222552.00,A,3725.696745,N,12204.352783,W,000.0,348.4,170720,,,A*45
$GPGGA,222553.00,3725.696770,N,12204.352765,W,7,,0.40,-25.98,M,0.0,M,0.0,0000*77
$GPRMC,222553.00,A,3725.696770,N,12204.352765,W,000.0,348.4,170720,,,A*4A
$GPGGA,222554.00,3725.696776,N,12204.352711,W,7,,0.40,-26.01,M,0.0,M,0.0,0000*76
$GPRMC,222554.00,A,3725.696776,N,12204.352711,W,000.0,348.4,170720,,,A*48
$GPGGA,222555.00,3725.696781,N,12204.352658,W,7,,0.40,-26.04,M,0.0,M,0.0,0000*76
$GPRMC,222555.00,A,3725.696781,N,12204.352658,W,000.0,348.4,170720,,,A*4D
$GPGGA,222556.00,3725.696800,N,12204.352598,W,7,,0.40,-26.05,M,0.0,M,0.0,0000*7D
$GPRMC,222556.00,A,3725.696800,N,12204.352598,W,000.0,348.4,170720,,,A*47
$GPGGA,222557.00,3725.696787,N,12204.352586,W,7,,0.40,-26.07,M,0.0,M,0.0,0000*71
$GPRMC,222557.00,A,3725.696787,N,12204.352586,W,000.0,348.4,170720,,,A*49
$GPGGA,222558.00,3725.696787,N,12204.352549,W,7,,0.40,-26.07,M,0.0,M,0.0,0000*7D
$GPRMC,222558.00,A,3725.696787,N,12204.352549,W,000.0,348.4,170720,,,A*45
$GPGGA,222559.00,3725.696787,N,12204.352519,W,7,,0.40,-26.09,M,0.0,M,0.0,0000*77
$GPRMC,222559.00,A,3725.696787,N,12204.352519,W,000.0,348.4,170720,,,A*41
$GPGGA,222600.00,3725.696787,N,12204.352495,W,7,,0.40,-26.08,M,0.0,M,0.0,0000*7C
$GPRMC,222600.00,A,3725.696787,N,12204.352495,W,000.0,348.4,170720,,,A*4B
$GPGGA,222601.00,3725.696800,N,12204.352465,W,7,,0.40,-26.09,M,0.0,M,0.0,0000*73
$GPRMC,222601.00,A,3725.696800,N,12204.352465,W,000.0,348.4,170720,,,A*45
$GPGGA,222602.00,3725.696800,N,12204.352454,W,7,,0.40,-26.12,M,0.0,M,0.0,0000*78
$GPRMC,222602.00,A,3725.696800,N,12204.352454,W,000.0,348.4,170720,,,A*44
$GPGGA,222603.00,3725.696787,N,12204.352454,W,7,,0.40,-26.12,M,0.0,M,0.0,0000*79
$GPRMC,222603.00,A,3725.696787,N,12204.352454,W,000.0,348.4,170720,,,A*45
$GPGGA,222604.00,3725.696787,N,12204.352418,W,7,,0.40,-26.11,M,0.0,M,0.0,0000*75
$GPRMC,222604.00,A,3725.696787,N,12204.352418,W,000.0,348.4,170720,,,A*4A
$GPGGA,222605.00,3725.696764,N,12204.352393,W,7,,0.40,-26.12,M,0.0,M,0.0,0000*7E
$GPRMC,222605.00,A,3725.696764,N,12204.352393,W,000.0,348.4,170720,,,A*42
$GPGGA,222606.00,3725.696751,N,12204.352393,W,7,,0.40,-26.11,M,0.0,M,0.0,0000*78
$GPRMC,222606.00,A,3725.696751,N,12204.352393,W,000.0,348.4,170720,,,A*47
$GPGGA,222607.00,3725.696776,N,12204.352375,W,7,,0.40,-26.08,M,0.0,M,0.0,0000*7C
$GPRMC,222607.00,A,3725.696776,N,12204.352375,W,000.0,348.4,170720,,,A*4B
$GPGGA,222608.00,3725.696770,N,12204.352340,W,7,,0.40,-26.10,M,0.0,M,0.0,0000*7A
$GPRMC,222608.00,A,3725.696770,N,12204.352340,W,000.0,348.4,170720,,,A*44
$GPGGA,222609.00,3725.696770,N,12204.352303,W,7,,0.40,-26.11,M,0.0,M,0.0,0000*7D
$GPRMC,222609.00,A,3725.696770,N,12204.352303,W,000.0,348.4,170720,,,A*42
$GPGGA,222610.00,3725.696764,N,12204.352279,W,7,,0.40,-26.14,M,0.0,M,0.0,0000*79
$GPRMC,222610.00,A,3725.696764,N,12204.352279,W,000.0,348.4,170720,,,A*43
$GPGGA,222611.00,3725.696770,N,12204.352244,W,7,,0.40,-26.17,M,0.0,M,0.0,0000*70
$GPRMC,222611.00,A,3725.696770,N,12204.352244,W,000.0,348.4,170720,,,A*49
$GPGGA,222612.00,3725.696770,N,12204.352237,W,7,,0.40,-26.17,M,0.0,M,0.0,0000*77
$GPRMC,222612.00,A,3725.696770,N,12204.352237,W,000.0,348.4,170720,,,A*4E
$GPGGA,222613.00,3725.696757,N,12204.352231,W,7,,0.40,-26.20,M,0.0,M,0.0,0000*71
$GPRMC,222613.00,A,3725.696757,N,12204.352231,W,000.0,348.4,170720,,,A*4C
$GPGGA,222614.00,3725.696745,N,12204.352231,W,7,,0.40,-26.19,M,0.0,M,0.0,0000*7F
$GPRMC,222614.00,A,3725.696745,N,12204.352231,W,000.0,348.5,170720,,,A*49
$GPGGA,222615.00,3725.696728,N,12204.352231,W,7,,0.40,-26.16,M,0.0,M,0.0,0000*7A
$GPRMC,222615.00,A,3725.696728,N,12204.352231,W,000.0,348.5,170720,,,A*43
$GPGGA,222616.00,3725.696728,N,12204.352237,W,7,,0.60,-26.18,M,0.0,M,0.0,0000*73
$GPRMC,222616.00,A,3725.696728,N,12204.352237,W,000.0,348.5,170720,,,A*46
$GPGGA,222617.00,3725.696728,N,12204.352244,W,7,,0.40,-26.16,M,0.0,M,0.0,0000*7A
$GPRMC,222617.00,A,3725.696728,N,12204.352244,W,000.0,348.5,170720,,,A*43
$GPGGA,222618.00,3725.696715,N,12204.352256,W,7,,0.40,-26.14,M,0.0,M,0.0,0000*7A
$GPRMC,222618.00,A,3725.696715,N,12204.352256,W,000.0,348.5,170720,,,A*41
$GPGGA,222619.00,3725.696704,N,12204.352249,W,7,,0.40,-26.14,M,0.0,M,0.0,0000*75
$GPRMC,222619.00,A,3725.696704,N,12204.352249,W,000.0,348.5,170720,,,A*4E
$GPGGA,222621.00,3725.696685,N,12204.352256,W,7,,0.40,-26.14,M,0.0,M,0.0,0000*78
$GPRMC,222621.00,A,3725.696685,N,12204.352256,W,000.0,348.5,170720,,,A*43
$GPGGA,222622.00,3725.696685,N,12204.352256,W,7,,0.40,-26.13,M,0.0,M,0.0,0000*7C
$GPRMC,222622.00,A,3725.696685,N,12204.352256,W,000.0,348.5,170720,,,A*40
$GPGGA,222623.00,3725.696692,N,12204.352268,W,7,,0.40,-26.13,M,0.0,M,0.0,0000*76
$GPRMC,222623.00,A,3725.696692,N,12204.352268,W,000.0,348.5,170720,,,A*4A
$GPGGA,222624.00,3725.696692,N,12204.352274,W,7,,0.40,-26.14,M,0.0,M,0.0,0000*7B
$GPRMC,222624.00,A,3725.696692,N,12204.352274,W,000.0,348.5,170720,,,A*40
$GPGGA,222625.00,3725.696698,N,12204.352274,W,7,,0.40,-26.12,M,0.0,M,0.0,0000*76
$GPRMC,222625.00,A,3725.696698,N,12204.352274,W,000.0,348.5,170720,,,A*4B
$GPGGA,222626.00,3725.696698,N,12204.352268,W,7,,0.40,-26.11,M,0.0,M,0.0,0000*7B
$GPRMC,222626.00,A,3725.696698,N,12204.352268,W,000.0,348.5,170720,,,A*45
$GPGGA,222627.00,3725.696692,N,12204.352268,W,7,,0.40,-26.10,M,0.0,M,0.0,0000*71
$GPRMC,222627.00,A,3725.696692,N,12204.352268,W,000.0,348.5,170720,,,A*4E
$GPGGA,222628.00,3725.696679,N,12204.352268,W,7,,0.40,-26.10,M,0.0,M,0.0,0000*7B
$GPRMC,222628.00,A,3725.696679,N,12204.352268,W,000.0,348.5,170720,,,A*44
$GPGGA,222629.00,3725.696673,N,12204.352261,W,7,,0.40,-26.11,M,0.0,M,0.0,0000*78
$GPRMC,222629.00,A,3725.696673,N,12204.352261,W,000.0,348.5,170720,,,A*46
$GPGGA,222630.00,3725.696685,N,12204.352274,W,7,,0.40,-26.09,M,0.0,M,0.0,0000*74
$GPRMC,222630.00,A,3725.696685,N,12204.352274,W,000.0,348.5,170720,,,A*43
$GPGGA,222631.00,3725.696679,N,12204.352279,W,7,,0.40,-26.08,M,0.0,M,0.0,0000*7A
$GPRMC,222631.00,A,3725.696679,N,12204.352279,W,000.0,348.5,170720,,,A*4C
$GPGGA,222632.00,3725.696704,N,12204.352279,W,7,,0.40,-26.09,M,0.0,M,0.0,0000*73
$GPRMC,222632.00,A,3725.696704,N,12204.352279,W,000.0,348.5,170720,,,A*44
$GPGGA,230000.00,3731.458815,N,12221.143045,W,7,,0.40,141.26,M,0.0,M,0.0,0000*65
$GPRMC,230000.00,A,3731.458815,N,12221.143045,W,000.0,142.3,170720,,,A*4C
$GPGGA,230001.00,3731.458815,N,12221.143052,W,7,,0.40,141.29,M,0.0,M,0.0,0000*6D
$GPRMC,230001.00,A,3731.458815,N,12221.143052,W,000.1,143.3,170720,,,A*4B
$GPGGA,230002.00,3731.458822,N,12221.143057,W,7,,0.40,141.29,M,0.0,M,0.0,0000*6F
$GPRMC,230002.00,A,3731.458822,N,12221.143057,W,000.0,143.3,170720,,,A*48
$GPGGA,230003.00,3731.458822,N,12221.143069,W,7,,0.40,141.27,M,0.0,M,0.0,0000*6D
$GPRMC,230003.00,A,3731.458822,N,12221.143069,W,000.0,143.3,170720,,,A*44
$GPGGA,230004.00,3731.458815,N,12221.143075,W,7,,0.40,141.32,M,0.0,M,0.0,0000*67
$GPRMC,230004.00,A,3731.458815,N,12221.143075,W,000.0,143.3,170720,,,A*4A
$GPGGA,230005.00,3731.458828,N,12221.143087,W,7,,0.40,141.39,M,0.0,M,0.0,0000*6E
$GPRMC,230005.00,A,3731.458828,N,12221.143087,W,000.0,143.3,170720,,,A*48
$GPGGA,230006.00,3731.458834,N,12221.143094,W,7,,0.40,141.44,M,0.0,M,0.0,0000*68
$GPRMC,230006.00,A,3731.458834,N,12221.143094,W,000.0,143.3,170720,,,A*44
$GPGGA,230007.00,3731.458822,N,12221.143117,W,7,,0.40,141.49,M,0.0,M,0.0,0000*69
$GPRMC,230007.00,A,3731.458822,N,12221.143117,W,000.1,145.2,170720,,,A*4E
$GPGGA,230008.00,3731.458834,N,12221.143117,W,7,,0.40,141.58,M,0.0,M,0.0,0000*61
$GPRMC,230008.00,A,3731.458834,N,12221.143117,W,000.0,145.2,170720,,,A*47
$GPGGA,230009.00,3731.458834,N,12221.143112,W,7,,0.40,141.62,M,0.0,M,0.0,0000*6C
$GPRMC,230009.00,A,3731.458834,N,12221.143112,W,000.0,145.2,170720,,,A*43
$GPGGA,230010.00,3731.458834,N,12221.143117,W,7,,0.40,141.67,M,0.0,M,0.0,0000*64
$GPRMC,230010.00,A,3731.458834,N,12221.143117,W,000.0,145.2,170720,,,A*4E
$GPGGA,230011.00,3731.458834,N,12221.143112,W,7,,0.40,141.73,M,0.0,M,0.0,0000*65
$GPRMC,230011.00,A,3731.458834,N,12221.143112,W,000.0,145.2,170720,,,A*4A
