<?xml version="1.0" encoding="utf-8"?>
<kml xmlns="http://www.opengis.net/kml/2.2">
   <Document>
      <name>Mi8_chipset.kml</name>
      <Placemark>
         <Snippet maxLines="0"> </Snippet>
         <description> </description>
         <name>Line 1</name>
         <Style>
            <LineStyle>
               <color>80ffffff</color>
            </LineStyle>
         </Style>
         <LineString>
            <coordinates> -122.082025283333,37.4166011,0 -122.0820255,37.4166013,0 -122.082025583333,37.4166014833333,0 -122.0820255,37.4166015833333,0 -122.0820254,37.4166018,0 -122.082025083333,37.4166018,0 -122.082025083333,37.4166018,0 -122.082024783333,37.4166019,0 -122.082024583333,37.4166019833333,0 -122.082024083333,37.4166019,0 -122.082023883333,37.4166019833333,0 -122.0820238,37.4166020833333,0 -122.082023683333,37.4166020833333,0 -122.0820235,37.4166020833333,0 -122.082023383333,37.4166020833333,0 -122.082023183333,37.4166019833333,0 -122.0820233,37.4166019833333,0 -122.0820233,37.4166019833333,0 -122.082023183333,37.4166017,0 -122.0820231,37.4166018,0 -122.082023,37.4166018,0 -122.082022883333,37.4166017,0 -122.082022683333,37.4166017,0 -122.082022383333,37.4166013833333,0 -122.082022183333,37.4166013,0 -122.082021983333,37.4166012,0 -122.082021683333,37.4166012,0 -122.082021483333,37.4166008833333,0 -122.082021283333,37.4166008833333,0 -122.082021283333,37.4166008833333,0 -122.082021183333,37.4166008833333,0 -122.082021183333,37.4166008833333,0 -122.0820211,37.416601,0 -122.082020983333,37.4166008833333,0 -122.0820209,37.4166007833333,0 -122.082020783333,37.4166006,0 -122.0820206,37.4166004,0 -122.0820206,37.4166002833333,0 -122.0820207,37.4166002833333,0 -122.0820206,37.4166001833333,0 -122.082020483333,37.4166000833333,0 -122.0820204,37.4166,0 -122.0820204,37.4166,0 -122.0820204,37.4166,0 -122.0820204,37.4166000833333,0 -122.0820204,37.4166000833333,0 -122.0820202,37.4166001833333,0 -122.0820202,37.4166002833333,0 -122.0820202,37.4166004,0 -122.0820202,37.4166006833333,0 -122.082020083333,37.4166007833333,0 -122.082019983333,37.4166006833333,0 -122.082019783333,37.4166007833333,0 -122.082019783333,37.4166007833333,0 -122.082019583333,37.4166007833333,0 -122.082019383333,37.4166007833333,0 -122.082019083333,37.4166006833333,0 -122.082019,37.4166006833333,0 -122.082018883333,37.4166006833333,0 -122.0820187,37.4166007833333,0 -122.082018583333,37.4166006833333,0 -122.0820185,37.4166006,0 -122.0820183,37.4166006,0 -122.0820183,37.4166006,0 -122.082018183333,37.4166006833333,0 -122.082018083333,37.4166006,0 -122.082018,37.4166004,0 -122.0820178,37.4166004,0 -122.082017883333,37.4166005,0 -122.0820178,37.4166002833333,0 -122.082017883333,37.4166002833333,0 -122.082018083333,37.4166002833333,0 -122.082018,37.4166000833333,0 -122.082017883333,37.4166000833333,0 -122.082017883333,37.4165999,0 -122.082017683333,37.4165996833333,0 -122.0820176,37.4165996833333,0 -122.082017683333,37.4165995833333,0 -122.082015283333,37.4165994833333,0 -122.0820003,37.4165995833333,0 -122.0819524,37.4166024,0 -122.081884,37.4166063833333,0 -122.0817748,37.4166092833333,0 -122.0816489,37.4166092833333,0 -122.0815177,37.4166100833333,0 -122.0813643,37.4166033833333,0 -122.081198,37.4165927833333,0 -122.081022,37.4165837833333,0 -122.080843783333,37.4165731,0 -122.080662583333,37.4165643833333,0 -122.080468883333,37.4165526833333,0 -122.0802659,37.4165415,0 -122.080051283333,37.4165271,0 -122.401385083333,37.6300114,0</coordinates>
         </LineString>
      </Placemark>
      <Placemark>
         <Snippet maxLines="0"> </Snippet>
         <description>1, UTC 17:10:37
37.4166011,-122.0820253,EA2.0m
Alt -23.5 m, EA 1.0 m
Vel -0.0,0.0, EA 0.00 m/s</description>
         <Style>
            <IconStyle>
               <Icon>
                  <href>http://maps.google.com/mapfiles/kml/shapes/shaded_dot.png</href>
               </Icon>
               <scale>0.6</scale>
               <color>bfed8548</color>
            </IconStyle>
         </Style>
         <Point>
            <coordinates>-122.082025283333,37.4166011,0</coordinates>
         </Point>
      </Placemark>
      <Placemark>
         <Snippet maxLines="0"> </Snippet>
         <description>2, UTC 17:10:38
37.4166013,-122.0820255,EA2.0m
Alt -23.6 m, EA 1.0 m
Vel -0.0,0.0, EA 0.00 m/s</description>
         <Style>
            <IconStyle>
               <Icon>
                  <href>http://maps.google.com/mapfiles/kml/shapes/shaded_dot.png</href>
               </Icon>
               <scale>0.6</scale>
               <color>bfed8548</color>
            </IconStyle>
         </Style>
         <Point>
            <coordinates>-122.0820255,37.4166013,0</coordinates>
         </Point>
      </Placemark>
      <Placemark>
         <Snippet maxLines="0"> </Snippet>
         <description>3, UTC 17:10:39
37.4166015,-122.0820256,EA2.0m
Alt -23.6 m, EA 1.0 m
Vel -0.0,0.0, EA 0.00 m/s</description>
         <Style>
            <IconStyle>
               <Icon>
                  <href>http://maps.google.com/mapfiles/kml/shapes/shaded_dot.png</href>
               </Icon>
               <scale>0.6</scale>
               <color>bfed8548</color>
            </IconStyle>
         </Style>
         <Point>
            <coordinates>-122.082025583333,37.4166014833333,0</coordinates>
         </Point>
      </Placemark>
      <Placemark>
         <Snippet maxLines="0"> </Snippet>
         <description>4, UTC 17:10:40
37.4166016,-122.0820255,EA2.0m
Alt -23.7 m, EA 1.0 m
Vel -0.0,0.0, EA 0.00 m/s</description>
         <Style>
            <IconStyle>
               <Icon>
                  <href>http://maps.google.com/mapfiles/kml/shapes/shaded_dot.png</href>
               </Icon>
               <scale>0.6</scale>
               <color>bfed8548</color>
            </IconStyle>
         </Style>
         <Point>
            <coordinates>-122.0820255,37.4166015833333,0</coordinates>
         </Point>
      </Placemark>
      <Placemark>
         <Snippet maxLines="0"> </Snippet>
         <description>5, UTC 17:10:41
37.4166018,-122.0820254,EA2.0m
Alt -23.7 m, EA 1.0 m
Vel -0.0,0.0, EA 0.00 m/s</description>
         <Style>
            <IconStyle>
               <Icon>
                  <href>http://maps.google.com/mapfiles/kml/shapes/shaded_dot.png</href>
               </Icon>
               <scale>0.6</scale>
               <color>bfed8548</color>
            </IconStyle>
         </Style>
         <Point>
            <coordinates>-122.0820254,37.4166018,0</coordinates>
         </Point>
      </Placemark>
      <Placemark>
         <Snippet maxLines="0"> </Snippet>
         <description>6, UTC 17:10:42
37.4166018,-122.0820251,EA2.0m
Alt -23.8 m, EA 1.0 m
Vel -0.0,0.0, EA 0.00 m/s</description>
         <Style>
            <IconStyle>
               <Icon>
                  <href>http://maps.google.com/mapfiles/kml/shapes/shaded_dot.png</href>
               </Icon>
               <scale>0.6</scale>
               <color>bfed8548</color>
            </IconStyle>
         </Style>
         <Point>
            <coordinates>-122.082025083333,37.4166018,0</coordinates>
         </Point>
      </Placemark>
      <Placemark>
         <Snippet maxLines="0"> </Snippet>
         <description>7, UTC 17:10:43
37.4166018,-122.0820251,EA2.0m
Alt -23.8 m, EA 1.0 m
Vel -0.0,0.0, EA 0.00 m/s</description>
         <Style>
            <IconStyle>
               <Icon>
                  <href>http://maps.google.com/mapfiles/kml/shapes/shaded_dot.png</href>
               </Icon>
               <scale>0.6</scale>
               <color>bfed8548</color>
            </IconStyle>
         </Style>
         <Point>
            <coordinates>-122.082025083333,37.4166018,0</coordinates>
         </Point>
      </Placemark>
      <Placemark>
         <Snippet maxLines="0"> </Snippet>
         <description>8, UTC 17:10:44
37.4166019,-122.0820248,EA2.0m
Alt -23.8 m, EA 1.0 m
Vel -0.0,0.0, EA 0.00 m/s</description>
         <Style>
            <IconStyle>
               <Icon>
                  <href>http://maps.google.com/mapfiles/kml/shapes/shaded_dot.png</href>
               </Icon>
               <scale>0.6</scale>
               <color>bfed8548</color>
            </IconStyle>
         </Style>
         <Point>
            <coordinates>-122.082024783333,37.4166019,0</coordinates>
         </Point>
      </Placemark>
      <Placemark>
         <Snippet maxLines="0"> </Snippet>
         <description>9, UTC 17:10:45
37.4166020,-122.0820246,EA2.0m
Alt -23.8 m, EA 1.0 m
Vel -0.0,0.0, EA 0.00 m/s</description>
         <Style>
            <IconStyle>
               <Icon>
                  <href>http://maps.google.com/mapfiles/kml/shapes/shaded_dot.png</href>
               </Icon>
               <scale>0.6</scale>
               <color>bfed8548</color>
            </IconStyle>
         </Style>
         <Point>
            <coordinates>-122.082024583333,37.4166019833333,0</coordinates>
         </Point>
      </Placemark>
      <Placemark>
         <Snippet maxLines="0"> </Snippet>
         <description>10, UTC 17:10:46
37.4166019,-122.0820241,EA2.0m
Alt -23.7 m, EA 1.0 m
Vel -0.0,0.0, EA 0.00 m/s</description>
         <Style>
            <IconStyle>
               <Icon>
                  <href>http://maps.google.com/mapfiles/kml/shapes/shaded_dot.png</href>
               </Icon>
               <scale>0.6</scale>
               <color>bfed8548</color>
            </IconStyle>
         </Style>
         <Point>
            <coordinates>-122.082024083333,37.4166019,0</coordinates>
         </Point>
      </Placemark>
      <Placemark>
         <Snippet maxLines="0"> </Snippet>
         <description>11, UTC 17:10:47
37.4166020,-122.0820239,EA2.0m
Alt -23.6 m, EA 1.0 m
Vel -0.0,0.0, EA 0.00 m/s</description>
         <Style>
            <IconStyle>
               <Icon>
                  <href>http://maps.google.com/mapfiles/kml/shapes/shaded_dot.png</href>
               </Icon>
               <scale>0.6</scale>
               <color>bfed8548</color>
            </IconStyle>
         </Style>
         <Point>
            <coordinates>-122.082023883333,37.4166019833333,0</coordinates>
         </Point>
      </Placemark>
      <Placemark>
         <Snippet maxLines="0"> </Snippet>
         <description>12, UTC 17:10:48
37.4166021,-122.0820238,EA2.0m
Alt -23.6 m, EA 1.0 m
Vel -0.0,0.0, EA 0.00 m/s</description>
         <Style>
            <IconStyle>
               <Icon>
                  <href>http://maps.google.com/mapfiles/kml/shapes/shaded_dot.png</href>
               </Icon>
               <scale>0.6</scale>
               <color>bfed8548</color>
            </IconStyle>
         </Style>
         <Point>
            <coordinates>-122.0820238,37.4166020833333,0</coordinates>
         </Point>
      </Placemark>
      <Placemark>
         <Snippet maxLines="0"> </Snippet>
         <description>13, UTC 17:10:49
37.4166021,-122.0820237,EA2.0m
Alt -23.6 m, EA 1.0 m
Vel -0.0,0.0, EA 0.00 m/s</description>
         <Style>
            <IconStyle>
               <Icon>
                  <href>http://maps.google.com/mapfiles/kml/shapes/shaded_dot.png</href>
               </Icon>
               <scale>0.6</scale>
               <color>bfed8548</color>
            </IconStyle>
         </Style>
         <Point>
            <coordinates>-122.082023683333,37.4166020833333,0</coordinates>
         </Point>
      </Placemark>
      <Placemark>
         <Snippet maxLines="0"> </Snippet>
         <description>14, UTC 17:10:50
37.4166021,-122.0820235,EA2.0m
Alt -23.6 m, EA 1.0 m
Vel -0.0,0.0, EA 0.00 m/s</description>
         <Style>
            <IconStyle>
               <Icon>
                  <href>http://maps.google.com/mapfiles/kml/shapes/shaded_dot.png</href>
               </Icon>
               <scale>0.6</scale>
               <color>bfed8548</color>
            </IconStyle>
         </Style>
         <Point>
            <coordinates>-122.0820235,37.4166020833333,0</coordinates>
         </Point>
      </Placemark>
      <Placemark>
         <Snippet maxLines="0"> </Snippet>
         <description>15, UTC 17:10:51
37.4166021,-122.0820234,EA2.0m
Alt -23.5 m, EA 1.0 m
Vel -0.0,0.0, EA 0.00 m/s</description>
         <Style>
            <IconStyle>
               <Icon>
                  <href>http://maps.google.com/mapfiles/kml/shapes/shaded_dot.png</href>
               </Icon>
               <scale>0.6</scale>
               <color>bfed8548</color>
            </IconStyle>
         </Style>
         <Point>
            <coordinates>-122.082023383333,37.4166020833333,0</coordinates>
         </Point>
      </Placemark>
      <Placemark>
         <Snippet maxLines="0"> </Snippet>
         <description>16, UTC 17:10:52
37.4166020,-122.0820232,EA2.0m
Alt -23.5 m, EA 1.0 m
Vel -0.0,0.0, EA 0.00 m/s</description>
         <Style>
            <IconStyle>
               <Icon>
                  <href>http://maps.google.com/mapfiles/kml/shapes/shaded_dot.png</href>
               </Icon>
               <scale>0.6</scale>
               <color>bfed8548</color>
            </IconStyle>
         </Style>
         <Point>
            <coordinates>-122.082023183333,37.4166019833333,0</coordinates>
         </Point>
      </Placemark>
      <Placemark>
         <Snippet maxLines="0"> </Snippet>
         <description>17, UTC 17:10:53
37.4166020,-122.0820233,EA2.0m
Alt -23.5 m, EA 1.0 m
Vel -0.0,0.0, EA 0.00 m/s</description>
         <Style>
            <IconStyle>
               <Icon>
                  <href>http://maps.google.com/mapfiles/kml/shapes/shaded_dot.png</href>
               </Icon>
               <scale>0.6</scale>
               <color>bfed8548</color>
            </IconStyle>
         </Style>
         <Point>
            <coordinates>-122.0820233,37.4166019833333,0</coordinates>
         </Point>
      </Placemark>
      <Placemark>
         <Snippet maxLines="0"> </Snippet>
         <description>18, UTC 17:10:54
37.4166020,-122.0820233,EA2.0m
Alt -23.4 m, EA 1.0 m
Vel -0.0,0.0, EA 0.00 m/s</description>
         <Style>
            <IconStyle>
               <Icon>
                  <href>http://maps.google.com/mapfiles/kml/shapes/shaded_dot.png</href>
               </Icon>
               <scale>0.6</scale>
               <color>bfed8548</color>
            </IconStyle>
         </Style>
         <Point>
            <coordinates>-122.0820233,37.4166019833333,0</coordinates>
         </Point>
      </Placemark>
      <Placemark>
         <Snippet maxLines="0"> </Snippet>
         <description>19, UTC 17:10:55
37.4166017,-122.0820232,EA2.0m
Alt -23.4 m, EA 1.0 m
Vel -0.0,0.0, EA 0.00 m/s</description>
         <Style>
            <IconStyle>
               <Icon>
                  <href>http://maps.google.com/mapfiles/kml/shapes/shaded_dot.png</href>
               </Icon>
               <scale>0.6</scale>
               <color>bfed8548</color>
            </IconStyle>
         </Style>
         <Point>
            <coordinates>-122.082023183333,37.4166017,0</coordinates>
         </Point>
      </Placemark>
      <Placemark>
         <Snippet maxLines="0"> </Snippet>
         <description>20, UTC 17:10:56
37.4166018,-122.0820231,EA2.0m
Alt -23.4 m, EA 1.0 m
Vel -0.0,0.0, EA 0.00 m/s</description>
         <Style>
            <IconStyle>
               <Icon>
                  <href>http://maps.google.com/mapfiles/kml/shapes/shaded_dot.png</href>
               </Icon>
               <scale>0.6</scale>
               <color>bfed8548</color>
            </IconStyle>
         </Style>
         <Point>
            <coordinates>-122.0820231,37.4166018,0</coordinates>
         </Point>
      </Placemark>
      <Placemark>
         <Snippet maxLines="0"> </Snippet>
         <description>21, UTC 17:10:57
37.4166018,-122.0820230,EA2.0m
Alt -23.3 m, EA 1.0 m
Vel -0.0,0.0, EA 0.00 m/s</description>
         <Style>
            <IconStyle>
               <Icon>
                  <href>http://maps.google.com/mapfiles/kml/shapes/shaded_dot.png</href>
               </Icon>
               <scale>0.6</scale>
               <color>bfed8548</color>
            </IconStyle>
         </Style>
         <Point>
            <coordinates>-122.082023,37.4166018,0</coordinates>
         </Point>
      </Placemark>
      <Placemark>
         <Snippet maxLines="0"> </Snippet>
         <description>22, UTC 17:10:58
37.4166017,-122.0820229,EA2.0m
Alt -23.3 m, EA 1.0 m
Vel -0.0,0.0, EA 0.00 m/s</description>
         <Style>
            <IconStyle>
               <Icon>
                  <href>http://maps.google.com/mapfiles/kml/shapes/shaded_dot.png</href>
               </Icon>
               <scale>0.6</scale>
               <color>bfed8548</color>
            </IconStyle>
         </Style>
         <Point>
            <coordinates>-122.082022883333,37.4166017,0</coordinates>
         </Point>
      </Placemark>
      <Placemark>
         <Snippet maxLines="0"> </Snippet>
         <description>23, UTC 17:10:59
37.4166017,-122.0820227,EA2.0m
Alt -23.2 m, EA 1.0 m
Vel -0.0,0.0, EA 0.00 m/s</description>
         <Style>
            <IconStyle>
               <Icon>
                  <href>http://maps.google.com/mapfiles/kml/shapes/shaded_dot.png</href>
               </Icon>
               <scale>0.6</scale>
               <color>bfed8548</color>
            </IconStyle>
         </Style>
         <Point>
            <coordinates>-122.082022683333,37.4166017,0</coordinates>
         </Point>
      </Placemark>
      <Placemark>
         <Snippet maxLines="0"> </Snippet>
         <description>24, UTC 17:11:00
37.4166014,-122.0820224,EA2.0m
Alt -23.1 m, EA 1.0 m
Vel -0.0,0.0, EA 0.00 m/s</description>
         <Style>
            <IconStyle>
               <Icon>
                  <href>http://maps.google.com/mapfiles/kml/shapes/shaded_dot.png</href>
               </Icon>
               <scale>0.6</scale>
               <color>bfed8548</color>
            </IconStyle>
         </Style>
         <Point>
            <coordinates>-122.082022383333,37.4166013833333,0</coordinates>
         </Point>
      </Placemark>
      <Placemark>
         <Snippet maxLines="0"> </Snippet>
         <description>25, UTC 17:11:01
37.4166013,-122.0820222,EA2.0m
Alt -23.1 m, EA 1.0 m
Vel -0.0,0.0, EA 0.00 m/s</description>
         <Style>
            <IconStyle>
               <Icon>
                  <href>http://maps.google.com/mapfiles/kml/shapes/shaded_dot.png</href>
               </Icon>
               <scale>0.6</scale>
               <color>bfed8548</color>
            </IconStyle>
         </Style>
         <Point>
            <coordinates>-122.082022183333,37.4166013,0</coordinates>
         </Point>
      </Placemark>
      <Placemark>
         <Snippet maxLines="0"> </Snippet>
         <description>26, UTC 17:11:02
37.4166012,-122.0820220,EA2.0m
Alt -23.0 m, EA 1.0 m
Vel -0.0,0.0, EA 0.00 m/s</description>
         <Style>
            <IconStyle>
               <Icon>
                  <href>http://maps.google.com/mapfiles/kml/shapes/shaded_dot.png</href>
               </Icon>
               <scale>0.6</scale>
               <color>bfed8548</color>
            </IconStyle>
         </Style>
         <Point>
            <coordinates>-122.082021983333,37.4166012,0</coordinates>
         </Point>
      </Placemark>
      <Placemark>
         <Snippet maxLines="0"> </Snippet>
         <description>27, UTC 17:11:03
37.4166012,-122.0820217,EA2.0m
Alt -23.0 m, EA 1.0 m
Vel -0.0,0.0, EA 0.00 m/s</description>
         <Style>
            <IconStyle>
               <Icon>
                  <href>http://maps.google.com/mapfiles/kml/shapes/shaded_dot.png</href>
               </Icon>
               <scale>0.6</scale>
               <color>bfed8548</color>
            </IconStyle>
         </Style>
         <Point>
            <coordinates>-122.082021683333,37.4166012,0</coordinates>
         </Point>
      </Placemark>
      <Placemark>
         <Snippet maxLines="0"> </Snippet>
         <description>28, UTC 17:11:04
37.4166009,-122.0820215,EA2.0m
Alt -23.0 m, EA 1.0 m
Vel -0.0,0.0, EA 0.00 m/s</description>
         <Style>
            <IconStyle>
               <Icon>
                  <href>http://maps.google.com/mapfiles/kml/shapes/shaded_dot.png</href>
               </Icon>
               <scale>0.6</scale>
               <color>bfed8548</color>
            </IconStyle>
         </Style>
         <Point>
            <coordinates>-122.082021483333,37.4166008833333,0</coordinates>
         </Point>
      </Placemark>
      <Placemark>
         <Snippet maxLines="0"> </Snippet>
         <description>29, UTC 17:11:05
37.4166009,-122.0820213,EA2.0m
Alt -23.0 m, EA 1.0 m
Vel -0.0,0.0, EA 0.00 m/s</description>
         <Style>
            <IconStyle>
               <Icon>
                  <href>http://maps.google.com/mapfiles/kml/shapes/shaded_dot.png</href>
               </Icon>
               <scale>0.6</scale>
               <color>bfed8548</color>
            </IconStyle>
         </Style>
         <Point>
            <coordinates>-122.082021283333,37.4166008833333,0</coordinates>
         </Point>
      </Placemark>
      <Placemark>
         <Snippet maxLines="0"> </Snippet>
         <description>30, UTC 17:11:06
37.4166009,-122.0820213,EA2.0m
Alt -22.9 m, EA 1.0 m
Vel -0.0,0.0, EA 0.00 m/s</description>
         <Style>
            <IconStyle>
               <Icon>
                  <href>http://maps.google.com/mapfiles/kml/shapes/shaded_dot.png</href>
               </Icon>
               <scale>0.6</scale>
               <color>bfed8548</color>
            </IconStyle>
         </Style>
         <Point>
            <coordinates>-122.082021283333,37.4166008833333,0</coordinates>
         </Point>
      </Placemark>
      <Placemark>
         <Snippet maxLines="0"> </Snippet>
         <description>31, UTC 17:11:07
37.4166009,-122.0820212,EA4.0m
Alt -22.9 m, EA 1.0 m
Vel -0.0,0.0, EA 0.00 m/s</description>
         <Style>
            <IconStyle>
               <Icon>
                  <href>http://maps.google.com/mapfiles/kml/shapes/shaded_dot.png</href>
               </Icon>
               <scale>0.6</scale>
               <color>bfed8548</color>
            </IconStyle>
         </Style>
         <Point>
            <coordinates>-122.082021183333,37.4166008833333,0</coordinates>
         </Point>
      </Placemark>
      <Placemark>
         <Snippet maxLines="0"> </Snippet>
         <description>32, UTC 17:11:08
37.4166009,-122.0820212,EA4.0m
Alt -22.9 m, EA 1.0 m
Vel -0.0,0.0, EA 0.00 m/s</description>
         <Style>
            <IconStyle>
               <Icon>
                  <href>http://maps.google.com/mapfiles/kml/shapes/shaded_dot.png</href>
               </Icon>
               <scale>0.6</scale>
               <color>bfed8548</color>
            </IconStyle>
         </Style>
         <Point>
            <coordinates>-122.082021183333,37.4166008833333,0</coordinates>
         </Point>
      </Placemark>
      <Placemark>
         <Snippet maxLines="0"> </Snippet>
         <description>33, UTC 17:11:09
37.4166010,-122.0820211,EA4.0m
Alt -22.9 m, EA 1.0 m
Vel -0.0,0.0, EA 0.00 m/s</description>
         <Style>
            <IconStyle>
               <Icon>
                  <href>http://maps.google.com/mapfiles/kml/shapes/shaded_dot.png</href>
               </Icon>
               <scale>0.6</scale>
               <color>bfed8548</color>
            </IconStyle>
         </Style>
         <Point>
            <coordinates>-122.0820211,37.416601,0</coordinates>
         </Point>
      </Placemark>
      <Placemark>
         <Snippet maxLines="0"> </Snippet>
         <description>34, UTC 17:11:10
37.4166009,-122.0820210,EA4.0m
Alt -22.9 m, EA 1.0 m
Vel -0.0,0.0, EA 0.00 m/s</description>
         <Style>
            <IconStyle>
               <Icon>
                  <href>http://maps.google.com/mapfiles/kml/shapes/shaded_dot.png</href>
               </Icon>
               <scale>0.6</scale>
               <color>bfed8548</color>
            </IconStyle>
         </Style>
         <Point>
            <coordinates>-122.082020983333,37.4166008833333,0</coordinates>
         </Point>
      </Placemark>
      <Placemark>
         <Snippet maxLines="0"> </Snippet>
         <description>35, UTC 17:11:11
37.4166008,-122.0820209,EA4.0m
Alt -22.9 m, EA 1.0 m
Vel -0.0,0.0, EA 0.00 m/s</description>
         <Style>
            <IconStyle>
               <Icon>
                  <href>http://maps.google.com/mapfiles/kml/shapes/shaded_dot.png</href>
               </Icon>
               <scale>0.6</scale>
               <color>bfed8548</color>
            </IconStyle>
         </Style>
         <Point>
            <coordinates>-122.0820209,37.4166007833333,0</coordinates>
         </Point>
      </Placemark>
      <Placemark>
         <Snippet maxLines="0"> </Snippet>
         <description>36, UTC 17:11:12
37.4166006,-122.0820208,EA4.0m
Alt -22.9 m, EA 1.0 m
Vel -0.0,0.0, EA 0.00 m/s</description>
         <Style>
            <IconStyle>
               <Icon>
                  <href>http://maps.google.com/mapfiles/kml/shapes/shaded_dot.png</href>
               </Icon>
               <scale>0.6</scale>
               <color>bfed8548</color>
            </IconStyle>
         </Style>
         <Point>
            <coordinates>-122.082020783333,37.4166006,0</coordinates>
         </Point>
      </Placemark>
      <Placemark>
         <Snippet maxLines="0"> </Snippet>
         <description>37, UTC 17:11:13
37.4166004,-122.0820206,EA4.0m
Alt -22.9 m, EA 1.0 m
Vel -0.0,0.0, EA 0.00 m/s</description>
         <Style>
            <IconStyle>
               <Icon>
                  <href>http://maps.google.com/mapfiles/kml/shapes/shaded_dot.png</href>
               </Icon>
               <scale>0.6</scale>
               <color>bfed8548</color>
            </IconStyle>
         </Style>
         <Point>
            <coordinates>-122.0820206,37.4166004,0</coordinates>
         </Point>
      </Placemark>
      <Placemark>
         <Snippet maxLines="0"> </Snippet>
         <description>38, UTC 17:11:14
37.4166003,-122.0820206,EA4.0m
Alt -22.9 m, EA 1.0 m
Vel -0.0,0.0, EA 0.00 m/s</description>
         <Style>
            <IconStyle>
               <Icon>
                  <href>http://maps.google.com/mapfiles/kml/shapes/shaded_dot.png</href>
               </Icon>
               <scale>0.6</scale>
               <color>bfed8548</color>
            </IconStyle>
         </Style>
         <Point>
            <coordinates>-122.0820206,37.4166002833333,0</coordinates>
         </Point>
      </Placemark>
      <Placemark>
         <Snippet maxLines="0"> </Snippet>
         <description>39, UTC 17:11:15
37.4166003,-122.0820207,EA4.0m
Alt -22.9 m, EA 1.0 m
Vel -0.0,0.0, EA 0.00 m/s</description>
         <Style>
            <IconStyle>
               <Icon>
                  <href>http://maps.google.com/mapfiles/kml/shapes/shaded_dot.png</href>
               </Icon>
               <scale>0.6</scale>
               <color>bfed8548</color>
            </IconStyle>
         </Style>
         <Point>
            <coordinates>-122.0820207,37.4166002833333,0</coordinates>
         </Point>
      </Placemark>
      <Placemark>
         <Snippet maxLines="0"> </Snippet>
         <description>40, UTC 17:11:16
37.4166002,-122.0820206,EA4.0m
Alt -22.9 m, EA 1.0 m
Vel -0.0,0.0, EA 0.00 m/s</description>
         <Style>
            <IconStyle>
               <Icon>
                  <href>http://maps.google.com/mapfiles/kml/shapes/shaded_dot.png</href>
               </Icon>
               <scale>0.6</scale>
               <color>bfed8548</color>
            </IconStyle>
         </Style>
         <Point>
            <coordinates>-122.0820206,37.4166001833333,0</coordinates>
         </Point>
      </Placemark>
      <Placemark>
         <Snippet maxLines="0"> </Snippet>
         <description>41, UTC 17:11:17
37.4166001,-122.0820205,EA4.0m
Alt -22.9 m, EA 1.0 m
Vel -0.0,0.0, EA 0.00 m/s</description>
         <Style>
            <IconStyle>
               <Icon>
                  <href>http://maps.google.com/mapfiles/kml/shapes/shaded_dot.png</href>
               </Icon>
               <scale>0.6</scale>
               <color>bfed8548</color>
            </IconStyle>
         </Style>
         <Point>
            <coordinates>-122.082020483333,37.4166000833333,0</coordinates>
         </Point>
      </Placemark>
      <Placemark>
         <Snippet maxLines="0"> </Snippet>
         <description>42, UTC 17:11:18
37.4166000,-122.0820204,EA4.0m
Alt -22.9 m, EA 1.0 m
Vel -0.0,0.0, EA 0.00 m/s</description>
         <Style>
            <IconStyle>
               <Icon>
                  <href>http://maps.google.com/mapfiles/kml/shapes/shaded_dot.png</href>
               </Icon>
               <scale>0.6</scale>
               <color>bfed8548</color>
            </IconStyle>
         </Style>
         <Point>
            <coordinates>-122.0820204,37.4166,0</coordinates>
         </Point>
      </Placemark>
      <Placemark>
         <Snippet maxLines="0"> </Snippet>
         <description>43, UTC 17:11:19
37.4166000,-122.0820204,EA4.0m
Alt -22.9 m, EA 1.0 m
Vel -0.0,0.0, EA 0.00 m/s</description>
         <Style>
            <IconStyle>
               <Icon>
                  <href>http://maps.google.com/mapfiles/kml/shapes/shaded_dot.png</href>
               </Icon>
               <scale>0.6</scale>
               <color>bfed8548</color>
            </IconStyle>
         </Style>
         <Point>
            <coordinates>-122.0820204,37.4166,0</coordinates>
         </Point>
      </Placemark>
      <Placemark>
         <Snippet maxLines="0"> </Snippet>
         <description>44, UTC 17:11:20
37.4166000,-122.0820204,EA4.0m
Alt -22.9 m, EA 1.0 m
Vel -0.0,0.0, EA 0.00 m/s</description>
         <Style>
            <IconStyle>
               <Icon>
                  <href>http://maps.google.com/mapfiles/kml/shapes/shaded_dot.png</href>
               </Icon>
               <scale>0.6</scale>
               <color>bfed8548</color>
            </IconStyle>
         </Style>
         <Point>
            <coordinates>-122.0820204,37.4166,0</coordinates>
         </Point>
      </Placemark>
      <Placemark>
         <Snippet maxLines="0"> </Snippet>
         <description>45, UTC 17:11:21
37.4166001,-122.0820204,EA4.0m
Alt -22.9 m, EA 1.0 m
Vel -0.0,0.0, EA 0.00 m/s</description>
         <Style>
            <IconStyle>
               <Icon>
                  <href>http://maps.google.com/mapfiles/kml/shapes/shaded_dot.png</href>
               </Icon>
               <scale>0.6</scale>
               <color>bfed8548</color>
            </IconStyle>
         </Style>
         <Point>
            <coordinates>-122.0820204,37.4166000833333,0</coordinates>
         </Point>
      </Placemark>
      <Placemark>
         <Snippet maxLines="0"> </Snippet>
         <description>46, UTC 17:11:22
37.4166001,-122.0820204,EA4.0m
Alt -22.9 m, EA 1.0 m
Vel -0.0,0.0, EA 0.00 m/s</description>
         <Style>
            <IconStyle>
               <Icon>
                  <href>http://maps.google.com/mapfiles/kml/shapes/shaded_dot.png</href>
               </Icon>
               <scale>0.6</scale>
               <color>bfed8548</color>
            </IconStyle>
         </Style>
         <Point>
            <coordinates>-122.0820204,37.4166000833333,0</coordinates>
         </Point>
      </Placemark>
      <Placemark>
         <Snippet maxLines="0"> </Snippet>
         <description>47, UTC 17:11:23
37.4166002,-122.0820202,EA4.0m
Alt -22.9 m, EA 1.0 m
Vel -0.0,0.0, EA 0.00 m/s</description>
         <Style>
            <IconStyle>
               <Icon>
                  <href>http://maps.google.com/mapfiles/kml/shapes/shaded_dot.png</href>
               </Icon>
               <scale>0.6</scale>
               <color>bfed8548</color>
            </IconStyle>
         </Style>
         <Point>
            <coordinates>-122.0820202,37.4166001833333,0</coordinates>
         </Point>
      </Placemark>
      <Placemark>
         <Snippet maxLines="0"> </Snippet>
         <description>48, UTC 17:11:24
37.4166003,-122.0820202,EA4.0m
Alt -23.0 m, EA 1.0 m
Vel -0.0,0.0, EA 0.00 m/s</description>
         <Style>
            <IconStyle>
               <Icon>
                  <href>http://maps.google.com/mapfiles/kml/shapes/shaded_dot.png</href>
               </Icon>
               <scale>0.6</scale>
               <color>bfed8548</color>
            </IconStyle>
         </Style>
         <Point>
            <coordinates>-122.0820202,37.4166002833333,0</coordinates>
         </Point>
      </Placemark>
      <Placemark>
         <Snippet maxLines="0"> </Snippet>
         <description>49, UTC 17:11:25
37.4166004,-122.0820202,EA4.0m
Alt -23.1 m, EA 1.0 m
Vel -0.0,0.0, EA 0.00 m/s</description>
         <Style>
            <IconStyle>
               <Icon>
                  <href>http://maps.google.com/mapfiles/kml/shapes/shaded_dot.png</href>
               </Icon>
               <scale>0.6</scale>
               <color>bfed8548</color>
            </IconStyle>
         </Style>
         <Point>
            <coordinates>-122.0820202,37.4166004,0</coordinates>
         </Point>
      </Placemark>
      <Placemark>
         <Snippet maxLines="0"> </Snippet>
         <description>50, UTC 17:11:26
37.4166007,-122.0820202,EA4.0m
Alt -23.1 m, EA 1.0 m
Vel -0.0,0.0, EA 0.00 m/s</description>
         <Style>
            <IconStyle>
               <Icon>
                  <href>http://maps.google.com/mapfiles/kml/shapes/shaded_dot.png</href>
               </Icon>
               <scale>0.6</scale>
               <color>bfed8548</color>
            </IconStyle>
         </Style>
         <Point>
            <coordinates>-122.0820202,37.4166006833333,0</coordinates>
         </Point>
      </Placemark>
      <Placemark>
         <Snippet maxLines="0"> </Snippet>
         <description>51, UTC 17:11:27
37.4166008,-122.0820201,EA4.0m
Alt -23.1 m, EA 1.0 m
Vel -0.0,0.0, EA 0.00 m/s</description>
         <Style>
            <IconStyle>
               <Icon>
                  <href>http://maps.google.com/mapfiles/kml/shapes/shaded_dot.png</href>
               </Icon>
               <scale>0.6</scale>
               <color>bfed8548</color>
            </IconStyle>
         </Style>
         <Point>
            <coordinates>-122.082020083333,37.4166007833333,0</coordinates>
         </Point>
      </Placemark>
      <Placemark>
         <Snippet maxLines="0"> </Snippet>
         <description>52, UTC 17:11:28
37.4166007,-122.0820200,EA4.0m
Alt -23.0 m, EA 1.0 m
Vel -0.0,0.0, EA 0.00 m/s</description>
         <Style>
            <IconStyle>
               <Icon>
                  <href>http://maps.google.com/mapfiles/kml/shapes/shaded_dot.png</href>
               </Icon>
               <scale>0.6</scale>
               <color>bfed8548</color>
            </IconStyle>
         </Style>
         <Point>
            <coordinates>-122.082019983333,37.4166006833333,0</coordinates>
         </Point>
      </Placemark>
      <Placemark>
         <Snippet maxLines="0"> </Snippet>
         <description>53, UTC 17:11:29
37.4166008,-122.0820198,EA4.0m
Alt -23.1 m, EA 1.0 m
Vel -0.0,0.0, EA 0.00 m/s</description>
         <Style>
            <IconStyle>
               <Icon>
                  <href>http://maps.google.com/mapfiles/kml/shapes/shaded_dot.png</href>
               </Icon>
               <scale>0.6</scale>
               <color>bfed8548</color>
            </IconStyle>
         </Style>
         <Point>
            <coordinates>-122.082019783333,37.4166007833333,0</coordinates>
         </Point>
      </Placemark>
      <Placemark>
         <Snippet maxLines="0"> </Snippet>
         <description>54, UTC 17:11:30
37.4166008,-122.0820198,EA4.0m
Alt -23.0 m, EA 1.0 m
Vel -0.0,0.0, EA 0.00 m/s</description>
         <Style>
            <IconStyle>
               <Icon>
                  <href>http://maps.google.com/mapfiles/kml/shapes/shaded_dot.png</href>
               </Icon>
               <scale>0.6</scale>
               <color>bfed8548</color>
            </IconStyle>
         </Style>
         <Point>
            <coordinates>-122.082019783333,37.4166007833333,0</coordinates>
         </Point>
      </Placemark>
      <Placemark>
         <Snippet maxLines="0"> </Snippet>
         <description>55, UTC 17:11:31
37.4166008,-122.0820196,EA4.0m
Alt -23.0 m, EA 1.0 m
Vel -0.0,0.0, EA 0.00 m/s</description>
         <Style>
            <IconStyle>
               <Icon>
                  <href>http://maps.google.com/mapfiles/kml/shapes/shaded_dot.png</href>
               </Icon>
               <scale>0.6</scale>
               <color>bfed8548</color>
            </IconStyle>
         </Style>
         <Point>
            <coordinates>-122.082019583333,37.4166007833333,0</coordinates>
         </Point>
      </Placemark>
      <Placemark>
         <Snippet maxLines="0"> </Snippet>
         <description>56, UTC 17:11:32
37.4166008,-122.0820194,EA4.0m
Alt -23.0 m, EA 1.0 m
Vel -0.0,0.0, EA 0.00 m/s</description>
         <Style>
            <IconStyle>
               <Icon>
                  <href>http://maps.google.com/mapfiles/kml/shapes/shaded_dot.png</href>
               </Icon>
               <scale>0.6</scale>
               <color>bfed8548</color>
            </IconStyle>
         </Style>
         <Point>
            <coordinates>-122.082019383333,37.4166007833333,0</coordinates>
         </Point>
      </Placemark>
      <Placemark>
         <Snippet maxLines="0"> </Snippet>
         <description>57, UTC 17:11:33
37.4166007,-122.0820191,EA4.0m
Alt -23.0 m, EA 1.0 m
Vel -0.0,0.0, EA 0.00 m/s</description>
         <Style>
            <IconStyle>
               <Icon>
                  <href>http://maps.google.com/mapfiles/kml/shapes/shaded_dot.png</href>
               </Icon>
               <scale>0.6</scale>
               <color>bfed8548</color>
            </IconStyle>
         </Style>
         <Point>
            <coordinates>-122.082019083333,37.4166006833333,0</coordinates>
         </Point>
      </Placemark>
      <Placemark>
         <Snippet maxLines="0"> </Snippet>
         <description>58, UTC 17:11:34
37.4166007,-122.0820190,EA4.0m
Alt -23.0 m, EA 1.0 m
Vel -0.0,0.0, EA 0.00 m/s</description>
         <Style>
            <IconStyle>
               <Icon>
                  <href>http://maps.google.com/mapfiles/kml/shapes/shaded_dot.png</href>
               </Icon>
               <scale>0.6</scale>
               <color>bfed8548</color>
            </IconStyle>
         </Style>
         <Point>
            <coordinates>-122.082019,37.4166006833333,0</coordinates>
         </Point>
      </Placemark>
      <Placemark>
         <Snippet maxLines="0"> </Snippet>
         <description>59, UTC 17:11:35
37.4166007,-122.0820189,EA4.0m
Alt -23.0 m, EA 1.0 m
Vel -0.0,0.0, EA 0.00 m/s</description>
         <Style>
            <IconStyle>
               <Icon>
                  <href>http://maps.google.com/mapfiles/kml/shapes/shaded_dot.png</href>
               </Icon>
               <scale>0.6</scale>
               <color>bfed8548</color>
            </IconStyle>
         </Style>
         <Point>
            <coordinates>-122.082018883333,37.4166006833333,0</coordinates>
         </Point>
      </Placemark>
      <Placemark>
         <Snippet maxLines="0"> </Snippet>
         <description>60, UTC 17:11:36
37.4166008,-122.0820187,EA4.0m
Alt -22.9 m, EA 1.0 m
Vel -0.0,0.0, EA 0.00 m/s</description>
         <Style>
            <IconStyle>
               <Icon>
                  <href>http://maps.google.com/mapfiles/kml/shapes/shaded_dot.png</href>
               </Icon>
               <scale>0.6</scale>
               <color>bfed8548</color>
            </IconStyle>
         </Style>
         <Point>
            <coordinates>-122.0820187,37.4166007833333,0</coordinates>
         </Point>
      </Placemark>
      <Placemark>
         <Snippet maxLines="0"> </Snippet>
         <description>61, UTC 17:11:37
37.4166007,-122.0820186,EA4.0m
Alt -22.9 m, EA 1.0 m
Vel -0.0,0.0, EA 0.00 m/s</description>
         <Style>
            <IconStyle>
               <Icon>
                  <href>http://maps.google.com/mapfiles/kml/shapes/shaded_dot.png</href>
               </Icon>
               <scale>0.6</scale>
               <color>bfed8548</color>
            </IconStyle>
         </Style>
         <Point>
            <coordinates>-122.082018583333,37.4166006833333,0</coordinates>
         </Point>
      </Placemark>
      <Placemark>
         <Snippet maxLines="0"> </Snippet>
         <description>62, UTC 17:11:38
37.4166006,-122.0820185,EA4.0m
Alt -22.9 m, EA 1.0 m
Vel -0.0,0.0, EA 0.00 m/s</description>
         <Style>
            <IconStyle>
               <Icon>
                  <href>http://maps.google.com/mapfiles/kml/shapes/shaded_dot.png</href>
               </Icon>
               <scale>0.6</scale>
               <color>bfed8548</color>
            </IconStyle>
         </Style>
         <Point>
            <coordinates>-122.0820185,37.4166006,0</coordinates>
         </Point>
      </Placemark>
      <Placemark>
         <Snippet maxLines="0"> </Snippet>
         <description>63, UTC 17:11:39
37.4166006,-122.0820183,EA4.0m
Alt -22.9 m, EA 1.0 m
Vel -0.0,0.0, EA 0.00 m/s</description>
         <Style>
            <IconStyle>
               <Icon>
                  <href>http://maps.google.com/mapfiles/kml/shapes/shaded_dot.png</href>
               </Icon>
               <scale>0.6</scale>
               <color>bfed8548</color>
            </IconStyle>
         </Style>
         <Point>
            <coordinates>-122.0820183,37.4166006,0</coordinates>
         </Point>
      </Placemark>
      <Placemark>
         <Snippet maxLines="0"> </Snippet>
         <description>64, UTC 17:11:40
37.4166006,-122.0820183,EA4.0m
Alt -22.8 m, EA 1.0 m
Vel -0.0,0.0, EA 0.00 m/s</description>
         <Style>
            <IconStyle>
               <Icon>
                  <href>http://maps.google.com/mapfiles/kml/shapes/shaded_dot.png</href>
               </Icon>
               <scale>0.6</scale>
               <color>bfed8548</color>
            </IconStyle>
         </Style>
         <Point>
            <coordinates>-122.0820183,37.4166006,0</coordinates>
         </Point>
      </Placemark>
      <Placemark>
         <Snippet maxLines="0"> </Snippet>
         <description>65, UTC 17:11:41
37.4166007,-122.0820182,EA4.0m
Alt -22.9 m, EA 1.0 m
Vel -0.0,0.0, EA 0.00 m/s</description>
         <Style>
            <IconStyle>
               <Icon>
                  <href>http://maps.google.com/mapfiles/kml/shapes/shaded_dot.png</href>
               </Icon>
               <scale>0.6</scale>
               <color>bfed8548</color>
            </IconStyle>
         </Style>
         <Point>
            <coordinates>-122.082018183333,37.4166006833333,0</coordinates>
         </Point>
      </Placemark>
      <Placemark>
         <Snippet maxLines="0"> </Snippet>
         <description>66, UTC 17:11:42
37.4166006,-122.0820181,EA4.0m
Alt -22.8 m, EA 1.0 m
Vel -0.0,0.0, EA 0.00 m/s</description>
         <Style>
            <IconStyle>
               <Icon>
                  <href>http://maps.google.com/mapfiles/kml/shapes/shaded_dot.png</href>
               </Icon>
               <scale>0.6</scale>
               <color>bfed8548</color>
            </IconStyle>
         </Style>
         <Point>
            <coordinates>-122.082018083333,37.4166006,0</coordinates>
         </Point>
      </Placemark>
      <Placemark>
         <Snippet maxLines="0"> </Snippet>
         <description>67, UTC 17:11:43
37.4166004,-122.0820180,EA4.0m
Alt -22.9 m, EA 1.0 m
Vel -0.0,0.0, EA 0.00 m/s</description>
         <Style>
            <IconStyle>
               <Icon>
                  <href>http://maps.google.com/mapfiles/kml/shapes/shaded_dot.png</href>
               </Icon>
               <scale>0.6</scale>
               <color>bfed8548</color>
            </IconStyle>
         </Style>
         <Point>
            <coordinates>-122.082018,37.4166004,0</coordinates>
         </Point>
      </Placemark>
      <Placemark>
         <Snippet maxLines="0"> </Snippet>
         <description>68, UTC 17:11:44
37.4166004,-122.0820178,EA4.0m
Alt -22.8 m, EA 1.0 m
Vel -0.0,0.0, EA 0.00 m/s</description>
         <Style>
            <IconStyle>
               <Icon>
                  <href>http://maps.google.com/mapfiles/kml/shapes/shaded_dot.png</href>
               </Icon>
               <scale>0.6</scale>
               <color>bfed8548</color>
            </IconStyle>
         </Style>
         <Point>
            <coordinates>-122.0820178,37.4166004,0</coordinates>
         </Point>
      </Placemark>
      <Placemark>
         <Snippet maxLines="0"> </Snippet>
         <description>69, UTC 17:11:45
37.4166005,-122.0820179,EA4.0m
Alt -22.9 m, EA 1.0 m
Vel -0.0,0.0, EA 0.00 m/s</description>
         <Style>
            <IconStyle>
               <Icon>
                  <href>http://maps.google.com/mapfiles/kml/shapes/shaded_dot.png</href>
               </Icon>
               <scale>0.6</scale>
               <color>bfed8548</color>
            </IconStyle>
         </Style>
         <Point>
            <coordinates>-122.082017883333,37.4166005,0</coordinates>
         </Point>
      </Placemark>
      <Placemark>
         <Snippet maxLines="0"> </Snippet>
         <description>70, UTC 17:11:46
37.4166003,-122.0820178,EA4.0m
Alt -22.8 m, EA 1.0 m
Vel -0.0,0.0, EA 0.00 m/s</description>
         <Style>
            <IconStyle>
               <Icon>
                  <href>http://maps.google.com/mapfiles/kml/shapes/shaded_dot.png</href>
               </Icon>
               <scale>0.6</scale>
               <color>bfed8548</color>
            </IconStyle>
         </Style>
         <Point>
            <coordinates>-122.0820178,37.4166002833333,0</coordinates>
         </Point>
      </Placemark>
      <Placemark>
         <Snippet maxLines="0"> </Snippet>
         <description>71, UTC 17:11:47
37.4166003,-122.0820179,EA4.0m
Alt -22.9 m, EA 1.0 m
Vel -0.0,0.0, EA 0.00 m/s</description>
         <Style>
            <IconStyle>
               <Icon>
                  <href>http://maps.google.com/mapfiles/kml/shapes/shaded_dot.png</href>
               </Icon>
               <scale>0.6</scale>
               <color>bfed8548</color>
            </IconStyle>
         </Style>
         <Point>
            <coordinates>-122.082017883333,37.4166002833333,0</coordinates>
         </Point>
      </Placemark>
      <Placemark>
         <Snippet maxLines="0"> </Snippet>
         <description>72, UTC 17:11:48
37.4166003,-122.0820181,EA4.0m
Alt -22.9 m, EA 1.0 m
Vel -0.0,0.0, EA 0.00 m/s</description>
         <Style>
            <IconStyle>
               <Icon>
                  <href>http://maps.google.com/mapfiles/kml/shapes/shaded_dot.png</href>
               </Icon>
               <scale>0.6</scale>
               <color>bfed8548</color>
            </IconStyle>
         </Style>
         <Point>
            <coordinates>-122.082018083333,37.4166002833333,0</coordinates>
         </Point>
      </Placemark>
      <Placemark>
         <Snippet maxLines="0"> </Snippet>
         <description>73, UTC 17:11:49
37.4166001,-122.0820180,EA4.0m
Alt -22.9 m, EA 1.0 m
Vel -0.0,0.0, EA 0.00 m/s</description>
         <Style>
            <IconStyle>
               <Icon>
                  <href>http://maps.google.com/mapfiles/kml/shapes/shaded_dot.png</href>
               </Icon>
               <scale>0.6</scale>
               <color>bfed8548</color>
            </IconStyle>
         </Style>
         <Point>
            <coordinates>-122.082018,37.4166000833333,0</coordinates>
         </Point>
      </Placemark>
      <Placemark>
         <Snippet maxLines="0"> </Snippet>
         <description>74, UTC 17:11:50
37.4166001,-122.0820179,EA4.0m
Alt -22.9 m, EA 1.0 m
Vel -0.0,0.0, EA 0.00 m/s</description>
         <Style>
            <IconStyle>
               <Icon>
                  <href>http://maps.google.com/mapfiles/kml/shapes/shaded_dot.png</href>
               </Icon>
               <scale>0.6</scale>
               <color>bfed8548</color>
            </IconStyle>
         </Style>
         <Point>
            <coordinates>-122.082017883333,37.4166000833333,0</coordinates>
         </Point>
      </Placemark>
      <Placemark>
         <Snippet maxLines="0"> </Snippet>
         <description>75, UTC 17:11:51
37.4165999,-122.0820179,EA4.0m
Alt -22.8 m, EA 1.0 m
Vel -0.0,0.0, EA 0.00 m/s</description>
         <Style>
            <IconStyle>
               <Icon>
                  <href>http://maps.google.com/mapfiles/kml/shapes/shaded_dot.png</href>
               </Icon>
               <scale>0.6</scale>
               <color>bfed8548</color>
            </IconStyle>
         </Style>
         <Point>
            <coordinates>-122.082017883333,37.4165999,0</coordinates>
         </Point>
      </Placemark>
      <Placemark>
         <Snippet maxLines="0"> </Snippet>
         <description>76, UTC 17:11:52
37.4165997,-122.0820177,EA4.0m
Alt -22.8 m, EA 1.0 m
Vel -0.0,0.0, EA 0.00 m/s</description>
         <Style>
            <IconStyle>
               <Icon>
                  <href>http://maps.google.com/mapfiles/kml/shapes/shaded_dot.png</href>
               </Icon>
               <scale>0.6</scale>
               <color>bfed8548</color>
            </IconStyle>
         </Style>
         <Point>
            <coordinates>-122.082017683333,37.4165996833333,0</coordinates>
         </Point>
      </Placemark>
      <Placemark>
         <Snippet maxLines="0"> </Snippet>
         <description>77, UTC 17:11:53
37.4165997,-122.0820176,EA4.0m
Alt -22.7 m, EA 1.0 m
Vel -0.0,0.0, EA 0.00 m/s</description>
         <Style>
            <IconStyle>
               <Icon>
                  <href>http://maps.google.com/mapfiles/kml/shapes/shaded_dot.png</href>
               </Icon>
               <scale>0.6</scale>
               <color>bfed8548</color>
            </IconStyle>
         </Style>
         <Point>
            <coordinates>-122.0820176,37.4165996833333,0</coordinates>
         </Point>
      </Placemark>
      <Placemark>
         <Snippet maxLines="0"> </Snippet>
         <description>78, UTC 17:11:54
37.4165996,-122.0820177,EA4.0m
Alt -22.7 m, EA 1.0 m
Vel -0.0,0.0, EA 0.00 m/s</description>
         <Style>
            <IconStyle>
               <Icon>
                  <href>http://maps.google.com/mapfiles/kml/shapes/shaded_dot.png</href>
               </Icon>
               <scale>0.6</scale>
               <color>bfed8548</color>
            </IconStyle>
         </Style>
         <Point>
            <coordinates>-122.082017683333,37.4165995833333,0</coordinates>
         </Point>
      </Placemark>
      <Placemark>
         <Snippet maxLines="0"> </Snippet>
         <description>79, UTC 17:11:55
37.4165995,-122.0820153,EA4.0m
Alt -22.8 m, EA 1.0 m
Vel -0.0,0.2, EA 0.00 m/s</description>
         <Style>
            <IconStyle>
               <Icon>
                  <href>http://maps.google.com/mapfiles/kml/shapes/shaded_dot.png</href>
               </Icon>
               <scale>0.6</scale>
               <color>bfed8548</color>
            </IconStyle>
         </Style>
         <Point>
            <coordinates>-122.082015283333,37.4165994833333,0</coordinates>
         </Point>
      </Placemark>
      <Placemark>
         <Snippet maxLines="0"> </Snippet>
         <description>80, UTC 17:11:56
37.4165996,-122.0820003,EA4.0m
Alt -22.6 m, EA 1.0 m
Vel 0.0,1.3, EA 0.00 m/s</description>
         <Style>
            <IconStyle>
               <Icon>
                  <href>http://maps.google.com/mapfiles/kml/shapes/shaded_dot.png</href>
               </Icon>
               <scale>0.6</scale>
               <color>bfed8548</color>
            </IconStyle>
         </Style>
         <Point>
            <coordinates>-122.0820003,37.4165995833333,0</coordinates>
         </Point>
      </Placemark>
      <Placemark>
         <Snippet maxLines="0"> </Snippet>
         <description>81, UTC 17:11:57
37.4166024,-122.0819524,EA4.0m
Alt -22.5 m, EA 1.0 m
Vel 0.3,4.3, EA 0.00 m/s</description>
         <Style>
            <IconStyle>
               <Icon>
                  <href>http://maps.google.com/mapfiles/kml/shapes/shaded_dot.png</href>
               </Icon>
               <scale>0.6</scale>
               <color>bfed8548</color>
            </IconStyle>
         </Style>
         <Point>
            <coordinates>-122.0819524,37.4166024,0</coordinates>
         </Point>
      </Placemark>
      <Placemark>
         <Snippet maxLines="0"> </Snippet>
         <description>82, UTC 17:11:58
37.4166064,-122.0818840,EA4.0m
Alt -22.4 m, EA 1.0 m
Vel 0.3,8.2, EA 0.00 m/s</description>
         <Style>
            <IconStyle>
               <Icon>
                  <href>http://maps.google.com/mapfiles/kml/shapes/shaded_dot.png</href>
               </Icon>
               <scale>0.6</scale>
               <color>bfed8548</color>
            </IconStyle>
         </Style>
         <Point>
            <coordinates>-122.081884,37.4166063833333,0</coordinates>
         </Point>
      </Placemark>
      <Placemark>
         <Snippet maxLines="0"> </Snippet>
         <description>83, UTC 17:11:59
37.4166093,-122.0817748,EA4.0m
Alt -22.3 m, EA 1.0 m
Vel 0.3,9.6, EA 0.00 m/s</description>
         <Style>
            <IconStyle>
               <Icon>
                  <href>http://maps.google.com/mapfiles/kml/shapes/shaded_dot.png</href>
               </Icon>
               <scale>0.6</scale>
               <color>bfed8548</color>
            </IconStyle>
         </Style>
         <Point>
            <coordinates>-122.0817748,37.4166092833333,0</coordinates>
         </Point>
      </Placemark>
      <Placemark>
         <Snippet maxLines="0"> </Snippet>
         <description>84, UTC 17:12:00
37.4166093,-122.0816489,EA4.0m
Alt -22.2 m, EA 1.0 m
Vel 0.0,11.0, EA 0.00 m/s</description>
         <Style>
            <IconStyle>
               <Icon>
                  <href>http://maps.google.com/mapfiles/kml/shapes/shaded_dot.png</href>
               </Icon>
               <scale>0.6</scale>
               <color>bfed8548</color>
            </IconStyle>
         </Style>
         <Point>
            <coordinates>-122.0816489,37.4166092833333,0</coordinates>
         </Point>
      </Placemark>
      <Placemark>
         <Snippet maxLines="0"> </Snippet>
         <description>85, UTC 17:12:01
37.4166101,-122.0815177,EA4.0m
Alt -22.5 m, EA 1.0 m
Vel -0.5,12.2, EA 0.00 m/s</description>
         <Style>
            <IconStyle>
               <Icon>
                  <href>http://maps.google.com/mapfiles/kml/shapes/shaded_dot.png</href>
               </Icon>
               <scale>0.6</scale>
               <color>bfed8548</color>
            </IconStyle>
         </Style>
         <Point>
            <coordinates>-122.0815177,37.4166100833333,0</coordinates>
         </Point>
      </Placemark>
      <Placemark>
         <Snippet maxLines="0"> </Snippet>
         <description>86, UTC 17:12:02
37.4166034,-122.0813643,EA4.0m
Alt -22.4 m, EA 1.0 m
Vel -0.7,13.4, EA 0.00 m/s</description>
         <Style>
            <IconStyle>
               <Icon>
                  <href>http://maps.google.com/mapfiles/kml/shapes/shaded_dot.png</href>
               </Icon>
               <scale>0.6</scale>
               <color>bfed8548</color>
            </IconStyle>
         </Style>
         <Point>
            <coordinates>-122.0813643,37.4166033833333,0</coordinates>
         </Point>
      </Placemark>
      <Placemark>
         <Snippet maxLines="0"> </Snippet>
         <description>87, UTC 17:12:03
37.4165928,-122.0811980,EA4.0m
Alt -22.6 m, EA 1.0 m
Vel -0.9,14.6, EA 0.00 m/s</description>
         <Style>
            <IconStyle>
               <Icon>
                  <href>http://maps.google.com/mapfiles/kml/shapes/shaded_dot.png</href>
               </Icon>
               <scale>0.6</scale>
               <color>bfed8548</color>
            </IconStyle>
         </Style>
         <Point>
            <coordinates>-122.081198,37.4165927833333,0</coordinates>
         </Point>
      </Placemark>
      <Placemark>
         <Snippet maxLines="0"> </Snippet>
         <description>88, UTC 17:12:04
37.4165838,-122.0810220,EA4.0m
Alt -22.6 m, EA 1.0 m
Vel -1.0,15.3, EA 0.00 m/s</description>
         <Style>
            <IconStyle>
               <Icon>
                  <href>http://maps.google.com/mapfiles/kml/shapes/shaded_dot.png</href>
               </Icon>
               <scale>0.6</scale>
               <color>bfed8548</color>
            </IconStyle>
         </Style>
         <Point>
            <coordinates>-122.081022,37.4165837833333,0</coordinates>
         </Point>
      </Placemark>
      <Placemark>
         <Snippet maxLines="0"> </Snippet>
         <description>89, UTC 17:12:05
37.4165731,-122.0808438,EA4.0m
Alt -22.8 m, EA 1.0 m
Vel -1.0,15.7, EA 0.00 m/s</description>
         <Style>
            <IconStyle>
               <Icon>
                  <href>http://maps.google.com/mapfiles/kml/shapes/shaded_dot.png</href>
               </Icon>
               <scale>0.6</scale>
               <color>bfed8548</color>
            </IconStyle>
         </Style>
         <Point>
            <coordinates>-122.080843783333,37.4165731,0</coordinates>
         </Point>
      </Placemark>
      <Placemark>
         <Snippet maxLines="0"> </Snippet>
         <description>90, UTC 17:12:06
37.4165644,-122.0806626,EA4.0m
Alt -22.7 m, EA 1.0 m
Vel -1.1,16.4, EA 0.00 m/s</description>
         <Style>
            <IconStyle>
               <Icon>
                  <href>http://maps.google.com/mapfiles/kml/shapes/shaded_dot.png</href>
               </Icon>
               <scale>0.6</scale>
               <color>bfed8548</color>
            </IconStyle>
         </Style>
         <Point>
            <coordinates>-122.080662583333,37.4165643833333,0</coordinates>
         </Point>
      </Placemark>
      <Placemark>
         <Snippet maxLines="0"> </Snippet>
         <description>91, UTC 17:12:07
37.4165527,-122.0804689,EA4.0m
Alt -22.9 m, EA 1.0 m
Vel -1.3,17.4, EA 0.00 m/s</description>
         <Style>
            <IconStyle>
               <Icon>
                  <href>http://maps.google.com/mapfiles/kml/shapes/shaded_dot.png</href>
               </Icon>
               <scale>0.6</scale>
               <color>bfed8548</color>
            </IconStyle>
         </Style>
         <Point>
            <coordinates>-122.080468883333,37.4165526833333,0</coordinates>
         </Point>
      </Placemark>
      <Placemark>
         <Snippet maxLines="0"> </Snippet>
         <description>92, UTC 17:12:08
37.4165415,-122.0802659,EA4.0m
Alt -23.0 m, EA 1.0 m
Vel -1.3,18.1, EA 0.00 m/s</description>
         <Style>
            <IconStyle>
               <Icon>
                  <href>http://maps.google.com/mapfiles/kml/shapes/shaded_dot.png</href>
               </Icon>
               <scale>0.6</scale>
               <color>bfed8548</color>
            </IconStyle>
         </Style>
         <Point>
            <coordinates>-122.0802659,37.4165415,0</coordinates>
         </Point>
      </Placemark>
      <Placemark>
         <Snippet maxLines="0"> </Snippet>
         <description>93, UTC 17:12:09
37.4165271,-122.0800513,EA4.0m
Alt -22.8 m, EA 1.0 m
Vel -1.4,18.8, EA 0.00 m/s</description>
         <Style>
            <IconStyle>
               <Icon>
                  <href>http://maps.google.com/mapfiles/kml/shapes/shaded_dot.png</href>
               </Icon>
               <scale>0.6</scale>
               <color>bfed8548</color>
            </IconStyle>
         </Style>
         <Point>
            <coordinates>-122.080051283333,37.4165271,0</coordinates>
         </Point>
      </Placemark>
      <Placemark>
         <Snippet maxLines="0"> </Snippet>
         <description>94, UTC 17:39:28
37.6300114,-122.4013851,EA4.0m
Alt -23.7 m, EA 1.0 m
Vel -0.0,-0.0, EA 0.00 m/s</description>
         <Style>
            <IconStyle>
               <Icon>
                  <href>http://maps.google.com/mapfiles/kml/shapes/shaded_dot.png</href>
               </Icon>
               <scale>0.6</scale>
               <color>bfed8548</color>
            </IconStyle>
         </Style>
         <Point>
            <coordinates>-122.401385083333,37.6300114,0</coordinates>
         </Point>
      </Placemark>
   </Document>
</kml>