$GPGGA,171037.00,3724.996066,N,12204.921517,W,7,,0.20,-23.51,M,0.0,M,0.0,0000*77
$GPRMC,171037.00,A,3724.996066,N,12204.921517,W,000.0,095.3,040920,,,A*47
$GPGGA,171038.00,3724.996078,N,12204.921530,W,7,,0.20,-23.60,M,0.0,M,0.0,0000*70
$GPRMC,171038.00,A,3724.996078,N,12204.921530,W,000.0,095.3,040920,,,A*42
$GPGGA,171039.00,3724.996089,N,12204.921535,W,7,,0.20,-23.65,M,0.0,M,0.0,0000*7F
$GPRMC,171039.00,A,3724.996089,N,12204.921535,W,000.0,095.3,040920,,,A*48
$GPGGA,171040.00,3724.996095,N,12204.921530,W,7,,0.20,-23.67,M,0.0,M,0.0,0000*7B
$GPRMC,171040.00,A,3724.996095,N,12204.921530,W,000.0,095.3,040920,,,A*4E
$GPGGA,171041.00,3724.996108,N,12204.921524,W,7,,0.20,-23.71,M,0.0,M,0.0,0000*7D
$GPRMC,171041.00,A,3724.996108,N,12204.921524,W,000.0,095.3,040920,,,A*4F
$GPGGA,171042.00,3724.996108,N,12204.921505,W,7,,0.20,-23.76,M,0.0,M,0.0,0000*7A
$GPRMC,171042.00,A,3724.996108,N,12204.921505,W,000.0,095.3,040920,,,A*4F
$GPGGA,171043.00,3724.996108,N,12204.921505,W,7,,0.20,-23.81,M,0.0,M,0.0,0000*73
$GPRMC,171043.00,A,3724.996108,N,12204.921505,W,000.0,095.3,040920,,,A*4E
$GPGGA,171044.00,3724.996114,N,12204.921487,W,7,,0.20,-23.76,M,0.0,M,0.0,0000*7A
$GPRMC,171044.00,A,3724.996114,N,12204.921487,W,000.0,095.3,040920,,,A*4F
$GPGGA,171045.00,3724.996119,N,12204.921475,W,7,,0.20,-23.75,M,0.0,M,0.0,0000*78
$GPRMC,171045.00,A,3724.996119,N,12204.921475,W,000.0,095.3,040920,,,A*4E
$GPGGA,171046.00,3724.996114,N,12204.921445,W,7,,0.20,-23.68,M,0.0,M,0.0,0000*79
$GPRMC,171046.00,A,3724.996114,N,12204.921445,W,000.0,095.3,040920,,,A*43
$GPGGA,171047.00,3724.996119,N,12204.921433,W,7,,0.20,-23.63,M,0.0,M,0.0,0000*7F
$GPRMC,171047.00,A,3724.996119,N,12204.921433,W,000.0,095.3,040920,,,A*4E
$GPGGA,171048.00,3724.996125,N,12204.921428,W,7,,0.20,-23.58,M,0.0,M,0.0,0000*7D
$GPRMC,171048.00,A,3724.996125,N,12204.921428,W,000.0,095.3,040920,,,A*44
$GPGGA,171049.00,3724.996125,N,12204.921421,W,7,,0.20,-23.63,M,0.0,M,0.0,0000*7D
$GPRMC,171049.00,A,3724.996125,N,12204.921421,W,000.0,095.3,040920,,,A*4C
$GPGGA,171050.00,3724.996125,N,12204.921410,W,7,,0.20,-23.59,M,0.0,M,0.0,0000*7E
$GPRMC,171050.00,A,3724.996125,N,12204.921410,W,000.0,095.3,040920,,,A*46
$GPGGA,171051.00,3724.996125,N,12204.921403,W,7,,0.20,-23.53,M,0.0,M,0.0,0000*77
$GPRMC,171051.00,A,3724.996125,N,12204.921403,W,000.0,095.3,040920,,,A*45
$GPGGA,171052.00,3724.996119,N,12204.921391,W,7,,0.20,-23.49,M,0.0,M,0.0,0000*7C
$GPRMC,171052.00,A,3724.996119,N,12204.921391,W,000.0,095.3,040920,,,A*45
$GPGGA,171053.00,3724.996119,N,12204.921398,W,7,,0.20,-23.46,M,0.0,M,0.0,0000*7B
$GPRMC,171053.00,A,3724.996119,N,12204.921398,W,000.0,095.3,040920,,,A*4D
$GPGGA,171054.00,3724.996119,N,12204.921398,W,7,,0.20,-23.43,M,0.0,M,0.0,0000*79
$GPRMC,171054.00,A,3724.996119,N,12204.921398,W,000.0,095.3,040920,,,A*4A
$GPGGA,171055.00,3724.996102,N,12204.921391,W,7,,0.20,-23.41,M,0.0,M,0.0,0000*79
$GPRMC,171055.00,A,3724.996102,N,12204.921391,W,000.0,095.3,040920,,,A*48
$GPGGA,171056.00,3724.996108,N,12204.921386,W,7,,0.20,-23.41,M,0.0,M,0.0,0000*76
$GPRMC,171056.00,A,3724.996108,N,12204.921386,W,000.0,095.3,040920,,,A*47
$GPGGA,171057.00,3724.996108,N,12204.921380,W,7,,0.20,-23.34,M,0.0,M,0.0,0000*73
$GPRMC,171057.00,A,3724.996108,N,12204.921380,W,000.0,095.3,040920,,,A*40
$GPGGA,171058.00,3724.996102,N,12204.921373,W,7,,0.20,-23.28,M,0.0,M,0.0,0000*77
$GPRMC,171058.00,A,3724.996102,N,12204.921373,W,000.0,095.3,040920,,,A*49
$GPGGA,171059.00,3724.996102,N,12204.921361,W,7,,0.20,-23.21,M,0.0,M,0.0,0000*7C
$GPRMC,171059.00,A,3724.996102,N,12204.921361,W,000.0,095.3,040920,,,A*4B
$GPGGA,171100.00,3724.996083,N,12204.921343,W,7,,0.20,-23.12,M,0.0,M,0.0,0000*79
$GPRMC,171100.00,A,3724.996083,N,12204.921343,W,000.0,095.3,040920,,,A*4E
$GPGGA,171101.00,3724.996078,N,12204.921331,W,7,,0.20,-23.08,M,0.0,M,0.0,0000*72
$GPRMC,171101.00,A,3724.996078,N,12204.921331,W,000.0,095.3,040920,,,A*4E
$GPGGA,171102.00,3724.996072,N,12204.921319,W,7,,0.20,-23.04,M,0.0,M,0.0,0000*7D
$GPRMC,171102.00,A,3724.996072,N,12204.921319,W,000.0,095.3,040920,,,A*4D
$GPGGA,171103.00,3724.996072,N,12204.921301,W,7,,0.20,-23.01,M,0.0,M,0.0,0000*70
$GPRMC,171103.00,A,3724.996072,N,12204.921301,W,000.0,095.3,040920,,,A*45
$GPGGA,171104.00,3724.996053,N,12204.921289,W,7,,0.20,-22.98,M,0.0,M,0.0,0000*74
$GPRMC,171104.00,A,3724.996053,N,12204.921289,W,000.0,095.3,040920,,,A*40
$GPGGA,171105.00,3724.996053,N,12204.921277,W,7,,0.20,-22.97,M,0.0,M,0.0,0000*7B
$GPRMC,171105.00,A,3724.996053,N,12204.921277,W,000.0,095.3,040920,,,A*40
$GPGGA,171106.00,3724.996053,N,12204.921277,W,7,,0.20,-22.93,M,0.0,M,0.0,0000*7C
$GPRMC,171106.00,A,3724.996053,N,12204.921277,W,000.0,095.3,040920,,,A*43
$GPGGA,171107.00,3724.996053,N,12204.921271,W,7,,0.40,-22.89,M,0.0,M,0.0,0000*76
$GPRMC,171107.00,A,3724.996053,N,12204.921271,W,000.0,095.3,040920,,,A*44
$GPGGA,171108.00,3724.996053,N,12204.921271,W,7,,0.40,-22.91,M,0.0,M,0.0,0000*70
$GPRMC,171108.00,A,3724.996053,N,12204.921271,W,000.0,095.3,040920,,,A*4B
$GPGGA,171109.00,3724.996060,N,12204.921266,W,7,,0.40,-22.90,M,0.0,M,0.0,0000*76
$GPRMC,171109.00,A,3724.996060,N,12204.921266,W,000.0,095.3,040920,,,A*4C
$GPGGA,171110.00,3724.996053,N,12204.921259,W,7,,0.40,-22.93,M,0.0,M,0.0,0000*71
$GPRMC,171110.00,A,3724.996053,N,12204.921259,W,000.0,095.3,040920,,,A*48
$GPGGA,171111.00,3724.996047,N,12204.921254,W,7,,0.40,-22.94,M,0.0,M,0.0,0000*7F
$GPRMC,171111.00,A,3724.996047,N,12204.921254,W,000.0,095.3,040920,,,A*41
$GPGGA,171112.00,3724.996036,N,12204.921247,W,7,,0.40,-22.91,M,0.0,M,0.0,0000*7D
$GPRMC,171112.00,A,3724.996036,N,12204.921247,W,000.0,095.3,040920,,,A*46
$GPGGA,171113.00,3724.996024,N,12204.921236,W,7,,0.40,-22.90,M,0.0,M,0.0,0000*78
$GPRMC,171113.00,A,3724.996024,N,12204.921236,W,000.0,095.3,040920,,,A*42
$GPGGA,171114.00,3724.996017,N,12204.921236,W,7,,0.40,-22.94,M,0.0,M,0.0,0000*7B
$GPRMC,171114.00,A,3724.996017,N,12204.921236,W,000.0,095.3,040920,,,A*45
$GPGGA,171115.00,3724.996017,N,12204.921242,W,7,,0.40,-22.94,M,0.0,M,0.0,0000*79
$GPRMC,171115.00,A,3724.996017,N,12204.921242,W,000.0,095.3,040920,,,A*47
$GPGGA,171116.00,3724.996011,N,12204.921236,W,7,,0.40,-22.90,M,0.0,M,0.0,0000*7B
$GPRMC,171116.00,A,3724.996011,N,12204.921236,W,000.0,095.3,040920,,,A*41
$GPGGA,171117.00,3724.996005,N,12204.921229,W,7,,0.40,-22.90,M,0.0,M,0.0,0000*71
$GPRMC,171117.00,A,3724.996005,N,12204.921229,W,000.0,095.3,040920,,,A*4B
$GPGGA,171118.00,3724.996000,N,12204.921224,W,7,,0.40,-22.87,M,0.0,M,0.0,0000*70
$GPRMC,171118.00,A,3724.996000,N,12204.921224,W,000.0,095.3,040920,,,A*4C
$GPGGA,171119.00,3724.996000,N,12204.921224,W,7,,0.40,-22.90,M,0.0,M,0.0,0000*77
$GPRMC,171119.00,A,3724.996000,N,12204.921224,W,000.0,095.3,040920,,,A*4D
$GPGGA,171120.00,3724.996000,N,12204.921224,W,7,,0.40,-22.88,M,0.0,M,0.0,0000*74
$GPRMC,171120.00,A,3724.996000,N,12204.921224,W,000.0,095.3,040920,,,A*47
$GPGGA,171121.00,3724.996005,N,12204.921224,W,7,,0.40,-22.88,M,0.0,M,0.0,0000*70
$GPRMC,171121.00,A,3724.996005,N,12204.921224,W,000.0,095.3,040920,,,A*43
$GPGGA,171122.00,3724.996005,N,12204.921224,W,7,,0.40,-22.91,M,0.0,M,0.0,0000*7B
$GPRMC,171122.00,A,3724.996005,N,12204.921224,W,000.0,095.3,040920,,,A*40
$GPGGA,171123.00,3724.996011,N,12204.921212,W,7,,0.40,-22.93,M,0.0,M,0.0,0000*78
$GPRMC,171123.00,A,3724.996011,N,12204.921212,W,000.0,095.3,040920,,,A*41
$GPGGA,171124.00,3724.996017,N,12204.921212,W,7,,0.40,-23.01,M,0.0,M,0.0,0000*73
$GPRMC,171124.00,A,3724.996017,N,12204.921212,W,000.0,095.3,040920,,,A*40
$GPGGA,171125.00,3724.996024,N,12204.921212,W,7,,0.40,-23.06,M,0.0,M,0.0,0000*75
$GPRMC,171125.00,A,3724.996024,N,12204.921212,W,000.0,095.3,040920,,,A*41
$GPGGA,171126.00,3724.996041,N,12204.921212,W,7,,0.40,-23.09,M,0.0,M,0.0,0000*7A
$GPRMC,171126.00,A,3724.996041,N,12204.921212,W,000.0,095.3,040920,,,A*41
$GPGGA,171127.00,3724.996047,N,12204.921205,W,7,,0.40,-23.06,M,0.0,M,0.0,0000*74
$GPRMC,171127.00,A,3724.996047,N,12204.921205,W,000.0,095.3,040920,,,A*40
$GPGGA,171128.00,3724.996041,N,12204.921199,W,7,,0.40,-23.03,M,0.0,M,0.0,0000*7E
$GPRMC,171128.00,A,3724.996041,N,12204.921199,W,000.0,095.3,040920,,,A*4F
$GPGGA,171129.00,3724.996047,N,12204.921187,W,7,,0.40,-23.05,M,0.0,M,0.0,0000*70
$GPRMC,171129.00,A,3724.996047,N,12204.921187,W,000.0,095.3,040920,,,A*47
$GPGGA,171130.00,3724.996047,N,12204.921187,W,7,,0.40,-23.04,M,0.0,M,0.0,0000*79
$GPRMC,171130.00,A,3724.996047,N,12204.921187,W,000.0,095.3,040920,,,A*4F
$GPGGA,171131.00,3724.996047,N,12204.921175,W,7,,0.40,-23.03,M,0.0,M,0.0,0000*72
$GPRMC,171131.00,A,3724.996047,N,12204.921175,W,000.0,095.3,040920,,,A*43
$GPGGA,171132.00,3724.996047,N,12204.921163,W,7,,0.40,-23.02,M,0.0,M,0.0,0000*77
$GPRMC,171132.00,A,3724.996047,N,12204.921163,W,000.0,095.3,040920,,,A*47
$GPGGA,171133.00,3724.996041,N,12204.921145,W,7,,0.40,-22.98,M,0.0,M,0.0,0000*76
$GPRMC,171133.00,A,3724.996041,N,12204.921145,W,000.0,095.3,040920,,,A*44
$GPGGA,171134.00,3724.996041,N,12204.921140,W,7,,0.40,-22.97,M,0.0,M,0.0,0000*7B
$GPRMC,171134.00,A,3724.996041,N,12204.921140,W,000.0,095.3,040920,,,A*46
$GPGGA,171135.00,3724.996041,N,12204.921133,W,7,,0.40,-22.96,M,0.0,M,0.0,0000*7F
$GPRMC,171135.00,A,3724.996041,N,12204.921133,W,000.0,095.3,040920,,,A*43
$GPGGA,171136.00,3724.996047,N,12204.921122,W,7,,0.40,-22.95,M,0.0,M,0.0,0000*79
$GPRMC,171136.00,A,3724.996047,N,12204.921122,W,000.0,095.3,040920,,,A*46
$GPGGA,171137.00,3724.996041,N,12204.921115,W,7,,0.40,-22.93,M,0.0,M,0.0,0000*7C
$GPRMC,171137.00,A,3724.996041,N,12204.921115,W,000.0,095.3,040920,,,A*45
$GPGGA,171138.00,3724.996036,N,12204.921110,W,7,,0.40,-22.89,M,0.0,M,0.0,0000*7D
$GPRMC,171138.00,A,3724.996036,N,12204.921110,W,000.0,095.3,040920,,,A*4F
$GPGGA,171139.00,3724.996036,N,12204.921098,W,7,,0.40,-22.85,M,0.0,M,0.0,0000*71
$GPRMC,171139.00,A,3724.996036,N,12204.921098,W,000.0,095.3,040920,,,A*4F
$GPGGA,171140.00,3724.996036,N,12204.921098,W,7,,0.40,-22.84,M,0.0,M,0.0,0000*7E
$GPRMC,171140.00,A,3724.996036,N,12204.921098,W,000.0,095.3,040920,,,A*41
$GPGGA,171141.00,3724.996041,N,12204.921091,W,7,,0.40,-22.85,M,0.0,M,0.0,0000*77
$GPRMC,171141.00,A,3724.996041,N,12204.921091,W,000.0,095.3,040920,,,A*49
$GPGGA,171142.00,3724.996036,N,12204.921085,W,7,,0.40,-22.81,M,0.0,M,0.0,0000*75
$GPRMC,171142.00,A,3724.996036,N,12204.921085,W,000.0,095.3,040920,,,A*4F
$GPGGA,171143.00,3724.996024,N,12204.921080,W,7,,0.40,-22.86,M,0.0,M,0.0,0000*75
$GPRMC,171143.00,A,3724.996024,N,12204.921080,W,000.0,096.0,040920,,,A*48
$GPGGA,171144.00,3724.996024,N,12204.921068,W,7,,0.40,-22.83,M,0.0,M,0.0,0000*71
$GPRMC,171144.00,A,3724.996024,N,12204.921068,W,000.0,096.0,040920,,,A*49
$GPGGA,171145.00,3724.996030,N,12204.921073,W,7,,0.40,-22.85,M,0.0,M,0.0,0000*79
$GPRMC,171145.00,A,3724.996030,N,12204.921073,W,000.0,096.0,040920,,,A*47
$GPGGA,171146.00,3724.996017,N,12204.921068,W,7,,0.40,-22.84,M,0.0,M,0.0,0000*74
$GPRMC,171146.00,A,3724.996017,N,12204.921068,W,000.0,096.0,040920,,,A*4B
$GPGGA,171147.00,3724.996017,N,12204.921073,W,7,,0.40,-22.85,M,0.0,M,0.0,0000*7E
$GPRMC,171147.00,A,3724.996017,N,12204.921073,W,000.0,096.0,040920,,,A*40
$GPGGA,171148.00,3724.996017,N,12204.921085,W,7,,0.40,-22.86,M,0.0,M,0.0,0000*7B
$GPRMC,171148.00,A,3724.996017,N,12204.921085,W,000.0,096.0,040920,,,A*46
$GPGGA,171149.00,3724.996005,N,12204.921080,W,7,,0.40,-22.88,M,0.0,M,0.0,0000*72
$GPRMC,171149.00,A,3724.996005,N,12204.921080,W,000.0,096.0,040920,,,A*41
$GPGGA,171150.00,3724.996005,N,12204.921073,W,7,,0.40,-22.86,M,0.0,M,0.0,0000*78
$GPRMC,171150.00,A,3724.996005,N,12204.921073,W,000.0,096.0,040920,,,A*45
$GPGGA,171151.00,3724.995994,N,12204.921073,W,7,,0.40,-22.82,M,0.0,M,0.0,0000*7F
$GPRMC,171151.00,A,3724.995994,N,12204.921073,W,000.0,096.0,040920,,,A*46
$GPGGA,171152.00,3724.995981,N,12204.921061,W,7,,0.40,-22.77,M,0.0,M,0.0,0000*71
$GPRMC,171152.00,A,3724.995981,N,12204.921061,W,000.0,096.0,040920,,,A*42
$GPGGA,171153.00,3724.995981,N,12204.921056,W,7,,0.40,-22.73,M,0.0,M,0.0,0000*70
$GPRMC,171153.00,A,3724.995981,N,12204.921056,W,000.0,096.0,040920,,,A*47
$GPGGA,171154.00,3724.995975,N,12204.921061,W,7,,0.40,-22.68,M,0.0,M,0.0,0000*72
$GPRMC,171154.00,A,3724.995975,N,12204.921061,W,000.0,096.0,040920,,,A*4F
$GPGGA,171155.00,3724.995969,N,12204.920917,W,7,,0.40,-22.75,M,0.0,M,0.0,0000*7B
$GPRMC,171155.00,A,3724.995969,N,12204.920917,W,000.4,091.8,040920,,,A*41
$GPGGA,171156.00,3724.995975,N,12204.920018,W,7,,0.40,-22.64,M,0.0,M,0.0,0000*73
$GPRMC,171156.00,A,3724.995975,N,12204.920018,W,002.6,089.6,040920,,,A*4E
$GPGGA,171157.00,3724.996144,N,12204.917144,W,7,,0.40,-22.53,M,0.0,M,0.0,0000*73
$GPRMC,171157.00,A,3724.996144,N,12204.917144,W,008.3,085.8,040920,,,A*47
$GPGGA,171158.00,3724.996383,N,12204.913040,W,7,,0.40,-22.44,M,0.0,M,0.0,0000*72
$GPRMC,171158.00,A,3724.996383,N,12204.913040,W,015.9,087.9,040920,,,A*45
$GPGGA,171159.00,3724.996557,N,12204.906488,W,7,,0.40,-22.27,M,0.0,M,0.0,0000*7D
$GPRMC,171159.00,A,3724.996557,N,12204.906488,W,018.7,088.0,040920,,,A*4A
$GPGGA,171200.00,3724.996557,N,12204.898934,W,7,,0.40,-22.23,M,0.0,M,0.0,0000*7A
$GPRMC,171200.00,A,3724.996557,N,12204.898934,W,021.3,090.0,040920,,,A*4E
$GPGGA,171201.00,3724.996605,N,12204.891062,W,7,,0.40,-22.47,M,0.0,M,0.0,0000*7E
$GPRMC,171201.00,A,3724.996605,N,12204.891062,W,023.7,092.2,040920,,,A*4E
$GPGGA,171202.00,3724.996203,N,12204.881858,W,7,,0.40,-22.45,M,0.0,M,0.0,0000*7D
$GPRMC,171202.00,A,3724.996203,N,12204.881858,W,026.1,093.2,040920,,,A*4D
$GPGGA,171203.00,3724.995567,N,12204.871880,W,7,,0.40,-22.64,M,0.0,M,0.0,0000*73
$GPRMC,171203.00,A,3724.995567,N,12204.871880,W,028.4,093.4,040920,,,A*4D
$GPGGA,171204.00,3724.995027,N,12204.861320,W,7,,0.40,-22.65,M,0.0,M,0.0,0000*74
$GPRMC,171204.00,A,3724.995027,N,12204.861320,W,029.9,093.9,040920,,,A*4A
$GPGGA,171205.00,3724.994386,N,12204.850627,W,7,,0.40,-22.82,M,0.0,M,0.0,0000*75
$GPRMC,171205.00,A,3724.994386,N,12204.850627,W,030.5,093.8,040920,,,A*47
$GPGGA,171206.00,3724.993863,N,12204.839755,W,7,,0.40,-22.69,M,0.0,M,0.0,0000*7F
$GPRMC,171206.00,A,3724.993863,N,12204.839755,W,032.0,093.8,040920,,,A*4F
$GPGGA,171207.00,3724.993161,N,12204.828133,W,7,,0.40,-22.89,M,0.0,M,0.0,0000*7D
$GPRMC,171207.00,A,3724.993161,N,12204.828133,W,033.9,094.4,040920,,,A*40
$GPGGA,171208.00,3724.992490,N,12204.815954,W,7,,0.40,-22.98,M,0.0,M,0.0,0000*7F
$GPRMC,171208.00,A,3724.992490,N,12204.815954,W,035.2,094.1,040920,,,A*4A
$GPGGA,171209.00,3724.991626,N,12204.803077,W,7,,0.40,-22.82,M,0.0,M,0.0,0000*76
$GPRMC,171209.00,A,3724.991626,N,12204.803077,W,036.7,094.2,040920,,,A*4D
$GPGGA,173928.00,3737.800684,N,12224.083105,W,7,,0.40,-23.73,M,0.0,M,0.0,0000*76
$GPRMC,173928.00,A,3737.800684,N,12224.083105,W,000.0,205.8,040920,,,A*40
