$GPGGA,231315.00,3731.502549,N,12221.189858,W,7,,0.40,135.76,M,0.0,M,0.0,0000*6D
$GPRMC,231315.00,A,3731.502549,N,12221.189858,W,000.0,138.7,170720,,,A*4B
$GPGGA,231316.00,3731.502555,N,12221.189840,W,7,,0.40,135.79,M,0.0,M,0.0,0000*65
$GPRMC,231316.00,A,3731.502555,N,12221.189840,W,000.0,138.6,170720,,,A*4D
$GPGGA,231317.00,3731.502543,N,12221.189833,W,7,,0.40,135.81,M,0.0,M,0.0,0000*60
$GPRMC,231317.00,A,3731.502543,N,12221.189833,W,000.1,138.6,170720,,,A*4E
$GPGGA,231318.00,3731.502549,N,12221.189821,W,7,,0.40,135.76,M,0.0,M,0.0,0000*6E
$GPRMC,231318.00,A,3731.502549,N,12221.189821,W,000.0,138.6,170720,,,A*49
$GPGGA,231319.00,3731.502562,N,12221.189840,W,7,,0.40,135.72,M,0.0,M,0.0,0000*65
$GPRMC,231319.00,A,3731.502562,N,12221.189840,W,000.1,138.6,170720,,,A*47
$GPGGA,231320.00,3731.502555,N,12221.189840,W,7,,0.40,135.74,M,0.0,M,0.0,0000*6D
$GPRMC,231320.00,A,3731.502555,N,12221.189840,W,000.0,138.6,170720,,,A*48
$GPGGA,231321.00,3731.502555,N,12221.189840,W,7,,0.40,135.70,M,0.0,M,0.0,0000*68
$GPRMC,231321.00,A,3731.502555,N,12221.189840,W,000.0,138.6,170720,,,A*49
$GPGGA,231322.00,3731.502555,N,12221.189828,W,7,,0.40,135.69,M,0.0,M,0.0,0000*6D
$GPRMC,231322.00,A,3731.502555,N,12221.189828,W,000.0,138.6,170720,,,A*44
$GPGGA,231323.00,3731.502538,N,12221.189816,W,7,,0.40,135.67,M,0.0,M,0.0,0000*64
$GPRMC,231323.00,A,3731.502538,N,12221.189816,W,000.0,138.6,170720,,,A*43
$GPGGA,231324.00,3731.502549,N,12221.189828,W,7,,0.40,135.68,M,0.0,M,0.0,0000*67
$GPRMC,231324.00,A,3731.502549,N,12221.189828,W,000.0,138.6,170720,,,A*4F
$GPGGA,231325.00,3731.502538,N,12221.189833,W,7,,0.40,135.72,M,0.0,M,0.0,0000*61
$GPRMC,231325.00,A,3731.502538,N,12221.189833,W,000.0,138.6,170720,,,A*42
$GPGGA,231326.00,3731.502538,N,12221.189828,W,7,,0.40,135.68,M,0.0,M,0.0,0000*63
$GPRMC,231326.00,A,3731.502538,N,12221.189828,W,000.0,138.6,170720,,,A*4B
$GPGGA,231327.00,3731.502555,N,12221.189840,W,7,,0.40,135.61,M,0.0,M,0.0,0000*6E
$GPRMC,231327.00,A,3731.502555,N,12221.189840,W,000.1,127.4,170720,,,A*42
$GPGGA,231328.00,3731.502549,N,12221.189833,W,7,,0.40,135.58,M,0.0,M,0.0,0000*62
$GPRMC,231328.00,A,3731.502549,N,12221.189833,W,000.0,127.4,170720,,,A*45
$GPGGA,231329.00,3731.502543,N,12221.189833,W,7,,0.40,135.58,M,0.0,M,0.0,0000*69
$GPRMC,231329.00,A,3731.502543,N,12221.189833,W,000.0,127.4,170720,,,A*4E
$GPGGA,231330.00,3731.502538,N,12221.189846,W,7,,0.40,135.60,M,0.0,M,0.0,0000*64
$GPRMC,231330.00,A,3731.502538,N,12221.189846,W,000.0,127.4,170720,,,A*48
$GPGGA,231331.00,3731.502532,N,12221.189851,W,7,,0.40,135.59,M,0.0,M,0.0,0000*63
$GPRMC,231331.00,A,3731.502532,N,12221.189851,W,000.0,127.4,170720,,,A*45
$GPGGA,231332.00,3731.502532,N,12221.189851,W,7,,0.40,135.60,M,0.0,M,0.0,0000*6A
$GPRMC,231332.00,A,3731.502532,N,12221.189851,W,000.0,127.4,170720,,,A*46
$GPGGA,231333.00,3731.502538,N,12221.189846,W,7,,0.40,135.60,M,0.0,M,0.0,0000*67
$GPRMC,231333.00,A,3731.502538,N,12221.189846,W,000.0,127.4,170720,,,A*4B
$GPGGA,231334.00,3731.502532,N,12221.189846,W,7,,0.40,135.62,M,0.0,M,0.0,0000*68
$GPRMC,231334.00,A,3731.502532,N,12221.189846,W,000.0,127.4,170720,,,A*46
$GPGGA,231335.00,3731.502519,N,12221.189840,W,7,,0.40,135.61,M,0.0,M,0.0,0000*65
$GPRMC,231335.00,A,3731.502519,N,12221.189840,W,000.0,127.4,170720,,,A*48
$GPGGA,231336.00,3731.502513,N,12221.189833,W,7,,0.40,135.62,M,0.0,M,0.0,0000*6B
$GPRMC,231336.00,A,3731.502513,N,12221.189833,W,000.0,127.4,170720,,,A*45
$GPGGA,231337.00,3731.502507,N,12221.189840,W,7,,0.40,135.60,M,0.0,M,0.0,0000*69
$GPRMC,231337.00,A,3731.502507,N,12221.189840,W,000.0,127.4,170720,,,A*45
$GPGGA,231338.00,3731.502513,N,12221.189840,W,7,,0.60,135.56,M,0.0,M,0.0,0000*64
$GPRMC,231338.00,A,3731.502513,N,12221.189840,W,000.0,127.4,170720,,,A*4F
$GPGGA,231339.00,3731.502507,N,12221.189840,W,7,,0.40,135.55,M,0.0,M,0.0,0000*61
$GPRMC,231339.00,A,3731.502507,N,12221.189840,W,000.0,127.4,170720,,,A*4B
$GPGGA,231340.00,3731.502490,N,12221.189840,W,7,,0.40,135.56,M,0.0,M,0.0,0000*63
$GPRMC,231340.00,A,3731.502490,N,12221.189840,W,000.0,127.4,170720,,,A*4A
$GPGGA,231341.00,3731.502496,N,12221.189846,W,7,,0.40,135.55,M,0.0,M,0.0,0000*61
$GPRMC,231341.00,A,3731.502496,N,12221.189846,W,000.0,127.3,170720,,,A*4C
$GPGGA,231342.00,3731.502490,N,12221.189846,W,7,,0.40,135.55,M,0.0,M,0.0,0000*64
$GPRMC,231342.00,A,3731.502490,N,12221.189846,W,000.0,127.4,170720,,,A*4E
$GPGGA,231343.00,3731.502502,N,12221.189851,W,7,,0.40,135.55,M,0.0,M,0.0,0000*69
$GPRMC,231343.00,A,3731.502502,N,12221.189851,W,000.0,127.4,170720,,,A*43
$GPGGA,231344.00,3731.502496,N,12221.189846,W,7,,0.40,135.54,M,0.0,M,0.0,0000*65
$GPRMC,231344.00,A,3731.502496,N,12221.189846,W,000.0,127.4,170720,,,A*4E
$GPGGA,231345.00,3731.502502,N,12221.189846,W,7,,0.40,135.53,M,0.0,M,0.0,0000*6F
$GPRMC,231345.00,A,3731.502502,N,12221.189846,W,000.0,127.4,170720,,,A*43
$GPGGA,231346.00,3731.502513,N,12221.189840,W,7,,0.40,135.49,M,0.0,M,0.0,0000*61
$GPRMC,231346.00,A,3731.502513,N,12221.189840,W,000.0,127.4,170720,,,A*46
$GPGGA,231347.00,3731.502507,N,12221.189821,W,7,,0.40,135.51,M,0.0,M,0.0,0000*6B
$GPRMC,231347.00,A,3731.502507,N,12221.189821,W,000.1,128.1,170720,,,A*4E
$GPGGA,231348.00,3731.502502,N,12221.189821,W,7,,0.40,135.51,M,0.0,M,0.0,0000*61
$GPRMC,231348.00,A,3731.502502,N,12221.189821,W,000.0,128.1,170720,,,A*45
$GPGGA,231349.00,3731.502496,N,12221.189821,W,7,,0.40,135.53,M,0.0,M,0.0,0000*6E
$GPRMC,231349.00,A,3731.502496,N,12221.189821,W,000.0,128.1,170720,,,A*48
$GPGGA,231350.00,3731.502507,N,12221.189821,W,7,,0.40,135.52,M,0.0,M,0.0,0000*6E
$GPRMC,231350.00,A,3731.502507,N,12221.189821,W,000.0,128.1,170720,,,A*49
$GPGGA,231351.00,3731.502496,N,12221.189821,W,7,,0.40,135.55,M,0.0,M,0.0,0000*61
$GPRMC,231351.00,A,3731.502496,N,12221.189821,W,000.0,128.1,170720,,,A*41
$GPGGA,231352.00,3731.502502,N,12221.189816,W,7,,0.40,135.53,M,0.0,M,0.0,0000*6C
$GPRMC,231352.00,A,3731.502502,N,12221.189816,W,000.0,128.1,170720,,,A*4A
$GPGGA,231353.00,3731.502502,N,12221.189821,W,7,,0.40,135.58,M,0.0,M,0.0,0000*62
$GPRMC,231353.00,A,3731.502502,N,12221.189821,W,000.0,128.1,170720,,,A*4F
$GPGGA,231354.00,3731.502507,N,12221.189828,W,7,,0.40,135.56,M,0.0,M,0.0,0000*67
$GPRMC,231354.00,A,3731.502507,N,12221.189828,W,000.0,128.2,170720,,,A*47
$GPGGA,231355.00,3731.502513,N,12221.189833,W,7,,0.40,135.58,M,0.0,M,0.0,0000*67
$GPRMC,231355.00,A,3731.502513,N,12221.189833,W,000.0,128.2,170720,,,A*49
$GPGGA,231356.00,3731.502513,N,12221.189846,W,7,,0.40,135.59,M,0.0,M,0.0,0000*67
$GPRMC,231356.00,A,3731.502513,N,12221.189846,W,000.0,128.2,170720,,,A*48
$GPGGA,231357.00,3731.502519,N,12221.189851,W,7,,0.40,135.59,M,0.0,M,0.0,0000*6A
$GPRMC,231357.00,A,3731.502519,N,12221.189851,W,000.0,128.1,170720,,,A*46
$GPGGA,231358.00,3731.502513,N,12221.189858,W,7,,0.40,135.59,M,0.0,M,0.0,0000*66
$GPRMC,231358.00,A,3731.502513,N,12221.189858,W,000.0,128.1,170720,,,A*4A
$GPGGA,231359.00,3731.502513,N,12221.189858,W,7,,0.40,135.58,M,0.0,M,0.0,0000*66
$GPRMC,231359.00,A,3731.502513,N,12221.189858,W,000.0,128.1,170720,,,A*4B
$GPGGA,231400.00,3731.502519,N,12221.189863,W,7,,0.40,135.57,M,0.0,M,0.0,0000*60
$GPRMC,231400.00,A,3731.502519,N,12221.189863,W,000.0,128.1,170720,,,A*42
$GPGGA,231401.00,3731.502526,N,12221.189863,W,7,,0.40,135.55,M,0.0,M,0.0,0000*6F
$GPRMC,231401.00,A,3731.502526,N,12221.189863,W,000.0,128.1,170720,,,A*4F
$GPGGA,231402.00,3731.502280,N,12221.189533,W,7,,0.40,135.59,M,0.0,M,0.0,0000*63
$GPRMC,231402.00,A,3731.502280,N,12221.189533,W,001.3,133.0,170720,,,A*46
$GPGGA,231403.00,3731.501338,N,12221.188148,W,7,,0.40,135.59,M,0.0,M,0.0,0000*6A
$GPRMC,231403.00,A,3731.501338,N,12221.188148,W,005.2,130.6,170720,,,A*4F
$GPGGA,231404.00,3731.499843,N,12221.185627,W,7,,0.40,135.70,M,0.0,M,0.0,0000*62
$GPRMC,231404.00,A,3731.499843,N,12221.185627,W,009.0,127.0,170720,,,A*42
$GPGGA,231405.00,3731.497617,N,12221.182406,W,7,,0.40,135.95,M,0.0,M,0.0,0000*6F
$GPRMC,231405.00,A,3731.497617,N,12221.182406,W,012.2,131.2,170720,,,A*49
$GPGGA,231406.00,3731.494582,N,12221.179021,W,7,,0.40,136.38,M,0.0,M,0.0,0000*61
$GPRMC,231406.00,A,3731.494582,N,12221.179021,W,014.6,138.5,170720,,,A*4F
$GPGGA,231407.00,3731.491444,N,12221.175889,W,7,,0.40,136.55,M,0.0,M,0.0,0000*63
$GPRMC,231407.00,A,3731.491444,N,12221.175889,W,014.4,141.7,170720,,,A*48
$GPGGA,231408.00,3731.488683,N,12221.173321,W,7,,0.40,136.73,M,0.0,M,0.0,0000*66
$GPRMC,231408.00,A,3731.488683,N,12221.173321,W,012.3,143.4,170720,,,A*49
$GPGGA,231409.00,3731.486355,N,12221.171402,W,7,,0.40,136.91,M,0.0,M,0.0,0000*6F
$GPRMC,231409.00,A,3731.486355,N,12221.171402,W,010.0,146.8,170720,,,A*44
$GPGGA,231410.00,3731.484207,N,12221.170315,W,7,,0.40,137.02,M,0.0,M,0.0,0000*68
$GPRMC,231410.00,A,3731.484207,N,12221.170315,W,008.3,158.1,170720,,,A*44
$GPGGA,231411.00,3731.481645,N,12221.170291,W,7,,0.40,137.21,M,0.0,M,0.0,0000*62
$GPRMC,231411.00,A,3731.481645,N,12221.170291,W,009.2,179.4,170720,,,A*49
$GPGGA,231412.00,3731.478784,N,12221.171581,W,7,,0.40,137.31,M,0.0,M,0.0,0000*6D
$GPRMC,231412.00,A,3731.478784,N,12221.171581,W,011.0,199.6,170720,,,A*40
$GPGGA,231413.00,3731.475784,N,12221.174234,W,7,,0.40,137.30,M,0.0,M,0.0,0000*6C
$GPRMC,231413.00,A,3731.475784,N,12221.174234,W,013.1,215.2,170720,,,A*40
$GPGGA,231414.00,3731.472603,N,12221.178020,W,7,,0.40,137.01,M,0.0,M,0.0,0000*6B
$GPRMC,231414.00,A,3731.472603,N,12221.178020,W,015.8,223.3,170720,,,A*4E
$GPGGA,231415.00,3731.469141,N,12221.182507,W,7,,0.40,136.55,M,0.0,M,0.0,0000*64
$GPRMC,231415.00,A,3731.469141,N,12221.182507,W,017.8,225.8,170720,,,A*4E
$GPGGA,231416.00,3731.465506,N,12221.187332,W,7,,0.40,136.04,M,0.0,M,0.0,0000*6D
$GPRMC,231416.00,A,3731.465506,N,12221.187332,W,019.0,226.5,170720,,,A*4B
$GPGGA,231417.00,3731.461797,N,12221.192300,W,7,,0.40,135.56,M,0.0,M,0.0,0000*63
$GPRMC,231417.00,A,3731.461797,N,12221.192300,W,019.5,226.7,170720,,,A*46
$GPGGA,231418.00,3731.457999,N,12221.197201,W,7,,0.40,135.07,M,0.0,M,0.0,0000*68
$GPRMC,231418.00,A,3731.457999,N,12221.197201,W,019.5,225.7,170720,,,A*4A
$GPGGA,231419.00,3731.454226,N,12221.201996,W,7,,0.40,134.37,M,0.0,M,0.0,0000*6E
$GPRMC,231419.00,A,3731.454226,N,12221.201996,W,019.3,225.2,170720,,,A*4D
$GPGGA,231420.00,3731.450265,N,12221.206748,W,7,,0.40,133.73,M,0.0,M,0.0,0000*6A
$GPRMC,231420.00,A,3731.450265,N,12221.206748,W,019.7,223.6,170720,,,A*48
$GPGGA,231421.00,3731.446035,N,12221.211433,W,7,,0.40,133.07,M,0.0,M,0.0,0000*61
$GPRMC,231421.00,A,3731.446035,N,12221.211433,W,020.3,221.3,170720,,,A*49
$GPGGA,234214.00,3724.931253,N,12204.841231,W,7,,0.40,-28.95,M,0.0,M,0.0,0000*7E
$GPRMC,234214.00,A,3724.931253,N,12204.841231,W,000.0,001.0,170720,,,A*49
$GPGGA,234215.00,3724.931272,N,12204.841249,W,7,,0.40,-28.89,M,0.0,M,0.0,0000*7E
$GPRMC,234215.00,A,3724.931272,N,12204.841249,W,000.0,001.0,170720,,,A*44
$GPGGA,234216.00,3724.931278,N,12204.841249,W,7,,0.40,-28.94,M,0.0,M,0.0,0000*7B
$GPRMC,234216.00,A,3724.931278,N,12204.841249,W,000.0,001.0,170720,,,A*4D
